LanguageId,LanguageName,Latitude,Longitude,WordId,WordModernName1,WordModernName2,WordProtoName1,WordProtoName2,Phonetic,SpellingAltv1,SpellingAltv2,NotCognateWithMainWordInThisFamily2
11141160509,"‘Low Saxon’: Achterhoek",52.11667,6.51667,10,one,,oyno,,Array,,,0
11141160509,"‘Low Saxon’: Achterhoek",52.11667,6.51667,20,two,,dwaaw,,tβɛ̝ˑɪ,,,0
11141160509,"‘Low Saxon’: Achterhoek",52.11667,6.51667,30,three,,tris,,dʁeː,,,0
11141160509,"‘Low Saxon’: Achterhoek",52.11667,6.51667,40,four,,kwetwores,,ˈfiˑəʁ̞ə,,,0
11141160509,"‘Low Saxon’: Achterhoek",52.11667,6.51667,50,five,,kwenkwe,,ˈfiːfə,,,0
11141160509,"‘Low Saxon’: Achterhoek",52.11667,6.51667,60,six,,swexs,,ˈzɛsə,,,0
11141160509,"‘Low Saxon’: Achterhoek",52.11667,6.51667,70,seven,,sextam,,ˈzœːv̥n̩,,,0
11141160509,"‘Low Saxon’: Achterhoek",52.11667,6.51667,80,eight,,oxtuu,,ˈa̠χtə,,,0
11141160509,"‘Low Saxon’: Achterhoek",52.11667,6.51667,90,nine,,nowan,,ˈneːχn̩,,,0
11141160509,"‘Low Saxon’: Achterhoek",52.11667,6.51667,100,ten,,dekam,,tiːnə,,,0
11141160509,"‘Low Saxon’: Achterhoek",52.11667,6.51667,200,hundred,,kantom,,ˈhʊndəʁ̞t,,,0
11141160509,"‘Low Saxon’: Achterhoek",52.11667,6.51667,7820,,,,,a̠ɫ,,,0
11141160509,"‘Low Saxon’: Achterhoek",52.11667,6.51667,7020,,,,,βɪt,,,0
11141160509,"‘Low Saxon’: Achterhoek",52.11667,6.51667,7030,,,,,ʁo̞ːt,,,0
11141160509,"‘Low Saxon’: Achterhoek",52.11667,6.51667,7040,green,,glastos,,χøːn,,,0
11141160509,"‘Low Saxon’: Achterhoek",52.11667,6.51667,7210,,,,,ˈla̠ŋə,,,0
11141160509,"‘Low Saxon’: Achterhoek",52.11667,6.51667,7410,,,,,ˈsχa̠ɾəp,,,0
11141160509,"‘Low Saxon’: Achterhoek",52.11667,6.51667,7840,full,,laanos,,ɸʊɫ,,,0
11141160509,"‘Low Saxon’: Achterhoek",52.11667,6.51667,7510,young,,yowankos,,ˈjʊŋə,,,0
11141160509,"‘Low Saxon’: Achterhoek",52.11667,6.51667,7980,,,,,niː,,,0
11141160509,"‘Low Saxon’: Achterhoek",52.11667,6.51667,7670,,,,,ˈna̠ːkənt,,,0
11141160509,"‘Low Saxon’: Achterhoek",52.11667,6.51667,7650,,,,,..,,,0
11141160509,"‘Low Saxon’: Achterhoek",52.11667,6.51667,7660,,,,,ˈɸa̠stə,,,0
11141160509,"‘Low Saxon’: Achterhoek",52.11667,6.51667,7710,good,,mati,,χo̞ːt,,,0
11141160509,"‘Low Saxon’: Achterhoek",52.11667,6.51667,7910,,,,,ˈβa̠ɾəm,,,0
11141160509,"‘Low Saxon’: Achterhoek",52.11667,6.51667,7920,,,,,kɔɫt,,,0
11141160509,"‘Low Saxon’: Achterhoek",52.11667,6.51667,7560,,,,,zeˑɐ,,,0
11141160509,"‘Low Saxon’: Achterhoek",52.11667,6.51667,7680,,,,,ˈhɛ̝ˑɪləχ,,,0
11141160509,"‘Low Saxon’: Achterhoek",52.11667,6.51667,7700,,,,,ˈbɛtʁ̞̩,,,0
11141160509,"‘Low Saxon’: Achterhoek",52.11667,6.51667,810,,,,,ʁ̞ɛ̈χ,,,0
11141160509,"‘Low Saxon’: Achterhoek",52.11667,6.51667,2010,head,,kwennom,,høːs,,,0
11141160509,"‘Low Saxon’: Achterhoek",52.11667,6.51667,2110,,,,,ˈoːʁə,,,0
11141160509,"‘Low Saxon’: Achterhoek",52.11667,6.51667,2130,,,,,oˑɐ,,,0
11141160509,"‘Low Saxon’: Achterhoek",52.11667,6.51667,2140,teardrop,,dakro,,tʰʁɔ̞ːn,,,0
11141160509,"‘Low Saxon’: Achterhoek",52.11667,6.51667,2210,,,,,mʊnt,,,0
11141160509,"‘Low Saxon’: Achterhoek",52.11667,6.51667,2230,tongue,,tangwaat,,tʰʊŋə,,,0
11141160509,"‘Low Saxon’: Achterhoek",52.11667,6.51667,2240,,,,,tʰa̠nt,,,0
11141160509,"‘Low Saxon’: Achterhoek",52.11667,6.51667,2310,,,,,ha̠nt,,,0
11141160509,"‘Low Saxon’: Achterhoek",52.11667,6.51667,2510,,,,,βo̞ːt,,,0
11141160509,"‘Low Saxon’: Achterhoek",52.11667,6.51667,2530,,,,,kneˑɪ,,,0
11141160509,"‘Low Saxon’: Achterhoek",52.11667,6.51667,2540,,,,,tʰe̝ːn,,,0
11141160509,"‘Low Saxon’: Achterhoek",52.11667,6.51667,2610,,,,,blo̞ːt,,,0
11141160509,"‘Low Saxon’: Achterhoek",52.11667,6.51667,2620,,,,,beːn,,,0
11141160509,"‘Low Saxon’: Achterhoek",52.11667,6.51667,2640,,,,,ˈnɛ̝ːχɫ̩,,,0
11141160509,"‘Low Saxon’: Achterhoek",52.11667,6.51667,2810,,,,,ˈha̠tə,,,0
11141160509,"‘Low Saxon’: Achterhoek",52.11667,6.51667,2840,,,,,ˈlɛ̝ːβʁ̞̩,,,0
11141160509,"‘Low Saxon’: Achterhoek",52.11667,6.51667,4310,,,,,Array,,,0
11141160509,"‘Low Saxon’: Achterhoek",52.11667,6.51667,4320,,,,,Array,,,0
11141160509,"‘Low Saxon’: Achterhoek",52.11667,6.51667,4410,,,,,ˈdɒχtʁ̞̩,,,0
11141160509,"‘Low Saxon’: Achterhoek",52.11667,6.51667,4330,,,,,bʁʏˑʁ̞̩,,,0
11141160509,"‘Low Saxon’: Achterhoek",52.11667,6.51667,4100,name,,anuman,,ˈna̠ːmə,,,0
11141160509,"‘Low Saxon’: Achterhoek",52.11667,6.51667,4110,,,,,βoˑɐt,,,0
11141160509,"‘Low Saxon’: Achterhoek",52.11667,6.51667,3120,,,,,hʊnt,,,0
11141160509,"‘Low Saxon’: Achterhoek",52.11667,6.51667,3150,,,,,mys,,,0
11141160509,"‘Low Saxon’: Achterhoek",52.11667,6.51667,3230,,,,,χa̠ns,,,0
11141160509,"‘Low Saxon’: Achterhoek",52.11667,6.51667,3310,,,,,ko̞ː,,,0
11141160509,"‘Low Saxon’: Achterhoek",52.11667,6.51667,3320,,,,,la̠m,,,0
11141160509,"‘Low Saxon’: Achterhoek",52.11667,6.51667,3340,,,,,kɑləɸ,,,0
11141160509,"‘Low Saxon’: Achterhoek",52.11667,6.51667,3240,,,,,ɸɪʃ,,,0
11141160509,"‘Low Saxon’: Achterhoek",52.11667,6.51667,3820,,,,,hoɐn,,,0
11141160509,"‘Low Saxon’: Achterhoek",52.11667,6.51667,3900,,,,,βʌlə,,,0
11141160509,"‘Low Saxon’: Achterhoek",52.11667,6.51667,5120,,,,,mɔ̞ːnə,,,0
11141160509,"‘Low Saxon’: Achterhoek",52.11667,6.51667,5260,,,,,noˑɐt,,,0
11141160509,"‘Low Saxon’: Achterhoek",52.11667,6.51667,5510,,,,,steːn,,,0
11141160509,"‘Low Saxon’: Achterhoek",52.11667,6.51667,5430,,,,,a̠s,,,0
11141160509,"‘Low Saxon’: Achterhoek",52.11667,6.51667,5520,soil,,kwriiyets,,ˈiˑʁ̞̩də,,,0
11141160509,"‘Low Saxon’: Achterhoek",52.11667,6.51667,6260,,,,,..,,,0
11141160509,"‘Low Saxon’: Achterhoek",52.11667,6.51667,6270,,,,,doˑɐn,,,0
11141160509,"‘Low Saxon’: Achterhoek",52.11667,6.51667,6290,,,,,ˈe̝ːkə,,,0
11141160509,"‘Low Saxon’: Achterhoek",52.11667,6.51667,5810,,,,,Array,,,0
11141160509,"‘Low Saxon’: Achterhoek",52.11667,6.51667,5910,,,,,ˈstʌʁəm,,,0
11141160509,"‘Low Saxon’: Achterhoek",52.11667,6.51667,5920,,,,,ˈdʊndʁ̞̩,,,0
11141160509,"‘Low Saxon’: Achterhoek",52.11667,6.51667,5820,,,,,snɛ̝ˑɪ,,,0
11141160509,"‘Low Saxon’: Achterhoek",52.11667,6.51667,5830,,,,,is,,,0
11141160509,"‘Low Saxon’: Achterhoek",52.11667,6.51667,5850,wind,,wintos,,βɪnt,,,0
11141160509,"‘Low Saxon’: Achterhoek",52.11667,6.51667,6000,,,,,ˈhʊŋʁ̞̩,,,0
11141160509,"‘Low Saxon’: Achterhoek",52.11667,6.51667,6050,,,,,ˈmɛlək,,,0
11141160509,"‘Low Saxon’: Achterhoek",52.11667,6.51667,6150,,,,,ˈhɔ̞nʌχ,,,0
11141160509,"‘Low Saxon’: Achterhoek",52.11667,6.51667,6040,salt,,salanos,,Array,,,0
11141160509,"‘Low Saxon’: Achterhoek",52.11667,6.51667,6070,grain,,graanom,,kʰoˑɐn,,,0
11141160509,"‘Low Saxon’: Achterhoek",52.11667,6.51667,6510,,,,,hys,,,0
11141160509,"‘Low Saxon’: Achterhoek",52.11667,6.51667,6560,,,,,heːm,,,0
11141160509,"‘Low Saxon’: Achterhoek",52.11667,6.51667,6540,,,,,χoˑɐt,,,0
11141160509,"‘Low Saxon’: Achterhoek",52.11667,6.51667,6550,,,,,ˈɔ̞ːβn̩,,,0
11141160509,"‘Low Saxon’: Achterhoek",52.11667,6.51667,6570,,,,,stɔ̝ːɫ,,,0
11141160509,"‘Low Saxon’: Achterhoek",52.11667,6.51667,6580,,,,,ba̠t,,,0
11141160509,"‘Low Saxon’: Achterhoek",52.11667,6.51667,6600,,,,,dɪŋ,,,0
11141160509,"‘Low Saxon’: Achterhoek",52.11667,6.51667,1440,,,,,tɔp,,,0
11141160509,"‘Low Saxon’: Achterhoek",52.11667,6.51667,6630,,,,,ˈnɔ̞ːɫdə,,,0
11141160509,"‘Low Saxon’: Achterhoek",52.11667,6.51667,6640,,,,,ʁɪŋ,,,0
11141160509,"‘Low Saxon’: Achterhoek",52.11667,6.51667,8000,,,,,ɪs̺,,,0
11141160509,"‘Low Saxon’: Achterhoek",52.11667,6.51667,8310,,,,,ɛt,,,0
11141160509,"‘Low Saxon’: Achterhoek",52.11667,6.51667,8330,,,,,bit,,,0
11141160509,"‘Low Saxon’: Achterhoek",52.11667,6.51667,8320,,,,,dʁɪŋk,,,0
11141160509,"‘Low Saxon’: Achterhoek",52.11667,6.51667,8510,,,,,zɛ̝ˑɪ,,,0
11141160509,"‘Low Saxon’: Achterhoek",52.11667,6.51667,8520,,,,,høˑɐ,,,0
11141160509,"‘Low Saxon’: Achterhoek",52.11667,6.51667,9620,,,,,Array,,,0
11141160509,"‘Low Saxon’: Achterhoek",52.11667,6.51667,8120,,,,,zɪt,,,0
11141160509,"‘Low Saxon’: Achterhoek",52.11667,6.51667,8720,,,,,βa̠s,,,0
11141160509,"‘Low Saxon’: Achterhoek",52.11667,6.51667,8940,,,,,fɛχt,,,0
11141160509,"‘Low Saxon’: Achterhoek",52.11667,6.51667,8990,,,,,zβiˑɐ,,,0
11141160509,"‘Low Saxon’: Achterhoek",52.11667,6.51667,1010,,,,,Array,,,0
11141160509,"‘Low Saxon’: Achterhoek",52.11667,6.51667,1210,,,,,βa̠t,,,0
11141160509,"‘Low Saxon’: Achterhoek",52.11667,6.51667,1410,,,,,ɪn,,,0
11141160509,"‘Low Saxon’: Achterhoek",52.11667,6.51667,1430,,,,,yt,,,0
11141160509,"‘Low Saxon’: Achterhoek",52.11667,6.51667,1460,,,,,ˈɔ̞ːβ̥ʁ̞̩,,,0
11141160509,"‘Low Saxon’: Achterhoek",52.11667,6.51667,1470,,,,,ˈmɪdn̩,,,0
11141160509,"‘Low Saxon’: Achterhoek",52.11667,6.51667,5010,,,,,da̠χ,,,0
11141160509,"‘Low Saxon’: Achterhoek",52.11667,6.51667,5020,,,,,na̠χ,,,0
11141160509,"‘Low Saxon’: Achterhoek",52.11667,6.51667,510,,,,,joˑɐ,,,0
