LanguageId,LanguageName,Latitude,Longitude,WordId,WordModernName1,WordModernName2,WordProtoName1,WordProtoName2,Phonetic,SpellingAltv1,SpellingAltv2,NotCognateWithMainWordInThisFamily2
11121320209,"Fris. N.: Feer",54.71667,8.5,10,one,,ainaz,,ʔiæ̝n,,,0
11121320209,"Fris. N.: Feer",54.71667,8.5,20,two,,twou,,tʰäo,,,0
11121320209,"Fris. N.: Feer",54.71667,8.5,30,three,,threjez,,tri̞,,,0
11121320209,"Fris. N.: Feer",54.71667,8.5,40,four,,fedworez,,fjä̝o̞ɔ̟,,,0
11121320209,"Fris. N.: Feer",54.71667,8.5,50,five,,fenfe,,fiːf,,,0
11121320209,"Fris. N.: Feer",54.71667,8.5,60,six,,sexs,,se̝ːks,,,0
11121320209,"Fris. N.: Feer",54.71667,8.5,70,seven,,sebun,,ˈsøːvn̩,,,0
11121320209,"Fris. N.: Feer",54.71667,8.5,80,eight,,axtou,,ʔä̠χt,,,0
11121320209,"Fris. N.: Feer",54.71667,8.5,90,nine,,newun,,ˈnjygⁿŋ̩,,,0
11121320209,"Fris. N.: Feer",54.71667,8.5,100,ten,,texun,,tʰʲiːn,,,0
11121320209,"Fris. N.: Feer",54.71667,8.5,200,hundred,,xundaradan,,hʊnɐ̞tʰ,,,0
11121320209,"Fris. N.: Feer",54.71667,8.5,7820,all,,allaz,,ʔäːl,,,0
11121320209,"Fris. N.: Feer",54.71667,8.5,7020,white,,xwitaz,,vitç,,,0
11121320209,"Fris. N.: Feer",54.71667,8.5,7030,red,,raudaz,,ruət,,,0
11121320209,"Fris. N.: Feer",54.71667,8.5,7040,green,,groniz,,dreːn,,,0
11121320209,"Fris. N.: Feer",54.71667,8.5,7210,long,,langaz,,lʊŋ,,,0
11121320209,"Fris. N.: Feer",54.71667,8.5,7410,sharp,,skarpaz,,ˈsg̥arap,,,0
11121320209,"Fris. N.: Feer",54.71667,8.5,7840,full,,fullaz,,fɔl,,,0
11121320209,"Fris. N.: Feer",54.71667,8.5,7510,young,,jungaz,,jɒŋ,,,0
11121320209,"Fris. N.: Feer",54.71667,8.5,7980,new,,neujaz,,nai,,,0
11121320209,"Fris. N.: Feer",54.71667,8.5,7670,naked,,nakwadaz,,ˈnäːgət,,,0
11121320209,"Fris. N.: Feer",54.71667,8.5,7660,fast,,fastaz,,feːst,,,0
11121320209,"Fris. N.: Feer",54.71667,8.5,7710,good,,godaz,,gʊt,,,0
11121320209,"Fris. N.: Feer",54.71667,8.5,7910,warm,,warmaz,,ˈväram,,,0
11121320209,"Fris. N.: Feer",54.71667,8.5,7920,cold,,kaldaz,,kʰuˑl,,,0
11121320209,"Fris. N.: Feer",54.71667,8.5,7560,sore,,sairaz,,sië,,,0
11121320209,"Fris. N.: Feer",54.71667,8.5,7680,holy,,xailagaz,,ˈhe̞likʰ,,,0
11121320209,"Fris. N.: Feer",54.71667,8.5,7700,better,,batizon,,ˈbeːda,,,0
11121320209,"Fris. N.: Feer",54.71667,8.5,810,right,,rextaz,,rɔ̞χt,,,0
11121320209,"Fris. N.: Feer",54.71667,8.5,2010,head,,xaubadan,,ho̝ːt,,,0
11121320209,"Fris. N.: Feer",54.71667,8.5,2110,eye,,augon,,ʔu̟ːk,,,0
11121320209,"Fris. N.: Feer",54.71667,8.5,2130,ear,,auzon,,ʔuʌ,,,0
11121320209,"Fris. N.: Feer",54.71667,8.5,2140,tear,,taxruz,,tʰuʌ,,,0
11121320209,"Fris. N.: Feer",54.71667,8.5,2210,mouth,,munthaz,,mœ̞s,,,0
11121320209,"Fris. N.: Feer",54.71667,8.5,2230,tongue,,tungon,,tʰɒ̃ŋ,,,0
11121320209,"Fris. N.: Feer",54.71667,8.5,2240,tooth,,tanthz,,tʰʊ̞s,,,0
11121320209,"Fris. N.: Feer",54.71667,8.5,2310,hand,,xanduz,,hʊn,,,0
11121320209,"Fris. N.: Feer",54.71667,8.5,2510,foot,,fotz,,fʊ̞tʰ,,,0
11121320209,"Fris. N.: Feer",54.71667,8.5,2530,knee,,knewan,,ˈkʰnœ̝bʝɛ̝n,,,0
11121320209,"Fris. N.: Feer",54.71667,8.5,2540,toe,,taixwon,,tʰuʌn,,,0
11121320209,"Fris. N.: Feer",54.71667,8.5,2610,blood,,blodan,,blo̟tʰ,,,0
11121320209,"Fris. N.: Feer",54.71667,8.5,2620,bone,,bainan,,ˈbijɛn,,,0
11121320209,"Fris. N.: Feer",54.71667,8.5,2640,nail,,naglaz,,ˈnäːjl̩,,,0
11121320209,"Fris. N.: Feer",54.71667,8.5,2810,heart,,xerton,,ha̠ˑχt,,,0
11121320209,"Fris. N.: Feer",54.71667,8.5,2840,liver,,libaro,,lʏvä̟,,,0
11121320209,"Fris. N.: Feer",54.71667,8.5,4310,mother,,moder,,mäm,,,1
11121320209,"Fris. N.: Feer",54.71667,8.5,4320,father,,fader,,ˈpfeˑdɐ,,,0
11121320209,"Fris. N.: Feer",54.71667,8.5,4410,daughter,,duxter,,do:χtɐ,,,0
11121320209,"Fris. N.: Feer",54.71667,8.5,4330,brother,,brother,,ˈbrʊlə,,,0
11121320209,"Fris. N.: Feer",54.71667,8.5,4100,name,,namon,,nø̃ːm,,,0
11121320209,"Fris. N.: Feer",54.71667,8.5,4110,word,,wurdan,,voʌtʰ,,,0
11121320209,"Fris. N.: Feer",54.71667,8.5,3120,hound,,xundaz,,hy̟ɲ,,,0
11121320209,"Fris. N.: Feer",54.71667,8.5,3150,mouse,,musz,,mʏ̈s,,,0
11121320209,"Fris. N.: Feer",54.71667,8.5,3230,goose,,gansz,,gʊ̞s,,,0
11121320209,"Fris. N.: Feer",54.71667,8.5,3310,cow,,kowz,,kʰʏ,,,0
11121320209,"Fris. N.: Feer",54.71667,8.5,3320,lamb,,lambaz,,lom,,,0
11121320209,"Fris. N.: Feer",54.71667,8.5,3340,calf,,kalbaz,,ˈkʰuələ,,,0
11121320209,"Fris. N.: Feer",54.71667,8.5,3240,fish,,fiskaz,,fask,,,0
11121320209,"Fris. N.: Feer",54.71667,8.5,3820,horn,,xurnan,,hʊrn,,,0
11121320209,"Fris. N.: Feer",54.71667,8.5,3900,wool,,wullo,,ʔo̞l,,,0
11121320209,"Fris. N.: Feer",54.71667,8.5,5120,moon,,menon,,mõːn,,,0
11121320209,"Fris. N.: Feer",54.71667,8.5,5260,north,,nurthaz,,noɤt,,,0
11121320209,"Fris. N.: Feer",54.71667,8.5,5510,stone,,stainaz,,stiæn,,,0
11121320209,"Fris. N.: Feer",54.71667,8.5,5430,ash,,askon,,ʔe̝ːskʰ,,,0
11121320209,"Fris. N.: Feer",54.71667,8.5,5520,earth,,ertho,,ʔeɛt,,,0
11121320209,"Fris. N.: Feer",54.71667,8.5,6260,leaf,,lauban,,bleːd̥,,,1
11121320209,"Fris. N.: Feer",54.71667,8.5,6270,thorn,,thurnuz,,pʰuɤtʰ,,,1
11121320209,"Fris. N.: Feer",54.71667,8.5,6290,oak,,aikz,,ˈʔikʰʲe,,,0
11121320209,"Fris. N.: Feer",54.71667,8.5,5810,rain,,regnan,,rɪn,,,0
11121320209,"Fris. N.: Feer",54.71667,8.5,5910,storm,,sturmaz,,ˈsd̥ʊrʌm,,,0
11121320209,"Fris. N.: Feer",54.71667,8.5,5920,thunder,,thunraz,,ˈtʰɔnä,,,0
11121320209,"Fris. N.: Feer",54.71667,8.5,5820,snow,,snaigwaz,,snæ,,,0
11121320209,"Fris. N.: Feer",54.71667,8.5,5830,ice,,isaz,,ʔɪs,,,0
11121320209,"Fris. N.: Feer",54.71667,8.5,5850,wind,,wendaz,,viɲ,,,0
11121320209,"Fris. N.: Feer",54.71667,8.5,6000,hunger,,xungruz,,ˈhɒ̃nəŋ,,,0
11121320209,"Fris. N.: Feer",54.71667,8.5,6050,milk,,melkaz,,muəlk,,,0
11121320209,"Fris. N.: Feer",54.71667,8.5,6150,honey,,hunagan,,ˈhœneŋ,,,0
11121320209,"Fris. N.: Feer",54.71667,8.5,6040,salt,,saltan,,säːlt,,,0
11121320209,"Fris. N.: Feer",54.71667,8.5,6070,corn,,kurnan,,kʰʊrn,,,0
11121320209,"Fris. N.: Feer",54.71667,8.5,6510,house,,xusan,,hʏs,,,0
11121320209,"Fris. N.: Feer",54.71667,8.5,6560,home,,xaimaz,,ˈʔaran,,,1
11121320209,"Fris. N.: Feer",54.71667,8.5,6540,yard,,gardaz,,g̥uɤt,,,0
11121320209,"Fris. N.: Feer",54.71667,8.5,6550,oven,,ufnaz,,ʔõŋkʰ,,,0
11121320209,"Fris. N.: Feer",54.71667,8.5,6570,stool,,stolaz,,sd̥uːl,,,0
11121320209,"Fris. N.: Feer",54.71667,8.5,6580,bath,,bathan,,,,,0
11121320209,"Fris. N.: Feer",54.71667,8.5,6600,thing,,thengaz,,d̥eŋ,,,0
11121320209,"Fris. N.: Feer",54.71667,8.5,6630,needle,,nethlo,,ˈneːdˡl̩,,,0
11121320209,"Fris. N.: Feer",54.71667,8.5,6640,ring,,xrengaz,,rɪŋ,,,0
11121320209,"Fris. N.: Feer",54.71667,8.5,8000,is,,esti,,ʔas,,,0
11121320209,"Fris. N.: Feer",54.71667,8.5,8310,eat,,etanan,,ʔiˑtç,,,0
11121320209,"Fris. N.: Feer",54.71667,8.5,8330,bite,,bitanan,,bitç,,,0
11121320209,"Fris. N.: Feer",54.71667,8.5,8320,drink,,drenkanan,,draŋk,,,0
11121320209,"Fris. N.: Feer",54.71667,8.5,8510,see,,sexwanan,,sɛ,,,0
11121320209,"Fris. N.: Feer",54.71667,8.5,8520,hear,,xauzjanan,,çiɛ̞,,,0
11121320209,"Fris. N.: Feer",54.71667,8.5,9620,open,,upanaz,,ˈʔeːb̥ⁿm̩,,,0
11121320209,"Fris. N.: Feer",54.71667,8.5,8120,sit,,setjanan,,sat,,,0
11121320209,"Fris. N.: Feer",54.71667,8.5,8720,wash,,waskanan,,ˈvaske,,,0
11121320209,"Fris. N.: Feer",54.71667,8.5,8940,fight,,fextanan,,fɛçt,,,0
11121320209,"Fris. N.: Feer",54.71667,8.5,8990,swear,,swarjanan,,sv̥ea,,,0
11121320209,"Fris. N.: Feer",54.71667,8.5,1010,I,,eka,,ʔɪkʰ,,,0
11121320209,"Fris. N.: Feer",54.71667,8.5,1210,what,,xwat,,vät,,,0
11121320209,"Fris. N.: Feer",54.71667,8.5,1410,in,,eni,,ʔo̝ːn,,,0
11121320209,"Fris. N.: Feer",54.71667,8.5,1430,out,,ut,,ʔytʰ,,,0
11121320209,"Fris. N.: Feer",54.71667,8.5,1460,over,,uberi,,ʔäo̞ɑ̝,,,0
11121320209,"Fris. N.: Feer",54.71667,8.5,1470,mid,,medjaz,,ˈmädⁿn̩,,,0
11121320209,"Fris. N.: Feer",54.71667,8.5,5010,day,,dagaz,,dä̠i,,,0
11121320209,"Fris. N.: Feer",54.71667,8.5,5020,night,,naxtz,,nɑ̟χtʰ,,,0
11121320209,"Fris. N.: Feer",54.71667,8.5,510,year,,jeran,,joɤ,,,0
