LanguageId,LanguageName,Latitude,Longitude,WordId,WordModernName1,WordModernName2,WordProtoName1,WordProtoName2,Phonetic,SpellingAltv1,SpellingAltv2,NotCognateWithMainWordInThisFamily2
11121150009,"Fris. W.: Grou",53.1,5.83,10,one,,oyno,,iˑən,ien,,0
11121150009,"Fris. W.: Grou",53.1,5.83,20,two,,dwaaw,,tβ̞äː,twa,,0
11121150009,"Fris. W.: Grou",53.1,5.83,30,three,,tris,,ˈtɾɛɪjə,trije,,0
11121150009,"Fris. W.: Grou",53.1,5.83,40,four,,kwetwores,,fjäˑʊɾ̥,fjouwer,,0
11121150009,"Fris. W.: Grou",53.1,5.83,50,five,,kwenkwe,,fiːf,fiif,,0
11121150009,"Fris. W.: Grou",53.1,5.83,60,six,,swexs,,s̺ɒˑɪs̺,seis,,0
11121150009,"Fris. W.: Grou",53.1,5.83,70,seven,,sextam,,s̺õ̞w̃ə̃n,sân,,0
11121150009,"Fris. W.: Grou",53.1,5.83,80,eight,,oxtuu,,äχt,acht,,0
11121150009,"Fris. W.: Grou",53.1,5.83,90,nine,,nowan,,ˈnjʌʁʌn,njoggen,,0
11121150009,"Fris. W.: Grou",53.1,5.83,100,ten,,dekam,,tsiˑən,tsien,,0
11121150009,"Fris. W.: Grou",53.1,5.83,200,hundred,,kantom,,ˈhʊndət,hûndert,,0
11121150009,"Fris. W.: Grou",53.1,5.83,7820,,,,,ɒɫ,al,,0
11121150009,"Fris. W.: Grou",53.1,5.83,7020,,,,,βit,wyt,,0
11121150009,"Fris. W.: Grou",53.1,5.83,7030,,,,,rɪiət,read,,0
11121150009,"Fris. W.: Grou",53.1,5.83,7040,green,,glastos,,ɡɾiˑən,grien,,0
11121150009,"Fris. W.: Grou",53.1,5.83,7210,,,,,ɫäŋ,lang,,0
11121150009,"Fris. W.: Grou",53.1,5.83,7410,,,,,s̺kɛrp,skerp,,0
11121150009,"Fris. W.: Grou",53.1,5.83,7840,full,,laanos,,fʌ̝ɫ,fol,,0
11121150009,"Fris. W.: Grou",53.1,5.83,7510,young,,yowankos,,jʌ̝ŋ,jong,,0
11121150009,"Fris. W.: Grou",53.1,5.83,7980,,,,,nɛˑi,nij,,0
11121150009,"Fris. W.: Grou",53.1,5.83,7670,,,,,ˈniəkŋ̩,neaken,,0
11121150009,"Fris. W.: Grou",53.1,5.83,7650,,,,,kβ̞ɪk,"kwik, kwyk",,0
11121150009,"Fris. W.: Grou",53.1,5.83,7660,,,,,fɛˑəs̺t,fêst,,0
11121150009,"Fris. W.: Grou",53.1,5.83,7710,good,,mati,,ɡoˑət,goed,,0
11121150009,"Fris. W.: Grou",53.1,5.83,7910,,,,,ˈβa̠ːɾəm,waarm,,0
11121150009,"Fris. W.: Grou",53.1,5.83,7920,,,,,kɔ̞ːt,kâld,,0
11121150009,"Fris. W.: Grou",53.1,5.83,7560,,,,,s̺iˑər̥,sear,,0
11121150009,"Fris. W.: Grou",53.1,5.83,7680,,,,,ˈhɪ̞ɫəχ,hillich,,0
11121150009,"Fris. W.: Grou",53.1,5.83,7700,,,,,ˈbɛtr̩,better,,0
11121150009,"Fris. W.: Grou",53.1,5.83,810,,,,,rjœχt,rjocht,,0
11121150009,"Fris. W.: Grou",53.1,5.83,2010,head,,kwennom,,ha̠ːt,haad,,0
11121150009,"Fris. W.: Grou",53.1,5.83,2110,,,,,iˑəχ,each,,0
11121150009,"Fris. W.: Grou",53.1,5.83,2130,,,,,iˑər,ear,,0
11121150009,"Fris. W.: Grou",53.1,5.83,2140,teardrop,,dakro,,tɾiˑən,trien,,0
11121150009,"Fris. W.: Grou",53.1,5.83,2210,,,,,ˈmʊŋə,mûne,,0
11121150009,"Fris. W.: Grou",53.1,5.83,2230,tongue,,tangwaat,,ˈtɔŋə,tonge,,0
11121150009,"Fris. W.: Grou",53.1,5.83,2240,,,,,ˈtinə,tine,,0
11121150009,"Fris. W.: Grou",53.1,5.83,2310,,,,,ˈhɒ̃w̃ə̃,hân,,0
11121150009,"Fris. W.: Grou",53.1,5.83,2510,,,,,foˑət,foet,,0
11121150009,"Fris. W.: Grou",53.1,5.83,2530,,,,,ˈknɪbɫ̩,knibbel,,0
11121150009,"Fris. W.: Grou",53.1,5.83,2540,,,,,tiˑən,tean,,0
11121150009,"Fris. W.: Grou",53.1,5.83,2610,,,,,bɫoˑət,bloed,,0
11121150009,"Fris. W.: Grou",53.1,5.83,2620,,,,,biˑən,bien,,0
11121150009,"Fris. W.: Grou",53.1,5.83,2640,,,,,nɒˑɪɫ,neil,,0
11121150009,"Fris. W.: Grou",53.1,5.83,2810,,,,,hɛt,hert,,0
11121150009,"Fris. W.: Grou",53.1,5.83,2840,,,,,ˈɫɛ̝ˑɪvr̩,lever,,0
11121150009,"Fris. W.: Grou",53.1,5.83,4310,,,,,moˑər̥,moer,,0
11121150009,"Fris. W.: Grou",53.1,5.83,4320,,,,,fa̠ːr̥,faar,,0
11121150009,"Fris. W.: Grou",53.1,5.83,4410,,,,,ˈdɒχtər̥,dochter,,0
11121150009,"Fris. W.: Grou",53.1,5.83,4330,,,,,ˈbɾo̝ˑər̥,broer,,0
11121150009,"Fris. W.: Grou",53.1,5.83,4100,name,,anuman,,ˈnämə,namme,,0
11121150009,"Fris. W.: Grou",53.1,5.83,4110,,,,,βœ̈t,wurd,,0
11121150009,"Fris. W.: Grou",53.1,5.83,3120,,,,,hũn,hûn,,0
11121150009,"Fris. W.: Grou",53.1,5.83,3150,,,,,mo̝ːs̺,mûs,,0
11121150009,"Fris. W.: Grou",53.1,5.83,3230,,,,,ɡoˑəs,goes,,0
11121150009,"Fris. W.: Grou",53.1,5.83,3310,,,,,kɒˑʊ,ko,,0
11121150009,"Fris. W.: Grou",53.1,5.83,3320,,,,,ɫäːm,laam,,0
11121150009,"Fris. W.: Grou",53.1,5.83,3340,,,,,kɪiəɫ,keal,,0
11121150009,"Fris. W.: Grou",53.1,5.83,3240,,,,,fɪs̺k,fisk,,0
11121150009,"Fris. W.: Grou",53.1,5.83,3820,,,,,hõ̞ˑə̃n,hoarn,,0
11121150009,"Fris. W.: Grou",53.1,5.83,3900,,,,,βʌ̝ɫə,wolle,,0
11121150009,"Fris. W.: Grou",53.1,5.83,5120,,,,,ˈmwänə,moanne,,0
11121150009,"Fris. W.: Grou",53.1,5.83,5260,,,,,noˑət,noard,,0
11121150009,"Fris. W.: Grou",53.1,5.83,5510,,,,,s̺tiˑən,stien,,0
11121150009,"Fris. W.: Grou",53.1,5.83,5430,,,,,ˈjɪs̺kə,jiske,,0
11121150009,"Fris. W.: Grou",53.1,5.83,5520,soil,,kwriiyets,,ˈiˑədə,ierde,,0
11121150009,"Fris. W.: Grou",53.1,5.83,6260,,,,,ɫɪiəf,leaf,,0
11121150009,"Fris. W.: Grou",53.1,5.83,6270,,,,,ˈtβ̞änə,toarne,,0
11121150009,"Fris. W.: Grou",53.1,5.83,6290,,,,,iːk,iik,,0
11121150009,"Fris. W.: Grou",53.1,5.83,5810,,,,,rɒˑɪn,rein,,0
11121150009,"Fris. W.: Grou",53.1,5.83,5910,,,,,ˈs̺tβ̞äɾəm,stoarm,,0
11121150009,"Fris. W.: Grou",53.1,5.83,5920,,,,,tʌŋr̩,tonger,,0
11121150009,"Fris. W.: Grou",53.1,5.83,5820,,,,,s̺niˑə,snie,,0
11121150009,"Fris. W.: Grou",53.1,5.83,5830,,,,,iːs̺,iis,,0
11121150009,"Fris. W.: Grou",53.1,5.83,5850,wind,,wintos,,βi̞n,wyn,,0
11121150009,"Fris. W.: Grou",53.1,5.83,6000,,,,,ˈhʌŋr̩,honger,,0
11121150009,"Fris. W.: Grou",53.1,5.83,6050,,,,,ˈmʌ̝ɫqə,molke,,0
11121150009,"Fris. W.: Grou",53.1,5.83,6150,,,,,ˈhynɪŋ,huning,,0
11121150009,"Fris. W.: Grou",53.1,5.83,6040,salt,,salanos,,s̺ɔ̞ːt,sâlt,,0
11121150009,"Fris. W.: Grou",53.1,5.83,6070,grain,,graanom,,kõˑə̃n,koarn,,0
11121150009,"Fris. W.: Grou",53.1,5.83,6510,,,,,hu̞ːs̺,hûs,,0
11121150009,"Fris. W.: Grou",53.1,5.83,6560,,,,,hiˑəm,hiem,,0
11121150009,"Fris. W.: Grou",53.1,5.83,6540,,,,,..,,,0
11121150009,"Fris. W.: Grou",53.1,5.83,6550,,,,,ũ̞n,ûne,,0
11121150009,"Fris. W.: Grou",53.1,5.83,6570,,,,,s̺tuˑəɫ,stoel,,0
11121150009,"Fris. W.: Grou",53.1,5.83,6580,,,,,bät,bad,,0
11121150009,"Fris. W.: Grou",53.1,5.83,6600,,,,,dɪŋ,ding,,0
11121150009,"Fris. W.: Grou",53.1,5.83,1440,,,,,tɔp,top,,0
11121150009,"Fris. W.: Grou",53.1,5.83,6630,,,,,ˈnœ̈ɫə,nulle,,0
11121150009,"Fris. W.: Grou",53.1,5.83,6640,,,,,rɪŋ,ring,,0
11121150009,"Fris. W.: Grou",53.1,5.83,8000,,,,,ɪs̺,is,,0
11121150009,"Fris. W.: Grou",53.1,5.83,8310,,,,,it,yt!,,0
11121150009,"Fris. W.: Grou",53.1,5.83,8330,,,,,bit,byt!,,0
11121150009,"Fris. W.: Grou",53.1,5.83,8320,,,,,dɾɪŋk,drink!,,0
11121150009,"Fris. W.: Grou",53.1,5.83,8510,,,,,s̺jʌχ,sjoch!,,0
11121150009,"Fris. W.: Grou",53.1,5.83,8520,,,,,jɛˑr,hear!,,0
11121150009,"Fris. W.: Grou",53.1,5.83,9620,,,,,ˈiˑəpm̩,iepen,,0
11121150009,"Fris. W.: Grou",53.1,5.83,8120,,,,,s̺ɪt,sit!,,0
11121150009,"Fris. W.: Grou",53.1,5.83,8720,,,,,ˈβɒs̺kiə,waskje!,,0
11121150009,"Fris. W.: Grou",53.1,5.83,8940,,,,,ˈfjʌ̝χtsiˑ,fjochtsje!,,0
11121150009,"Fris. W.: Grou",53.1,5.83,8990,,,,,s̺β̞är,swar!,,0
11121150009,"Fris. W.: Grou",53.1,5.83,1010,,,,,ek,ik,,0
11121150009,"Fris. W.: Grou",53.1,5.83,1210,,,,,βɔt,wat?,,0
11121150009,"Fris. W.: Grou",53.1,5.83,1410,,,,,iˑn,yn,,0
11121150009,"Fris. W.: Grou",53.1,5.83,1430,,,,,yt,út,,0
11121150009,"Fris. W.: Grou",53.1,5.83,1460,,,,,ˈoˑwr̩,oer,,0
11121150009,"Fris. W.: Grou",53.1,5.83,1470,,,,,ˈmɪdn̩,midden,,0
11121150009,"Fris. W.: Grou",53.1,5.83,5010,,,,,dɒˑɪ,dei,,0
11121150009,"Fris. W.: Grou",53.1,5.83,5020,,,,,na̠χt,nacht,,0
11121150009,"Fris. W.: Grou",53.1,5.83,510,,,,,iˑər̥,jier,,0
