LanguageId,LanguageName,Latitude,Longitude,WordId,WordModernName1,WordModernName2,WordProtoName1,WordProtoName2,Phonetic,SpellingAltv1,SpellingAltv2,NotCognateWithMainWordInThisFamily2
11121330509,"Fris. N.: Heligoland",54.1825,7.88528,10,one,,ainaz,,jäːn,,,0
11121330509,"Fris. N.: Heligoland",54.1825,7.88528,20,two,,twou,,tʰɑo,,,0
11121330509,"Fris. N.: Heligoland",54.1825,7.88528,30,three,,threjez,,txei̞,,,0
11121330509,"Fris. N.: Heligoland",54.1825,7.88528,40,four,,fedworez,,ʃd̥ʲuɐ̠,,,0
11121330509,"Fris. N.: Heligoland",54.1825,7.88528,50,five,,fenfe,,fiu,,,0
11121330509,"Fris. N.: Heligoland",54.1825,7.88528,60,six,,sexs,,sœ̠s̪,,,0
11121330509,"Fris. N.: Heligoland",54.1825,7.88528,70,seven,,sebun,,ˈse̝ːbⁿm̩,,,0
11121330509,"Fris. N.: Heligoland",54.1825,7.88528,80,eight,,axtou,,ʔa̠χ,,,0
11121330509,"Fris. N.: Heligoland",54.1825,7.88528,90,nine,,newun,,ˈneɐgæn,,,0
11121330509,"Fris. N.: Heligoland",54.1825,7.88528,100,ten,,texun,,tʰäe̞n,,,0
11121330509,"Fris. N.: Heligoland",54.1825,7.88528,200,hundred,,xundaradan,,ˈhɒnɐˑtʰ,,,0
11121330509,"Fris. N.: Heligoland",54.1825,7.88528,7820,all,,allaz,,ʔɑːl,,,0
11121330509,"Fris. N.: Heligoland",54.1825,7.88528,7020,white,,xwitaz,,vɪtʰ,,,0
11121330509,"Fris. N.: Heligoland",54.1825,7.88528,7030,red,,raudaz,,ʀoɒ,,,0
11121330509,"Fris. N.: Heligoland",54.1825,7.88528,7040,green,,groniz,,gʁeːn,,,0
11121330509,"Fris. N.: Heligoland",54.1825,7.88528,7210,long,,langaz,,lɔŋ,,,0
11121330509,"Fris. N.: Heligoland",54.1825,7.88528,7410,sharp,,skarpaz,,sg̥äpʰ,,,0
11121330509,"Fris. N.: Heligoland",54.1825,7.88528,7840,full,,fullaz,,fo̞l,,,0
11121330509,"Fris. N.: Heligoland",54.1825,7.88528,7510,young,,jungaz,,d̥ʒɒŋ,,,0
11121330509,"Fris. N.: Heligoland",54.1825,7.88528,7980,new,,neujaz,,nä̠e,,,0
11121330509,"Fris. N.: Heligoland",54.1825,7.88528,7670,naked,,nakwadaz,,ˈno̞ɐg̥ɤ̈lt,,,0
11121330509,"Fris. N.: Heligoland",54.1825,7.88528,7660,fast,,fastaz,,fäs,,,0
11121330509,"Fris. N.: Heligoland",54.1825,7.88528,7710,good,,godaz,,go̞ː,,,0
11121330509,"Fris. N.: Heligoland",54.1825,7.88528,7910,warm,,warmaz,,vä̠ʀm,,,0
11121330509,"Fris. N.: Heligoland",54.1825,7.88528,7920,cold,,kaldaz,,kʰuˑl,,,0
11121330509,"Fris. N.: Heligoland",54.1825,7.88528,7560,sore,,sairaz,,seɐ̠,,,0
11121330509,"Fris. N.: Heligoland",54.1825,7.88528,7680,holy,,xailagaz,,ˈhe̞lë,,,0
11121330509,"Fris. N.: Heligoland",54.1825,7.88528,7700,better,,batizon,,ˈbetʰɐ,,,0
11121330509,"Fris. N.: Heligoland",54.1825,7.88528,810,right,,rextaz,,ʀɛç,,,0
11121330509,"Fris. N.: Heligoland",54.1825,7.88528,2010,head,,xaubadan,,hoɑ,,,0
11121330509,"Fris. N.: Heligoland",54.1825,7.88528,2110,eye,,augon,,ʔo̞o̝,,,0
11121330509,"Fris. N.: Heligoland",54.1825,7.88528,2130,ear,,auzon,,β̞ɑː,,,0
11121330509,"Fris. N.: Heligoland",54.1825,7.88528,2140,tear,,taxruz,,tʰβ̞ɑ̝ːn,,,0
11121330509,"Fris. N.: Heligoland",54.1825,7.88528,2210,mouth,,munthaz,,mɪ̞tʰ,,,0
11121330509,"Fris. N.: Heligoland",54.1825,7.88528,2230,tongue,,tungon,,tʰɒŋ,,,0
11121330509,"Fris. N.: Heligoland",54.1825,7.88528,2240,tooth,,tanthz,,tʰeæn,,,0
11121330509,"Fris. N.: Heligoland",54.1825,7.88528,2310,hand,,xanduz,,hɔ̟n,,,0
11121330509,"Fris. N.: Heligoland",54.1825,7.88528,2510,foot,,fotz,,fʊtʰ,,,0
11121330509,"Fris. N.: Heligoland",54.1825,7.88528,2530,knee,,knewan,,ˈkʰnæbean,,,0
11121330509,"Fris. N.: Heligoland",54.1825,7.88528,2540,toe,,taixwon,,tʰβ̞ä̠ːn,,,0
11121330509,"Fris. N.: Heligoland",54.1825,7.88528,2610,blood,,blodan,,blo̞ˑ,,,0
11121330509,"Fris. N.: Heligoland",54.1825,7.88528,2620,bone,,bainan,,beän,,,0
11121330509,"Fris. N.: Heligoland",54.1825,7.88528,2640,nail,,naglaz,,ˈnoʏɘl,,,0
11121330509,"Fris. N.: Heligoland",54.1825,7.88528,2810,heart,,xerton,,häːʈ,,,0
11121330509,"Fris. N.: Heligoland",54.1825,7.88528,2840,liver,,libaro,,ˈlʏ̈vä̝,,,0
11121330509,"Fris. N.: Heligoland",54.1825,7.88528,4310,mother,,moder,,mɛm,,,0
11121330509,"Fris. N.: Heligoland",54.1825,7.88528,4320,father,,fader,,fo̞ɐ,,,0
11121330509,"Fris. N.: Heligoland",54.1825,7.88528,4410,daughter,,duxter,,ˈdɔχd̥ɐ,,,0
11121330509,"Fris. N.: Heligoland",54.1825,7.88528,4330,brother,,brother,,bʁuɐ,,,0
11121330509,"Fris. N.: Heligoland",54.1825,7.88528,4100,name,,namon,,neːm,,,0
11121330509,"Fris. N.: Heligoland",54.1825,7.88528,4110,word,,wurdan,,vø̠œ̠,,,0
11121330509,"Fris. N.: Heligoland",54.1825,7.88528,3120,hound,,xundaz,,hɪ̞n,,,0
11121330509,"Fris. N.: Heligoland",54.1825,7.88528,3150,mouse,,musz,,mʏ̈s,,,0
11121330509,"Fris. N.: Heligoland",54.1825,7.88528,3230,goose,,gansz,,guːs,,,0
11121330509,"Fris. N.: Heligoland",54.1825,7.88528,3310,cow,,kowz,,kʰɪ,,,0
11121330509,"Fris. N.: Heligoland",54.1825,7.88528,3320,lamb,,lambaz,,ˈlämkʰən,,,0
11121330509,"Fris. N.: Heligoland",54.1825,7.88528,3340,calf,,kalbaz,,ˈkʰälə̞fkʰən,,,0
11121330509,"Fris. N.: Heligoland",54.1825,7.88528,3240,fish,,fiskaz,,fɛsk,,,0
11121330509,"Fris. N.: Heligoland",54.1825,7.88528,3820,horn,,xurnan,,huɐn,,,0
11121330509,"Fris. N.: Heligoland",54.1825,7.88528,3900,wool,,wullo,,ʔɔl,,,0
11121330509,"Fris. N.: Heligoland",54.1825,7.88528,5120,moon,,menon,,muːŋ,,,0
11121330509,"Fris. N.: Heligoland",54.1825,7.88528,5260,north,,nurthaz,,nuʌɖ̥,,,0
11121330509,"Fris. N.: Heligoland",54.1825,7.88528,5510,stone,,stainaz,,ʃd̥eɐ̠,,,0
11121330509,"Fris. N.: Heligoland",54.1825,7.88528,5430,ash,,askon,,ˈʔe̞asgən,,,0
11121330509,"Fris. N.: Heligoland",54.1825,7.88528,5520,earth,,ertho,,ʔiɐ,,,0
11121330509,"Fris. N.: Heligoland",54.1825,7.88528,6260,leaf,,lauban,,bleː,,,0
11121330509,"Fris. N.: Heligoland",54.1825,7.88528,6290,oak,,aikz,,ˈʔeakʰɛ̽n,,,0
11121330509,"Fris. N.: Heligoland",54.1825,7.88528,5810,rain,,regnan,,ʀäen,,,0
11121330509,"Fris. N.: Heligoland",54.1825,7.88528,5910,storm,,sturmaz,,ˈs̠d̥ʊʁɤm,,,0
11121330509,"Fris. N.: Heligoland",54.1825,7.88528,5920,thunder,,thunraz,,ˈtʰʏ̞̈nə,,,0
11121330509,"Fris. N.: Heligoland",54.1825,7.88528,5820,snow,,snaigwaz,,sne̞ː,,,0
11121330509,"Fris. N.: Heligoland",54.1825,7.88528,5830,ice,,isaz,,ʔʏsʲ,,,0
11121330509,"Fris. N.: Heligoland",54.1825,7.88528,5850,wind,,wendaz,,vɪn,,,0
11121330509,"Fris. N.: Heligoland",54.1825,7.88528,6000,hunger,,xungruz,,ˈhɒŋə,,,0
11121330509,"Fris. N.: Heligoland",54.1825,7.88528,6050,milk,,melkaz,,mo̞lk,,,0
11121330509,"Fris. N.: Heligoland",54.1825,7.88528,6150,honey,,hunagan,,ˈhœnõŋ,,,0
11121330509,"Fris. N.: Heligoland",54.1825,7.88528,6040,salt,,saltan,,soɐ̠ltʰ,,,0
11121330509,"Fris. N.: Heligoland",54.1825,7.88528,6070,corn,,kurnan,,kʰuɐ,,,0
11121330509,"Fris. N.: Heligoland",54.1825,7.88528,6510,house,,xusan,,hʏs,,,0
11121330509,"Fris. N.: Heligoland",54.1825,7.88528,6560,home,,xaimaz,,dəˈʁæn,,,1
11121330509,"Fris. N.: Heligoland",54.1825,7.88528,6540,yard,,gardaz,,goä,,,0
11121330509,"Fris. N.: Heligoland",54.1825,7.88528,6550,oven,,ufnaz,,ˈʔo̞ɑvən,,,0
11121330509,"Fris. N.: Heligoland",54.1825,7.88528,6570,stool,,stolaz,,ʃd̥uːl,,,0
11121330509,"Fris. N.: Heligoland",54.1825,7.88528,6580,bath,,bathan,,,,,0
11121330509,"Fris. N.: Heligoland",54.1825,7.88528,6600,thing,,thengaz,,dɪŋ,,,0
11121330509,"Fris. N.: Heligoland",54.1825,7.88528,1440,top,,tuppaz,,tʰɔpʰ,,,0
11121330509,"Fris. N.: Heligoland",54.1825,7.88528,6630,needle,,nethlo,,ˈneɛ̽dˡl̩,,,0
11121330509,"Fris. N.: Heligoland",54.1825,7.88528,6640,ring,,xrengaz,,ʁɪŋ,,,0
11121330509,"Fris. N.: Heligoland",54.1825,7.88528,8000,is,,esti,,ʔɛs,,,0
11121330509,"Fris. N.: Heligoland",54.1825,7.88528,8310,eat,,etanan,,ʔiˑtʰ,,,0
11121330509,"Fris. N.: Heligoland",54.1825,7.88528,8330,bite,,bitanan,,bɪtʰ,,,0
11121330509,"Fris. N.: Heligoland",54.1825,7.88528,8320,drink,,drenkanan,,dʁɪŋk,,,0
11121330509,"Fris. N.: Heligoland",54.1825,7.88528,8510,see,,sexwanan,,ˈlukə,,,1
11121330509,"Fris. N.: Heligoland",54.1825,7.88528,8520,hear,,xauzjanan,,ˈhäˑg̥ə,,,0
11121330509,"Fris. N.: Heligoland",54.1825,7.88528,9620,open,,upanaz,,ˈʔepʰən,,,0
11121330509,"Fris. N.: Heligoland",54.1825,7.88528,8120,sit,,setjanan,,,,,0
11121330509,"Fris. N.: Heligoland",54.1825,7.88528,8720,wash,,waskanan,,vɐsgə,,,0
11121330509,"Fris. N.: Heligoland",54.1825,7.88528,8990,swear,,swarjanan,,sveɑ̝,,,0
11121330509,"Fris. N.: Heligoland",54.1825,7.88528,1010,I,,eka,,ʔɪ̞kʰ,,,0
11121330509,"Fris. N.: Heligoland",54.1825,7.88528,1210,what,,xwat,,vätʰ,,,0
11121330509,"Fris. N.: Heligoland",54.1825,7.88528,1410,in,,eni,,ʔuːŋ,,,0
11121330509,"Fris. N.: Heligoland",54.1825,7.88528,1430,out,,ut,,ʔʏtʰ,,,0
11121330509,"Fris. N.: Heligoland",54.1825,7.88528,1460,over,,uberi,,ˈʔoɒvɜ̠,,,0
11121330509,"Fris. N.: Heligoland",54.1825,7.88528,1470,mid,,medjaz,,ˈmɛˑdⁿn̩,,,0
11121330509,"Fris. N.: Heligoland",54.1825,7.88528,5010,day,,dagaz,,däe,,,0
11121330509,"Fris. N.: Heligoland",54.1825,7.88528,5020,night,,naxtz,,noʌχ,,,0
11121330509,"Fris. N.: Heligoland",54.1825,7.88528,510,year,,jeran,,ʃoɐ̝,,,0
