LanguageId,LanguageName,Latitude,Longitude,WordId,WordModernName1,WordModernName2,WordProtoName1,WordProtoName2,Phonetic,SpellingAltv1,SpellingAltv2,NotCognateWithMainWordInThisFamily
11161140139,"Alsace N.: Herrlisheim",48.73006,7.9068,10,one,,ainaz,,ʔɛːns,eins,,0
11161140139,"Alsace N.: Herrlisheim",48.73006,7.9068,20,two,,twou,,tsvɛ̝ˑi,zwei,,0
11161140139,"Alsace N.: Herrlisheim",48.73006,7.9068,30,three,,threjez,,tχɛ̝ˑi,drei,,0
11161140139,"Alsace N.: Herrlisheim",48.73006,7.9068,30,three,,threjez,,tʁɛ̝ˑi,drei,,0
11161140139,"Alsace N.: Herrlisheim",48.73006,7.9068,40,four,,fedworez,,fiˑəχ,vier,,0
11161140139,"Alsace N.: Herrlisheim",48.73006,7.9068,50,five,,fenfe,,ˈfɪnə̠ɸ,fenef,,0
11161140139,"Alsace N.: Herrlisheim",48.73006,7.9068,60,six,,sexs,,sɪks,sechs,,0
11161140139,"Alsace N.: Herrlisheim",48.73006,7.9068,70,seven,,sebun,,ˈsɛ̝βə,sewe,,0
11161140139,"Alsace N.: Herrlisheim",48.73006,7.9068,80,eight,,axtou,,ʔɔːχt,ààcht,,0
11161140139,"Alsace N.: Herrlisheim",48.73006,7.9068,90,nine,,newun,,niːn,niin,,0
11161140139,"Alsace N.: Herrlisheim",48.73006,7.9068,100,ten,,texun,,tsɛ̝ː,zehn,,0
11161140139,"Alsace N.: Herrlisheim",48.73006,7.9068,200,hundred,,xundaradan,,ˈhʊndə̠χt,hùndert,,0
11161140139,"Alsace N.: Herrlisheim",48.73006,7.9068,7820,all,,allaz,,ʔɔl,àll,,0
11161140139,"Alsace N.: Herrlisheim",48.73006,7.9068,7020,white,,xwitaz,,vis,wiss,,0
11161140139,"Alsace N.: Herrlisheim",48.73006,7.9068,7030,red,,raudaz,,ʁo̞ːtʰ,rot,,0
11161140139,"Alsace N.: Herrlisheim",48.73006,7.9068,7040,green,,groniz,,ˈɡʁe̝ːn,grien,,0
11161140139,"Alsace N.: Herrlisheim",48.73006,7.9068,7210,long,,langaz,,ˈlɔ̈ŋ,làng,,0
11161140139,"Alsace N.: Herrlisheim",48.73006,7.9068,7410,sharp,,skarpaz,,ʃɒ̝χf,schàrf,,0
11161140139,"Alsace N.: Herrlisheim",48.73006,7.9068,7840,full,,fullaz,,fʊl,voll,,0
11161140139,"Alsace N.: Herrlisheim",48.73006,7.9068,7510,young,,jungaz,,jʊŋ,jùng,,0
11161140139,"Alsace N.: Herrlisheim",48.73006,7.9068,7980,new,,neujaz,,nɛ̝ˑi,nej,,0
11161140139,"Alsace N.: Herrlisheim",48.73006,7.9068,7670,naked,,nakwadaz,,ˈnɔkətʰ,nàcket,,0
11161140139,"Alsace N.: Herrlisheim",48.73006,7.9068,7660,fast,,fastaz,,fɛ̝ʃt,fescht,,0
11161140139,"Alsace N.: Herrlisheim",48.73006,7.9068,7710,good,,godaz,,ɡøˑət,güet,,0
11161140139,"Alsace N.: Herrlisheim",48.73006,7.9068,7910,warm,,warmaz,,vɔːʁ̞m,wàrm,,0
11161140139,"Alsace N.: Herrlisheim",48.73006,7.9068,7920,cold,,kaldaz,,kʰɔlt,kàlt,,0
11161140139,"Alsace N.: Herrlisheim",48.73006,7.9068,7560,sore,,sairaz,,sɛ̝ːχ,sehr,,0
11161140139,"Alsace N.: Herrlisheim",48.73006,7.9068,7680,holy,,xailagaz,,ˈhäilik̟ʰ,heilig,,0
11161140139,"Alsace N.: Herrlisheim",48.73006,7.9068,7700,better,,batizon,,ˈbɛ̝səχ,besser,,0
11161140139,"Alsace N.: Herrlisheim",48.73006,7.9068,810,right,,rextaz,,ʁäːχt,recht,,0
11161140139,"Alsace N.: Herrlisheim",48.73006,7.9068,2010,head,,xaubadan,,hœˑʏpt,Häupt,,0
11161140139,"Alsace N.: Herrlisheim",48.73006,7.9068,2110,eye,,augon,,ˈʔœʏjə,Auw,,0
11161140139,"Alsace N.: Herrlisheim",48.73006,7.9068,2130,ear,,auzon,,ʔoːχ,Ohr,,0
11161140139,"Alsace N.: Herrlisheim",48.73006,7.9068,2210,mouth,,munthaz,,mʊnt,Mül,,0
11161140139,"Alsace N.: Herrlisheim",48.73006,7.9068,2230,tongue,,tungon,,tsʊŋ,Zùng,,0
11161140139,"Alsace N.: Herrlisheim",48.73006,7.9068,2240,tooth,,tanthz,,tsäːn,Zahn,,0
11161140139,"Alsace N.: Herrlisheim",48.73006,7.9068,2310,hand,,xanduz,,hɒnt,Hand,,0
11161140139,"Alsace N.: Herrlisheim",48.73006,7.9068,2510,foot,,fotz,,ɸe̝ːs,Füess,,0
11161140139,"Alsace N.: Herrlisheim",48.73006,7.9068,2530,knee,,knewan,,kniː,Knie,,0
11161140139,"Alsace N.: Herrlisheim",48.73006,7.9068,2540,toe,,taixwon,,tseː,Zeh,,0
11161140139,"Alsace N.: Herrlisheim",48.73006,7.9068,2610,blood,,blodan,,bløːt,Blüet,,0
11161140139,"Alsace N.: Herrlisheim",48.73006,7.9068,2620,bone,,bainan,,bäˑin,Bei(n),,0
11161140139,"Alsace N.: Herrlisheim",48.73006,7.9068,2640,nail,,naglaz,,ˈnäːjəl,Najel,,0
11161140139,"Alsace N.: Herrlisheim",48.73006,7.9068,2810,heart,,xerton,,häχts,Herz,,0
11161140139,"Alsace N.: Herrlisheim",48.73006,7.9068,2840,liver,,libaro,,ˈle̝ːvə̠χ,Lewer,,0
11161140139,"Alsace N.: Herrlisheim",48.73006,7.9068,2840,liver,,libaro,,ˈläβə̠χ,Lewer,,0
11161140139,"Alsace N.: Herrlisheim",48.73006,7.9068,4310,mother,,moder,,ˈmøˑətə̠χ,Müeder,,0
11161140139,"Alsace N.: Herrlisheim",48.73006,7.9068,4320,father,,fader,,ˈfɒtə̠χ,Vàter,,0
11161140139,"Alsace N.: Herrlisheim",48.73006,7.9068,4410,daughter,,duxter,,ˈdo̞ːχtə̠χ,Tochter,,0
11161140139,"Alsace N.: Herrlisheim",48.73006,7.9068,4330,brother,,brother,,ˈbʁe̝ːdə̠χ,Brüeder,,0
11161140139,"Alsace N.: Herrlisheim",48.73006,7.9068,4100,name,,namon,,ˈnɒmə,Nàmme,,0
11161140139,"Alsace N.: Herrlisheim",48.73006,7.9068,4110,word,,wurdan,,voχt,Wort,,0
11161140139,"Alsace N.: Herrlisheim",48.73006,7.9068,3120,hound,,xundaz,,hʊnt,Hùnd,,0
11161140139,"Alsace N.: Herrlisheim",48.73006,7.9068,3150,mouse,,musz,,myːs,Müs,,0
11161140139,"Alsace N.: Herrlisheim",48.73006,7.9068,3230,goose,,gansz,,ɡɔns,Gàns,,0
11161140139,"Alsace N.: Herrlisheim",48.73006,7.9068,3310,cow,,kowz,,kʰyː,Küh,,0
11161140139,"Alsace N.: Herrlisheim",48.73006,7.9068,3320,lamb,,lambaz,,lɔ̈m,Lamm,,0
11161140139,"Alsace N.: Herrlisheim",48.73006,7.9068,3340,calf,,kalbaz,,kʰɔlp,Kàlb,,0
11161140139,"Alsace N.: Herrlisheim",48.73006,7.9068,3240,fish,,fiskaz,,fɪʃ,Fìsch,,0
11161140139,"Alsace N.: Herrlisheim",48.73006,7.9068,3820,horn,,xurnan,,ˈhoʁ̞ən,Horn,,0
11161140139,"Alsace N.: Herrlisheim",48.73006,7.9068,3900,wool,,wullo,,ˈvʊlə,Wolle,,0
11161140139,"Alsace N.: Herrlisheim",48.73006,7.9068,5120,moon,,menon,,moːn,Mond,,0
11161140139,"Alsace N.: Herrlisheim",48.73006,7.9068,5260,north,,nurthaz,,noχt,Nord,,0
11161140139,"Alsace N.: Herrlisheim",48.73006,7.9068,5510,stone,,stainaz,,ʃtɛ̝ːn,Stein,,0
11161140139,"Alsace N.: Herrlisheim",48.73006,7.9068,5430,ash,,askon,,ˈʔäʃə,Asch,,0
11161140139,"Alsace N.: Herrlisheim",48.73006,7.9068,5520,earth,,ertho,,ʔäχt,Erd,,0
11161140139,"Alsace N.: Herrlisheim",48.73006,7.9068,6260,leaf,,lauban,,läipʰ,Loib,,0
11161140139,"Alsace N.: Herrlisheim",48.73006,7.9068,6270,thorn,,thurnuz,,ˈtoʁ̞ən,Dorn,,0
11161140139,"Alsace N.: Herrlisheim",48.73006,7.9068,6290,oak,,aikz,,ʔäiʃ,Eich,,0
11161140139,"Alsace N.: Herrlisheim",48.73006,7.9068,5810,rain,,regnan,,ˈʁäːjə,Räje,,0
11161140139,"Alsace N.: Herrlisheim",48.73006,7.9068,5910,storm,,sturmaz,,ˈʃtʊʁ̞m̩,Stùrm,,0
11161140139,"Alsace N.: Herrlisheim",48.73006,7.9068,5920,thunder,,thunraz,,ˈdonəχ,Donner,,0
11161140139,"Alsace N.: Herrlisheim",48.73006,7.9068,5820,snow,,snaigwaz,,ʃne̝ː,Schnee,,0
11161140139,"Alsace N.: Herrlisheim",48.73006,7.9068,5830,ice,,isaz,,ʔiˑs,Iss,,0
11161140139,"Alsace N.: Herrlisheim",48.73006,7.9068,5850,wind,,wendaz,,vɪnt,Wind,,0
11161140139,"Alsace N.: Herrlisheim",48.73006,7.9068,6000,hunger,,xungruz,,ˈhʊŋəχ,Hùnger,,0
11161140139,"Alsace N.: Herrlisheim",48.73006,7.9068,6050,milk,,melkaz,,ˈmɪlɪʃ,Melich,,0
11161140139,"Alsace N.: Herrlisheim",48.73006,7.9068,6150,honey,,hunagan,,ˈhonik̟,Honig,,0
11161140139,"Alsace N.: Herrlisheim",48.73006,7.9068,6040,salt,,saltan,,sɔls,Sàlz,,0
11161140139,"Alsace N.: Herrlisheim",48.73006,7.9068,6070,corn,,kurnan,,kʰoʁən,Korn,,0
11161140139,"Alsace N.: Herrlisheim",48.73006,7.9068,6510,house,,xusan,,hyˑs,Hüs,,0
11161140139,"Alsace N.: Herrlisheim",48.73006,7.9068,6560,home,,xaimaz,,häːm,Heim,,0
11161140139,"Alsace N.: Herrlisheim",48.73006,7.9068,6540,yard,,gardaz,,ˈɡɔːχtə,Gàrte,,0
11161140139,"Alsace N.: Herrlisheim",48.73006,7.9068,6550,oven,,ufnaz,,ˈʔofə,Offe,,0
11161140139,"Alsace N.: Herrlisheim",48.73006,7.9068,6570,stool,,stolaz,,ʃtøːl,Stüehl,,0
11161140139,"Alsace N.: Herrlisheim",48.73006,7.9068,6580,bath,,bathan,,bɔːt,Bàd,,0
11161140139,"Alsace N.: Herrlisheim",48.73006,7.9068,6600,thing,,thengaz,,dɪŋ,Ding,,0
11161140139,"Alsace N.: Herrlisheim",48.73006,7.9068,6630,needle,,nethlo,,ˈnäːdl̩,Nodel,,0
11161140139,"Alsace N.: Herrlisheim",48.73006,7.9068,6640,ring,,xrengaz,,ʁɪŋ,Ring,,0
11161140139,"Alsace N.: Herrlisheim",48.73006,7.9068,8000,is,,esti,,ʔɪs,ìsch,,0
11161140139,"Alsace N.: Herrlisheim",48.73006,7.9068,8310,eat,,etanan,,ʔɪs,ìss!,,0
11161140139,"Alsace N.: Herrlisheim",48.73006,7.9068,8330,bite,,bitanan,,biˑs,biss!,,0
11161140139,"Alsace N.: Herrlisheim",48.73006,7.9068,8320,drink,,drenkanan,,tʁ̥ɪŋk̟,trìnk!,,0
11161140139,"Alsace N.: Herrlisheim",48.73006,7.9068,8510,see,,sexwanan,,seː,sieh!,,0
11161140139,"Alsace N.: Herrlisheim",48.73006,7.9068,8520,hear,,xauzjanan,,he̝ːχ,heer!,,0
11161140139,"Alsace N.: Herrlisheim",48.73006,7.9068,9620,open,,upanaz,,ˈʔofə,offe,,0
11161140139,"Alsace N.: Herrlisheim",48.73006,7.9068,8120,sit,,setjanan,,sɪts,sitz!,,0
11161140139,"Alsace N.: Herrlisheim",48.73006,7.9068,8720,wash,,waskanan,,väʃ,wasch!,,0
11161140139,"Alsace N.: Herrlisheim",48.73006,7.9068,8990,swear,,swarjanan,,ʃvœːχ,schweer!,,0
11161140139,"Alsace N.: Herrlisheim",48.73006,7.9068,1010,I,,eka,,ʔɪʃ,ìch,,0
11161140139,"Alsace N.: Herrlisheim",48.73006,7.9068,1210,what,,xwat,,βɒs,wàs?,,0
11161140139,"Alsace N.: Herrlisheim",48.73006,7.9068,1410,in,,eni,,ʔɪn,ìn,,0
11161140139,"Alsace N.: Herrlisheim",48.73006,7.9068,1430,out,,ut,,ʔyˑs,üs,,0
11161140139,"Alsace N.: Herrlisheim",48.73006,7.9068,1460,over,,uberi,,ˈʔe̝βə̠χ,ewer,,0
11161140139,"Alsace N.: Herrlisheim",48.73006,7.9068,1470,mid,,medjaz,,ˈmɪdə,Mìtte,,0
11161140139,"Alsace N.: Herrlisheim",48.73006,7.9068,5010,day,,dagaz,,dœː,Dàà,,0
11161140139,"Alsace N.: Herrlisheim",48.73006,7.9068,5020,night,,naxtz,,nɔːχt,Nàcht,,0
11161140139,"Alsace N.: Herrlisheim",48.73006,7.9068,510,year,,jeran,,joːχ,Johr,,0
