LanguageId,LanguageName,Latitude,Longitude,WordId,WordModernName1,WordModernName2,WordProtoName1,WordProtoName2,Phonetic,SpellingAltv1,SpellingAltv2,NotCognateWithMainWordInThisFamily2
11131450309,Limburgish,50.8925,6.05917,10,one,,oyno,,Array,,,0
11131450309,Limburgish,50.8925,6.05917,20,two,,dwaaw,,tʰβiˑə,,,0
11131450309,Limburgish,50.8925,6.05917,30,three,,tris,,dʁɛˑɪ,,,0
11131450309,Limburgish,50.8925,6.05917,40,four,,kwetwores,,ɸiˑəχ,,,0
11131450309,Limburgish,50.8925,6.05917,50,five,,kwenkwe,,ɸiːɸ,,,0
11131450309,Limburgish,50.8925,6.05917,60,six,,swexs,,sɛˑs,,,0
11131450309,Limburgish,50.8925,6.05917,70,seven,,sextam,,Array,,,0
11131450309,Limburgish,50.8925,6.05917,80,eight,,oxtuu,,Array,,,0
11131450309,Limburgish,50.8925,6.05917,90,nine,,nowan,,Array,,,0
11131450309,Limburgish,50.8925,6.05917,100,ten,,dekam,,Array,,,0
11131450309,Limburgish,50.8925,6.05917,200,hundred,,kantom,,hõ̞̞ˑət,,,0
11131450309,Limburgish,50.8925,6.05917,7820,,,,,äl,,,0
11131450309,Limburgish,50.8925,6.05917,7020,,,,,βɪət,,,0
11131450309,Limburgish,50.8925,6.05917,7030,,,,,ʁ̞ʊət,,,0
11131450309,Limburgish,50.8925,6.05917,7040,green,,glastos,,χʁ̞øˑn,,,0
11131450309,Limburgish,50.8925,6.05917,7210,,,,,la̟ˑŋk,,,0
11131450309,Limburgish,50.8925,6.05917,7410,,,,,ˈʃɛ̝ˑʁ̞əp,,,0
11131450309,Limburgish,50.8925,6.05917,7840,full,,laanos,,Array,,,0
11131450309,Limburgish,50.8925,6.05917,7510,young,,yowankos,,jʊŋk,,,0
11131450309,Limburgish,50.8925,6.05917,7980,,,,,nœ̈ɪ,,,0
11131450309,Limburgish,50.8925,6.05917,7670,,,,,nɑ̈ks,,,0
11131450309,Limburgish,50.8925,6.05917,7650,,,,,..,,,0
11131450309,Limburgish,50.8925,6.05917,7660,,,,,fäs,,,0
11131450309,Limburgish,50.8925,6.05917,7710,good,,mati,,x̟wʌt,,,0
11131450309,Limburgish,50.8925,6.05917,7910,,,,,ˈβ̞ɛ̝ˑʁ̞əm,,,0
11131450309,Limburgish,50.8925,6.05917,7920,,,,,kɔːt,,,0
11131450309,Limburgish,50.8925,6.05917,7560,,,,,ziˑəχ,,,0
11131450309,Limburgish,50.8925,6.05917,7680,,,,,ˈheːlɪç,,,0
11131450309,Limburgish,50.8925,6.05917,7700,,,,,ˈbɛ̝ːtəχ,,,0
11131450309,Limburgish,50.8925,6.05917,810,,,,,ʁ̞ɛ̝ç,,,0
11131450309,Limburgish,50.8925,6.05917,2010,head,,kwennom,,jəʁ̞oːt,,,0
11131450309,Limburgish,50.8925,6.05917,2110,,,,,oːx,,,0
11131450309,Limburgish,50.8925,6.05917,2130,,,,,ʊəχ,,,0
11131450309,Limburgish,50.8925,6.05917,2140,teardrop,,dakro,,tʰʁɒ̝ːn,,,0
11131450309,Limburgish,50.8925,6.05917,2210,,,,,mʊˑŋk,,,0
11131450309,Limburgish,50.8925,6.05917,2230,tongue,,tangwaat,,tʊŋ,,,0
11131450309,Limburgish,50.8925,6.05917,2240,,,,,täŋk,,,0
11131450309,Limburgish,50.8925,6.05917,2310,,,,,häŋk,,,0
11131450309,Limburgish,50.8925,6.05917,2510,,,,,foːt,,,0
11131450309,Limburgish,50.8925,6.05917,2530,,,,,knɛɪ,,,0
11131450309,Limburgish,50.8925,6.05917,2540,,,,,tʰiˑən,,,0
11131450309,Limburgish,50.8925,6.05917,2610,,,,,blʊt,,,0
11131450309,Limburgish,50.8925,6.05917,2620,,,,,biː,,,0
11131450309,Limburgish,50.8925,6.05917,2640,,,,,ˈnäːɣɫ̩,,,0
11131450309,Limburgish,50.8925,6.05917,2810,,,,,hɑ̈t,,,0
11131450309,Limburgish,50.8925,6.05917,2840,,,,,ˈlɛˑɪβəχ,,,0
11131450309,Limburgish,50.8925,6.05917,4310,,,,,ˈmɔ̞dəχ,,,0
11131450309,Limburgish,50.8925,6.05917,4320,,,,,ˈfädəχ,,,0
11131450309,Limburgish,50.8925,6.05917,4410,,,,,ˈdɔˑtəχ,,,0
11131450309,Limburgish,50.8925,6.05917,4330,,,,,bʁ̞o̞ːχ,,,0
11131450309,Limburgish,50.8925,6.05917,4100,name,,anuman,,näːm,,,0
11131450309,Limburgish,50.8925,6.05917,4110,,,,,wɔ̞ət,,,0
11131450309,Limburgish,50.8925,6.05917,3120,,,,,hʊŋk,,,0
11131450309,Limburgish,50.8925,6.05917,3150,,,,,muːs,,,0
11131450309,Limburgish,50.8925,6.05917,3230,,,,,x̟äns,,,0
11131450309,Limburgish,50.8925,6.05917,3310,,,,,kɒʊ,,,0
11131450309,Limburgish,50.8925,6.05917,3320,,,,,lɑ̈m,,,0
11131450309,Limburgish,50.8925,6.05917,3340,,,,,kɔːɸ,,,0
11131450309,Limburgish,50.8925,6.05917,3240,,,,,føʃ,,,0
11131450309,Limburgish,50.8925,6.05917,3820,,,,,hoˑɐn,,,0
11131450309,Limburgish,50.8925,6.05917,3900,,,,,βøl,,,0
11131450309,Limburgish,50.8925,6.05917,5120,,,,,mɔˑn,,,0
11131450309,Limburgish,50.8925,6.05917,5260,,,,,noˑɐt,,,0
11131450309,Limburgish,50.8925,6.05917,5510,,,,,stɛ̝ˑi,,,0
11131450309,Limburgish,50.8925,6.05917,5430,,,,,ɛ̝ːʃ,,,0
11131450309,Limburgish,50.8925,6.05917,5520,soil,,kwriiyets,,e̞ˑət,,,0
11131450309,Limburgish,50.8925,6.05917,6260,,,,,..,,,0
11131450309,Limburgish,50.8925,6.05917,6270,,,,,doˑɐn,,,0
11131450309,Limburgish,50.8925,6.05917,6290,,,,,iːk̟,,,0
11131450309,Limburgish,50.8925,6.05917,5810,,,,,ʁe̞ˑən,,,0
11131450309,Limburgish,50.8925,6.05917,5910,,,,,ˈʃtöʁ̞əm,,,0
11131450309,Limburgish,50.8925,6.05917,5920,,,,,ˈdʊndəχ,,,0
11131450309,Limburgish,50.8925,6.05917,5820,,,,,s̺nɛi,,,0
11131450309,Limburgish,50.8925,6.05917,5830,,,,,iːs,,,0
11131450309,Limburgish,50.8925,6.05917,5850,wind,,wintos,,β̞ɪŋk,,,0
11131450309,Limburgish,50.8925,6.05917,6000,,,,,ˈhʊŋəχ,,,0
11131450309,Limburgish,50.8925,6.05917,6050,,,,,ˈmɪlɪk̟,,,0
11131450309,Limburgish,50.8925,6.05917,6150,,,,,ˈøənɪŋ,,,0
11131450309,Limburgish,50.8925,6.05917,6040,salt,,salanos,,zɔːt,,,0
11131450309,Limburgish,50.8925,6.05917,6070,grain,,graanom,,koˑɐʁ̞,,,0
11131450309,Limburgish,50.8925,6.05917,6510,,,,,huːs,,,0
11131450309,Limburgish,50.8925,6.05917,6560,,,,,heːm,,,0
11131450309,Limburgish,50.8925,6.05917,6540,,,,,çäːt,,,0
11131450309,Limburgish,50.8925,6.05917,6550,,,,,ˈɔβə,,,0
11131450309,Limburgish,50.8925,6.05917,6570,,,,,ʃtʊːl,,,0
11131450309,Limburgish,50.8925,6.05917,6580,,,,,bɑ̈t,,,0
11131450309,Limburgish,50.8925,6.05917,6600,,,,,dɪŋk̟,,,0
11131450309,Limburgish,50.8925,6.05917,1440,,,,,tɔp,,,0
11131450309,Limburgish,50.8925,6.05917,6630,,,,,nɔ̈lt,,,0
11131450309,Limburgish,50.8925,6.05917,6640,,,,,ʁɪŋk,,,0
11131450309,Limburgish,50.8925,6.05917,8000,,,,,ɪs,,,0
11131450309,Limburgish,50.8925,6.05917,8310,,,,,e̞ˑət,,,0
11131450309,Limburgish,50.8925,6.05917,8330,,,,,biːt,,,0
11131450309,Limburgish,50.8925,6.05917,8320,,,,,dʁ̞ɪŋk,,,0
11131450309,Limburgish,50.8925,6.05917,8510,,,,,ziˑə,,,0
11131450309,Limburgish,50.8925,6.05917,8520,,,,,hyˑəχ,,,0
11131450309,Limburgish,50.8925,6.05917,9620,,,,,ˈo̞ˑpə,,,0
11131450309,Limburgish,50.8925,6.05917,8120,,,,,zɪt,,,0
11131450309,Limburgish,50.8925,6.05917,8720,,,,,βɔːχ,,,0
11131450309,Limburgish,50.8925,6.05917,8940,,,,,fɛ̝ç,,,0
11131450309,Limburgish,50.8925,6.05917,8990,,,,,ʃβeˑəχ,,,0
11131450309,Limburgish,50.8925,6.05917,1010,,,,,ɪç,,,0
11131450309,Limburgish,50.8925,6.05917,1210,,,,,βɑ̈t,,,0
11131450309,Limburgish,50.8925,6.05917,1410,,,,,ɪn,,,0
11131450309,Limburgish,50.8925,6.05917,1430,,,,,uːt,,,0
11131450309,Limburgish,50.8925,6.05917,1460,,,,,ˈøβəχ,,,0
11131450309,Limburgish,50.8925,6.05917,1470,,,,,ˈmɪdə,,,0
11131450309,Limburgish,50.8925,6.05917,5010,,,,,däːχ,,,0
11131450309,Limburgish,50.8925,6.05917,5020,,,,,näx,,,0
11131450309,Limburgish,50.8925,6.05917,510,,,,,jɔ̞ːχ,,,0
