LanguageId,LanguageName,Latitude,Longitude,WordId,WordModernName1,WordModernName2,WordProtoName1,WordProtoName2,Phonetic,SpellingAltv1,SpellingAltv2,NotCognateWithMainWordInThisFamily2
11151120109,"Franc. C.: Luxemburg",49.6,6.11667,10,one,,ainaz,,ʔeːnt,eent,,0
11151120109,"Franc. C.: Luxemburg",49.6,6.11667,20,two,,twou,,tsveː,zwee,,0
11151120109,"Franc. C.: Luxemburg",49.6,6.11667,30,three,,threjez,,dʀaˑɪ,dräi,,0
11151120109,"Franc. C.: Luxemburg",49.6,6.11667,40,four,,fedworez,,fə̆ɪˑɜ̠,véier,,0
11151120109,"Franc. C.: Luxemburg",49.6,6.11667,50,five,,fenfe,,ˈfɨ̞nəf,fënnef,,0
11151120109,"Franc. C.: Luxemburg",49.6,6.11667,60,six,,sexs,,zɛks,sechs,,0
11151120109,"Franc. C.: Luxemburg",49.6,6.11667,70,seven,,sebun,,ˈziːvən,siwen,,0
11151120109,"Franc. C.: Luxemburg",49.6,6.11667,80,eight,,axtou,,ʔa̠ːχt,aacht,,0
11151120109,"Franc. C.: Luxemburg",49.6,6.11667,90,nine,,newun,,nɪŋ,néng,,0
11151120109,"Franc. C.: Luxemburg",49.6,6.11667,100,ten,,texun,,tsɪŋ,zéng,,0
11151120109,"Franc. C.: Luxemburg",49.6,6.11667,200,hundred,,xundaradan,,ˈhɔnɐt,honnert,,0
11151120109,"Franc. C.: Luxemburg",49.6,6.11667,7820,all,,allaz,,ʔäl,all,,0
11151120109,"Franc. C.: Luxemburg",49.6,6.11667,7020,white,,xwitaz,,væ̈iˑs,wäiss,,0
11151120109,"Franc. C.: Luxemburg",49.6,6.11667,7030,red,,raudaz,,ʀoːt,rout,,0
11151120109,"Franc. C.: Luxemburg",49.6,6.11667,7040,green,,groniz,,ɡʁɪŋ,gréng,,0
11151120109,"Franc. C.: Luxemburg",49.6,6.11667,7210,long,,langaz,,la̠ːŋ,laang,,0
11151120109,"Franc. C.: Luxemburg",49.6,6.11667,7410,sharp,,skarpaz,,ʃa̠ːf,schaarf,,0
11151120109,"Franc. C.: Luxemburg",49.6,6.11667,7840,full,,fullaz,,fʊ̞l,foll,,0
11151120109,"Franc. C.: Luxemburg",49.6,6.11667,7510,young,,jungaz,,jʊŋk,jonk,,0
11151120109,"Franc. C.: Luxemburg",49.6,6.11667,7980,new,,neujaz,,nɑ̟ˑɪ,nei,,0
11151120109,"Franc. C.: Luxemburg",49.6,6.11667,7670,naked,,nakwadaz,,..,plakeg,,0
11151120109,"Franc. C.: Luxemburg",49.6,6.11667,7650,quick,,kwikwaz,,..,,,0
11151120109,"Franc. C.: Luxemburg",49.6,6.11667,7660,fast,,fastaz,,fɛ̞st,fest,,0
11151120109,"Franc. C.: Luxemburg",49.6,6.11667,7710,good,,godaz,,ɡʊt,gutt,,0
11151120109,"Franc. C.: Luxemburg",49.6,6.11667,7910,warm,,warmaz,,va̠ːm,waarm,,0
11151120109,"Franc. C.: Luxemburg",49.6,6.11667,7920,cold,,kaldaz,,kʰa̠ːl,kal,,0
11151120109,"Franc. C.: Luxemburg",49.6,6.11667,7560,sore,,sairaz,,zɛɪɐ,séier,,0
11151120109,"Franc. C.: Luxemburg",49.6,6.11667,7680,holy,,xailagaz,,ˈhɛləʃ,helleg,,0
11151120109,"Franc. C.: Luxemburg",49.6,6.11667,7700,better,,batizon,,ˈbɛ̞sʌ̞̈,besser,,0
11151120109,"Franc. C.: Luxemburg",49.6,6.11667,810,right,,rextaz,,ʀiˑəts,riets,,0
11151120109,"Franc. C.: Luxemburg",49.6,6.11667,2010,head,,xaubadan,,ha̠ːpt,Haapt,,0
11151120109,"Franc. C.: Luxemburg",49.6,6.11667,2110,eye,,augon,,ʔa̠ː,A,,0
11151120109,"Franc. C.: Luxemburg",49.6,6.11667,2130,ear,,auzon,,ʔœ̈ʊɑ̈,Ouer,,0
11151120109,"Franc. C.: Luxemburg",49.6,6.11667,2140,tear,,taxruz,,tʰʀɛɪn,Tréin,,0
11151120109,"Franc. C.: Luxemburg",49.6,6.11667,2210,mouth,,munthaz,,mɔnt,Mond,,0
11151120109,"Franc. C.: Luxemburg",49.6,6.11667,2230,tongue,,tungon,,tsɔŋ,Zong,,0
11151120109,"Franc. C.: Luxemburg",49.6,6.11667,2240,tooth,,tanthz,,tsänt,Zant,,0
11151120109,"Franc. C.: Luxemburg",49.6,6.11667,2310,hand,,xanduz,,hänt,Hand,,0
11151120109,"Franc. C.: Luxemburg",49.6,6.11667,2510,foot,,fotz,,fœ̈ʊˑs,Fouss,,0
11151120109,"Franc. C.: Luxemburg",49.6,6.11667,2530,knee,,knewan,,kʰnɛiˑ,Knéi,,0
11151120109,"Franc. C.: Luxemburg",49.6,6.11667,2540,toe,,taixwon,,tsɛi̞f,Zéif,,0
11151120109,"Franc. C.: Luxemburg",49.6,6.11667,2610,blood,,blodan,,blʊ̈ts,Blutt,,0
11151120109,"Franc. C.: Luxemburg",49.6,6.11667,2620,bone,,bainan,,beːn,Been,,0
11151120109,"Franc. C.: Luxemburg",49.6,6.11667,2640,nail,,naglaz,,noːl,Nol,,0
11151120109,"Franc. C.: Luxemburg",49.6,6.11667,2810,heart,,xerton,,he̞ɐts,Häerz,,0
11151120109,"Franc. C.: Luxemburg",49.6,6.11667,2840,liver,,libaro,,ˈlɪəvʌ̞̈,Liewer,,0
11151120109,"Franc. C.: Luxemburg",49.6,6.11667,4310,mother,,moder,,mäm,Mamm,,0
11151120109,"Franc. C.: Luxemburg",49.6,6.11667,4320,father,,fader,,päp,Papp,,0
11151120109,"Franc. C.: Luxemburg",49.6,6.11667,4410,daughter,,duxter,,ˈdʊɪʃtɐ,Duechter,,0
11151120109,"Franc. C.: Luxemburg",49.6,6.11667,4330,brother,,brother,,ˈbʁʊ̞dɐˑ,Brudder,,0
11151120109,"Franc. C.: Luxemburg",49.6,6.11667,4100,name,,namon,,nɵ̟m,Numm,,0
11151120109,"Franc. C.: Luxemburg",49.6,6.11667,4110,word,,wurdan,,vʊˑɛ̈t,Wuert,,0
11151120109,"Franc. C.: Luxemburg",49.6,6.11667,3120,hound,,xundaz,,hʊ̞nt,Hond,,0
11151120109,"Franc. C.: Luxemburg",49.6,6.11667,3150,mouse,,musz,,mæ̈ˑʊs,Maus,,0
11151120109,"Franc. C.: Luxemburg",49.6,6.11667,3230,goose,,gansz,,ɡæns,Gäns,,0
11151120109,"Franc. C.: Luxemburg",49.6,6.11667,3310,cow,,kowz,,kʰœ̈ʊˑ,Kou,,0
11151120109,"Franc. C.: Luxemburg",49.6,6.11667,3320,lamb,,lambaz,,läm,Lamm,,0
11151120109,"Franc. C.: Luxemburg",49.6,6.11667,3340,calf,,kalbaz,,ˈkʰäləf,Kallef,,0
11151120109,"Franc. C.: Luxemburg",49.6,6.11667,3240,fish,,fiskaz,,fəʃ,Fësch,,0
11151120109,"Franc. C.: Luxemburg",49.6,6.11667,3820,horn,,xurnan,,Array,Har,,0
11151120109,"Franc. C.: Luxemburg",49.6,6.11667,3900,wool,,wullo,,vɔ̝̈l,Woll,,0
11151120109,"Franc. C.: Luxemburg",49.6,6.11667,5120,moon,,menon,,mɔ̟nt,Mound,,0
11151120109,"Franc. C.: Luxemburg",49.6,6.11667,5260,north,,nurthaz,,ˈnʊəʁdən,Norden,,0
11151120109,"Franc. C.: Luxemburg",49.6,6.11667,5510,stone,,stainaz,,steːn,Steen,,0
11151120109,"Franc. C.: Luxemburg",49.6,6.11667,5430,ash,,askon,,ʔäks,Äschen,,0
11151120109,"Franc. C.: Luxemburg",49.6,6.11667,5520,earth,,ertho,,ʔeˑɐt,Buedem,,0
11151120109,"Franc. C.: Luxemburg",49.6,6.11667,6260,leaf,,lauban,,..,Laf,,0
11151120109,"Franc. C.: Luxemburg",49.6,6.11667,6270,thorn,,thurnuz,,dɔ̞ɐˑ,Dar,,0
11151120109,"Franc. C.: Luxemburg",49.6,6.11667,6290,oak,,aikz,,ʔeːʃ,Eech,,0
11151120109,"Franc. C.: Luxemburg",49.6,6.11667,5810,rain,,regnan,,ʁeːn,Reen,,0
11151120109,"Franc. C.: Luxemburg",49.6,6.11667,5910,storm,,sturmaz,,ʃtʊɛ̈m,Stuerm,,0
11151120109,"Franc. C.: Luxemburg",49.6,6.11667,5920,thunder,,thunraz,,ˈdɔ̝̈nʌ̞̈,Donner,,0
11151120109,"Franc. C.: Luxemburg",49.6,6.11667,5820,snow,,snaigwaz,,ʃnɛiˑ,Schnéi,,0
11151120109,"Franc. C.: Luxemburg",49.6,6.11667,5830,ice,,isaz,,ʔæ̈iˑs,Äis,,0
11151120109,"Franc. C.: Luxemburg",49.6,6.11667,5850,wind,,wendaz,,vänt,Wand,,0
11151120109,"Franc. C.: Luxemburg",49.6,6.11667,6000,hunger,,xungruz,,ˈhʊŋʌ̞̈,Honger,,0
11151120109,"Franc. C.: Luxemburg",49.6,6.11667,6050,milk,,melkaz,,ˈmɨ̞lɪ̠ʃ,Mëllech,,0
11151120109,"Franc. C.: Luxemburg",49.6,6.11667,6150,honey,,hunagan,,ˈhʊnəʃ,Hunneg,,0
11151120109,"Franc. C.: Luxemburg",49.6,6.11667,6040,salt,,saltan,,zälts,Salz,,0
11151120109,"Franc. C.: Luxemburg",49.6,6.11667,6070,corn,,kurnan,,kʰa̠ːχ,Kar,,0
11151120109,"Franc. C.: Luxemburg",49.6,6.11667,6510,house,,xusan,,hɛ̈ʊˑs,Haus,,0
11151120109,"Franc. C.: Luxemburg",49.6,6.11667,6560,home,,xaimaz,,he̝ːm,heem,,0
11151120109,"Franc. C.: Luxemburg",49.6,6.11667,6540,yard,,gardaz,,ɡa̠ːχt,Gaart,,0
11151120109,"Franc. C.: Luxemburg",49.6,6.11667,6550,oven,,ufnaz,,ʔʊɛ̈vən,Uewen,,0
11151120109,"Franc. C.: Luxemburg",49.6,6.11667,6570,stool,,stolaz,,ʃtʊl,Stull,,0
11151120109,"Franc. C.: Luxemburg",49.6,6.11667,6580,bath,,bathan,,bʊɛ̈t,Bad,,0
11151120109,"Franc. C.: Luxemburg",49.6,6.11667,6600,thing,,thengaz,,ˈdɪŋən,Déngen,,0
11151120109,"Franc. C.: Luxemburg",49.6,6.11667,1440,top,,tuppaz,,..,Dëppen,,0
11151120109,"Franc. C.: Luxemburg",49.6,6.11667,6630,needle,,nethlo,,nʊl,Nol,,0
11151120109,"Franc. C.: Luxemburg",49.6,6.11667,6640,ring,,xrengaz,,ʁɐŋ,Rank,,0
11151120109,"Franc. C.: Luxemburg",49.6,6.11667,8000,is,,esti,,ɐs,ass,,0
11151120109,"Franc. C.: Luxemburg",49.6,6.11667,8310,eat,,etanan,,iˑɛ̈s,iess!,,0
11151120109,"Franc. C.: Luxemburg",49.6,6.11667,8330,bite,,bitanan,,bæ̈iˑs,bäiss!,,0
11151120109,"Franc. C.: Luxemburg",49.6,6.11667,8320,drink,,drenkanan,,dʀɪŋˑk,drénk!,,0
11151120109,"Franc. C.: Luxemburg",49.6,6.11667,8510,see,,sexwanan,,..,kuck!,,0
11151120109,"Franc. C.: Luxemburg",49.6,6.11667,8520,hear,,xauzjanan,,,héier!,,0
11151120109,"Franc. C.: Luxemburg",49.6,6.11667,9620,open,,upanaz,,ˈʔʊ̞pən,oppen,,0
11151120109,"Franc. C.: Luxemburg",49.6,6.11667,8120,sit,,setjanan,,zɨ̞ts,sëtz!,,0
11151120109,"Franc. C.: Luxemburg",49.6,6.11667,8720,wash,,waskanan,,væʃ,wäsch!,,0
11151120109,"Franc. C.: Luxemburg",49.6,6.11667,8940,fight,,fextanan,,fæʃt,fecht!,,0
11151120109,"Franc. C.: Luxemburg",49.6,6.11667,8990,swear,,swarjanan,,ʃviˑɛ̈,schwier!,,0
11151120109,"Franc. C.: Luxemburg",49.6,6.11667,1010,I,,eka,,ʔœ̈ʃ,ech,,0
11151120109,"Franc. C.: Luxemburg",49.6,6.11667,1210,what,,xwat,,va̠ːt,wat?,,0
11151120109,"Franc. C.: Luxemburg",49.6,6.11667,1410,in,,eni,,ʔän,an,,0
11151120109,"Franc. C.: Luxemburg",49.6,6.11667,1430,out,,ut,,ʔæ̈ˑʊs,aus,,0
11151120109,"Franc. C.: Luxemburg",49.6,6.11667,1460,over,,uberi,,ˈʔiväˑ,ivver,,0
11151120109,"Franc. C.: Luxemburg",49.6,6.11667,1470,mid,,medjaz,,mɨ̞t,Mëtt,,0
11151120109,"Franc. C.: Luxemburg",49.6,6.11667,5010,day,,dagaz,,da̠ːχ,Dag,,0
11151120109,"Franc. C.: Luxemburg",49.6,6.11667,5020,night,,naxtz,,nuɛ̈ʃt,Nuecht,,0
11151120109,"Franc. C.: Luxemburg",49.6,6.11667,510,year,,jeran,,joˑɐ,Joer,,0
