LanguageId,LanguageName,Latitude,Longitude,WordId,WordModernName1,WordModernName2,WordProtoName1,WordProtoName2,Phonetic,SpellingAltv1,SpellingAltv2,NotCognateWithMainWordInThisFamily
11161250509,"South Tyrol: Ortisei",46.56667,11.66667,10,one,,ainaz,,ʔɔˑəns,,,0
11161250509,"South Tyrol: Ortisei",46.56667,11.66667,20,two,,twou,,tsβɔˑə,,,0
11161250509,"South Tyrol: Ortisei",46.56667,11.66667,30,three,,threjez,,dʁäˑɪ,,,0
11161250509,"South Tyrol: Ortisei",46.56667,11.66667,40,four,,fedworez,,fiˑəχ,,,0
11161250509,"South Tyrol: Ortisei",46.56667,11.66667,50,five,,fenfe,,fʏɱf,,,0
11161250509,"South Tyrol: Ortisei",46.56667,11.66667,60,six,,sexs,,sɪks,,,0
11161250509,"South Tyrol: Ortisei",46.56667,11.66667,70,seven,,sebun,,ˈziːbm̩,,,0
11161250509,"South Tyrol: Ortisei",46.56667,11.66667,80,eight,,axtou,,ʔɔ̞χt,,,0
11161250509,"South Tyrol: Ortisei",46.56667,11.66667,90,nine,,newun,,näˑɪn,,,0
11161250509,"South Tyrol: Ortisei",46.56667,11.66667,100,ten,,texun,,tseːn,,,0
11161250509,"South Tyrol: Ortisei",46.56667,11.66667,200,hundred,,xundaradan,,ˈhʊndəχt,,,0
11161250509,"South Tyrol: Ortisei",46.56667,11.66667,7820,all,,allaz,,ʔäl,,,0
11161250509,"South Tyrol: Ortisei",46.56667,11.66667,7020,white,,xwitaz,,βäɪs,,,0
11161250509,"South Tyrol: Ortisei",46.56667,11.66667,7030,red,,raudaz,,ʁ̞ɔ̞ːts,,,0
11161250509,"South Tyrol: Ortisei",46.56667,11.66667,7040,green,,groniz,,ɡʁiˑɛ̈n,,,0
11161250509,"South Tyrol: Ortisei",46.56667,11.66667,7210,long,,langaz,,lɔ̞ŋk,,,0
11161250509,"South Tyrol: Ortisei",46.56667,11.66667,7410,sharp,,skarpaz,,ʃɑ̈ʁf,,,0
11161250509,"South Tyrol: Ortisei",46.56667,11.66667,7840,full,,fullaz,,fʌl,,,0
11161250509,"South Tyrol: Ortisei",46.56667,11.66667,7510,young,,jungaz,,jʊŋk,,,0
11161250509,"South Tyrol: Ortisei",46.56667,11.66667,7980,new,,neujaz,,näɪ,,,0
11161250509,"South Tyrol: Ortisei",46.56667,11.66667,7670,naked,,nakwadaz,,nɔkts,,,0
11161250509,"South Tyrol: Ortisei",46.56667,11.66667,7660,fast,,fastaz,,fɪʃt,,,0
11161250509,"South Tyrol: Ortisei",46.56667,11.66667,7710,good,,godaz,,ɡʊɛ̈ts,,,0
11161250509,"South Tyrol: Ortisei",46.56667,11.66667,7910,warm,,warmaz,,βɑ̈ʁ̞m,,,0
11161250509,"South Tyrol: Ortisei",46.56667,11.66667,7920,cold,,kaldaz,,kʰɔlts,,,0
11161250509,"South Tyrol: Ortisei",46.56667,11.66667,7560,sore,,sairaz,,sɛ̝ːχ,,,0
11161250509,"South Tyrol: Ortisei",46.56667,11.66667,7680,holy,,xailagaz,,ˈhäɪlɪ̝k,,,0
11161250509,"South Tyrol: Ortisei",46.56667,11.66667,7700,better,,batizon,,ˈbɪsəχ,,,0
11161250509,"South Tyrol: Ortisei",46.56667,11.66667,810,right,,rextaz,,ʁɛχts,,,0
11161250509,"South Tyrol: Ortisei",46.56667,11.66667,2010,head,,xaubadan,,ha̠ʊpt,,,0
11161250509,"South Tyrol: Ortisei",46.56667,11.66667,2110,eye,,augon,,ˈʔa̠ʊɡɛ̝̈,,,0
11161250509,"South Tyrol: Ortisei",46.56667,11.66667,2130,ear,,auzon,,ʔoːχ,,,0
11161250509,"South Tyrol: Ortisei",46.56667,11.66667,2210,mouth,,munthaz,,mʊnts,,,0
11161250509,"South Tyrol: Ortisei",46.56667,11.66667,2230,tongue,,tungon,,ˈtsʊŋɡɛ̝̈,,,0
11161250509,"South Tyrol: Ortisei",46.56667,11.66667,2240,tooth,,tanthz,,tsɑːn,,,0
11161250509,"South Tyrol: Ortisei",46.56667,11.66667,2310,hand,,xanduz,,hɒnts,,,0
11161250509,"South Tyrol: Ortisei",46.56667,11.66667,2510,foot,,fotz,,fʊəs,,,0
11161250509,"South Tyrol: Ortisei",46.56667,11.66667,2530,knee,,knewan,,kniˑɛ̈,,,0
11161250509,"South Tyrol: Ortisei",46.56667,11.66667,2540,toe,,taixwon,,tsɛ̝ːχ,,,0
11161250509,"South Tyrol: Ortisei",46.56667,11.66667,2610,blood,,blodan,,bløəts,,,0
11161250509,"South Tyrol: Ortisei",46.56667,11.66667,2620,bone,,bainan,,bäɪn,,,0
11161250509,"South Tyrol: Ortisei",46.56667,11.66667,2640,nail,,naglaz,,ˈnɔ̝ːɡl̩,,,0
11161250509,"South Tyrol: Ortisei",46.56667,11.66667,2810,heart,,xerton,,hɛχts,,,0
11161250509,"South Tyrol: Ortisei",46.56667,11.66667,2840,liver,,libaro,,ˈleːbəχ,,,0
11161250509,"South Tyrol: Ortisei",46.56667,11.66667,4310,mother,,moder,,ˈmʊətəχ,,,0
11161250509,"South Tyrol: Ortisei",46.56667,11.66667,4320,father,,fader,,ˈfo̞ətəχ,,,0
11161250509,"South Tyrol: Ortisei",46.56667,11.66667,4410,daughter,,duxter,,ˈdɔχtəχ,,,0
11161250509,"South Tyrol: Ortisei",46.56667,11.66667,4330,brother,,brother,,ˈbʁʊədəχ,,,0
11161250509,"South Tyrol: Ortisei",46.56667,11.66667,4100,name,,namon,,ˈnɔ̞ˑmɛ̈,,,0
11161250509,"South Tyrol: Ortisei",46.56667,11.66667,4110,word,,wurdan,,βɔ̈ʁts,,,0
11161250509,"South Tyrol: Ortisei",46.56667,11.66667,3120,hound,,xundaz,,hʊnts,,,0
11161250509,"South Tyrol: Ortisei",46.56667,11.66667,3150,mouse,,musz,,ma̠ɵ̠s,,,0
11161250509,"South Tyrol: Ortisei",46.56667,11.66667,3230,goose,,gansz,,ɡɔ̞ns,,,0
11161250509,"South Tyrol: Ortisei",46.56667,11.66667,3310,cow,,kowz,,kʰuˑɛ̈,,,0
11161250509,"South Tyrol: Ortisei",46.56667,11.66667,3320,lamb,,lambaz,,lɔ̞m,,,0
11161250509,"South Tyrol: Ortisei",46.56667,11.66667,3340,calf,,kalbaz,,kʰɔlp,,,0
11161250509,"South Tyrol: Ortisei",46.56667,11.66667,3240,fish,,fiskaz,,fi̞ʃ,,,0
11161250509,"South Tyrol: Ortisei",46.56667,11.66667,3820,horn,,xurnan,,ˈhɔˑʁn̩,,,0
11161250509,"South Tyrol: Ortisei",46.56667,11.66667,3900,wool,,wullo,,ˈβʌlɛ̝̈,,,0
11161250509,"South Tyrol: Ortisei",46.56667,11.66667,5120,moon,,menon,,mɔ̝ˑnt,,,0
11161250509,"South Tyrol: Ortisei",46.56667,11.66667,5260,north,,nurthaz,,no̞χts,,,0
11161250509,"South Tyrol: Ortisei",46.56667,11.66667,5510,stone,,stainaz,,ʃtäˑn,,,0
11161250509,"South Tyrol: Ortisei",46.56667,11.66667,5430,ash,,askon,,ˈʔäʃɛ̈,,,0
11161250509,"South Tyrol: Ortisei",46.56667,11.66667,5520,earth,,ertho,,ˈʔɛʁ̞dɛ̈,,,0
11161250509,"South Tyrol: Ortisei",46.56667,11.66667,6260,leaf,,lauban,,la̠ːp,,,0
11161250509,"South Tyrol: Ortisei",46.56667,11.66667,6270,thorn,,thurnuz,,ˈdɔʁ̞n̩,,,0
11161250509,"South Tyrol: Ortisei",46.56667,11.66667,6290,oak,,aikz,,ˈʔäɪçɛ̈,,,0
11161250509,"South Tyrol: Ortisei",46.56667,11.66667,5810,rain,,regnan,,ˈʁ̞eːɡn̩,,,0
11161250509,"South Tyrol: Ortisei",46.56667,11.66667,5910,storm,,sturmaz,,ʃtʊʁ̞m,,,0
11161250509,"South Tyrol: Ortisei",46.56667,11.66667,5920,thunder,,thunraz,,ˈdɔ̈nəχ,,,0
11161250509,"South Tyrol: Ortisei",46.56667,11.66667,5820,snow,,snaigwaz,,ʃneə,,,0
11161250509,"South Tyrol: Ortisei",46.56667,11.66667,5830,ice,,isaz,,ʔäɪs,,,0
11161250509,"South Tyrol: Ortisei",46.56667,11.66667,5850,wind,,wendaz,,βɪnt,,,0
11161250509,"South Tyrol: Ortisei",46.56667,11.66667,6000,hunger,,xungruz,,ˈhʊŋɡəχ,,,0
11161250509,"South Tyrol: Ortisei",46.56667,11.66667,6050,milk,,melkaz,,mɪ̝lç,,,0
11161250509,"South Tyrol: Ortisei",46.56667,11.66667,6150,honey,,hunagan,,ˈhoːni̞k,,,0
11161250509,"South Tyrol: Ortisei",46.56667,11.66667,6040,salt,,saltan,,sɔ̞lts,,,0
11161250509,"South Tyrol: Ortisei",46.56667,11.66667,6070,corn,,kurnan,,kʰɔ̞ʁ̞n̩,,,0
11161250509,"South Tyrol: Ortisei",46.56667,11.66667,6510,house,,xusan,,haɵ̠s,,,0
11161250509,"South Tyrol: Ortisei",46.56667,11.66667,6560,home,,xaimaz,,häɪm,,,0
11161250509,"South Tyrol: Ortisei",46.56667,11.66667,6540,yard,,gardaz,,ˈɡɔ̞χtn̩,,,0
11161250509,"South Tyrol: Ortisei",46.56667,11.66667,6550,oven,,ufnaz,,ˈʔoˑfn̩,,,0
11161250509,"South Tyrol: Ortisei",46.56667,11.66667,6570,stool,,stolaz,,ʃtʊɛl,,,0
11161250509,"South Tyrol: Ortisei",46.56667,11.66667,6580,bath,,bathan,,bɔ̝ːts,,,0
11161250509,"South Tyrol: Ortisei",46.56667,11.66667,6600,thing,,thengaz,,dɪŋk,,,0
11161250509,"South Tyrol: Ortisei",46.56667,11.66667,6630,needle,,nethlo,,ˈnɔ̝ːdl̩,,,0
11161250509,"South Tyrol: Ortisei",46.56667,11.66667,6640,ring,,xrengaz,,ʁɪ̝ŋk̟,,,0
11161250509,"South Tyrol: Ortisei",46.56667,11.66667,8000,is,,esti,,ʔiʃ,,,0
11161250509,"South Tyrol: Ortisei",46.56667,11.66667,8310,eat,,etanan,,ʔɪ̝s,,,0
11161250509,"South Tyrol: Ortisei",46.56667,11.66667,8330,bite,,bitanan,,bäɪs,,,0
11161250509,"South Tyrol: Ortisei",46.56667,11.66667,8320,drink,,drenkanan,,tʁ̥ɪ̝ŋk̟,,,0
11161250509,"South Tyrol: Ortisei",46.56667,11.66667,8510,see,,sexwanan,,ʃäɵ̠,,,1
11161250509,"South Tyrol: Ortisei",46.56667,11.66667,8520,hear,,xauzjanan,,hɛ̝ːχ,,,1
11161250509,"South Tyrol: Ortisei",46.56667,11.66667,9620,open,,upanaz,,ˈʔofn̩,,,0
11161250509,"South Tyrol: Ortisei",46.56667,11.66667,8120,sit,,setjanan,,sɪts,,,0
11161250509,"South Tyrol: Ortisei",46.56667,11.66667,8720,wash,,waskanan,,βäʃ,,,0
11161250509,"South Tyrol: Ortisei",46.56667,11.66667,8990,swear,,swarjanan,,ʃβøːχ,,,0
11161250509,"South Tyrol: Ortisei",46.56667,11.66667,1010,I,,eka,,ʔiː,,,0
11161250509,"South Tyrol: Ortisei",46.56667,11.66667,1210,what,,xwat,,β̞ɔ̞s,,,0
11161250509,"South Tyrol: Ortisei",46.56667,11.66667,1410,in,,eni,,ʔɪ̝n,,,0
11161250509,"South Tyrol: Ortisei",46.56667,11.66667,1430,out,,ut,,ʔaɵ̠s,,,0
11161250509,"South Tyrol: Ortisei",46.56667,11.66667,1460,over,,uberi,,ˈʔyːbəχ,,,0
11161250509,"South Tyrol: Ortisei",46.56667,11.66667,1470,mid,,medjaz,,ˈmɪ̝tɛ̈,,,0
11161250509,"South Tyrol: Ortisei",46.56667,11.66667,5010,day,,dagaz,,dɔ̝ˑk,,,0
11161250509,"South Tyrol: Ortisei",46.56667,11.66667,5020,night,,naxtz,,nɔχt,,,0
11161250509,"South Tyrol: Ortisei",46.56667,11.66667,510,year,,jeran,,jɔːχ,,,0
