LanguageId,LanguageName,Latitude,Longitude,WordId,WordModernName1,WordModernName2,WordProtoName1,WordProtoName2,Phonetic,SpellingAltv1,SpellingAltv2,NotCognateWithMainWordInThisFamily
11002000000,Proto-Germanic,56.21281,12.04376,10,one,,ainaz,,ainaz,ainaz,,0
11002000000,Proto-Germanic,56.21281,12.04376,20,two,,twou,,twoːu,twō(u),,0
11002000000,Proto-Germanic,56.21281,12.04376,30,three,,threjez,,θrejez,þrejez,,0
11002000000,Proto-Germanic,56.21281,12.04376,40,four,,fedworez,,fewoːrez,fedwōrez,,0
11002000000,Proto-Germanic,56.21281,12.04376,50,five,,fenfe,,fenfe,fenfe,,0
11002000000,Proto-Germanic,56.21281,12.04376,60,six,,sexs,,sexs,sexs,,0
11002000000,Proto-Germanic,56.21281,12.04376,70,seven,,sebun,,sebun,sebun,,0
11002000000,Proto-Germanic,56.21281,12.04376,80,eight,,axtou,,axtoːu,axtōu,,0
11002000000,Proto-Germanic,56.21281,12.04376,90,nine,,newun,,newun,newun,,0
11002000000,Proto-Germanic,56.21281,12.04376,100,ten,,texun,,texun,texun,,0
11002000000,Proto-Germanic,56.21281,12.04376,200,hundred,,xundaradan,,xundaradan,xunda-radan,,0
11002000000,Proto-Germanic,56.21281,12.04376,7820,all,,allaz,,allaz,allaz,,0
11002000000,Proto-Germanic,56.21281,12.04376,7020,white,,xwitaz,,xwiːtaz,xwītaz,,0
11002000000,Proto-Germanic,56.21281,12.04376,7030,red,,raudaz,,raudaz,raudaz,,0
11002000000,Proto-Germanic,56.21281,12.04376,7040,green,,groniz,,ɡroːniz,grōniz,,0
11002000000,Proto-Germanic,56.21281,12.04376,7210,long,,langaz,,lanɡaz,langaz,,0
11002000000,Proto-Germanic,56.21281,12.04376,7410,sharp,,skarpaz,,skarpaz,skarpaz,,0
11002000000,Proto-Germanic,56.21281,12.04376,7840,full,,fullaz,,fullaz,fullaz,,0
11002000000,Proto-Germanic,56.21281,12.04376,7510,young,,jungaz,,junɡaz,jungaz,,0
11002000000,Proto-Germanic,56.21281,12.04376,7980,new,,neujaz,,neujaz,neujaz,,0
11002000000,Proto-Germanic,56.21281,12.04376,7670,naked,,nakwadaz,,nakwadaz,nakwadaz²,,0
11002000000,Proto-Germanic,56.21281,12.04376,7660,fast,,fastaz,,fastaz,fastaz,,0
11002000000,Proto-Germanic,56.21281,12.04376,7710,good,,godaz,,ɡoːdaz,gōdaz,,0
11002000000,Proto-Germanic,56.21281,12.04376,7910,warm,,warmaz,,warmaz,warmaz,,0
11002000000,Proto-Germanic,56.21281,12.04376,7920,cold,,kaldaz,,kaldaz,kaldaz,,0
11002000000,Proto-Germanic,56.21281,12.04376,7560,sore,,sairaz,,sairaz,sairaz,,0
11002000000,Proto-Germanic,56.21281,12.04376,7680,holy,,xailagaz,,xailaɡaz,xailagaz,,0
11002000000,Proto-Germanic,56.21281,12.04376,7700,better,,batizon,,batizoːn,batizōn,,0
11002000000,Proto-Germanic,56.21281,12.04376,810,right,,rextaz,,rextaz,rextaz,,0
11002000000,Proto-Germanic,56.21281,12.04376,2010,head,,xaubadan,,xaubadan,xaubadan²,,0
11002000000,Proto-Germanic,56.21281,12.04376,2110,eye,,augon,,auɡoːn,augōn,,0
11002000000,Proto-Germanic,56.21281,12.04376,2130,ear,,auzon,,auzoːn,auzōn,,0
11002000000,Proto-Germanic,56.21281,12.04376,2210,mouth,,munthaz,,munθaz,munþaz,,0
11002000000,Proto-Germanic,56.21281,12.04376,2230,tongue,,tungon,,tunɡoːn,tungōn,,0
11002000000,Proto-Germanic,56.21281,12.04376,2240,tooth,,tanthz,,tanθz,tanþz,,0
11002000000,Proto-Germanic,56.21281,12.04376,2310,hand,,xanduz,,xanduz,xanduz,,0
11002000000,Proto-Germanic,56.21281,12.04376,2510,foot,,fotz,,foːtz,fōtz²,,0
11002000000,Proto-Germanic,56.21281,12.04376,2530,knee,,knewan,,knewan,knewan,,0
11002000000,Proto-Germanic,56.21281,12.04376,2540,toe,,taixwon,,taixwoːn,taixwōn²,,0
11002000000,Proto-Germanic,56.21281,12.04376,2610,blood,,blodan,,bloːdan,blōdan,,0
11002000000,Proto-Germanic,56.21281,12.04376,2620,bone,,bainan,,bainan,bainan,,0
11002000000,Proto-Germanic,56.21281,12.04376,2640,nail,,naglaz,,naɡlaz,naglaz,,0
11002000000,Proto-Germanic,56.21281,12.04376,2810,heart,,xerton,,xertoːn,xertōn,,0
11002000000,Proto-Germanic,56.21281,12.04376,2840,liver,,libaro,,libaroː,lib(a)rō,,0
11002000000,Proto-Germanic,56.21281,12.04376,4310,mother,,moder,,moːdeːr,mōdēr,,0
11002000000,Proto-Germanic,56.21281,12.04376,4320,father,,fader,,fadeːr,fadēr,,0
11002000000,Proto-Germanic,56.21281,12.04376,4410,daughter,,duxter,,duxteːr,duxtēr,,0
11002000000,Proto-Germanic,56.21281,12.04376,4330,brother,,brother,,broːθeːr,brōþēr,,0
11002000000,Proto-Germanic,56.21281,12.04376,4100,name,,namon,,namoːn,namōn²,,0
11002000000,Proto-Germanic,56.21281,12.04376,4110,word,,wurdan,,wurdan,wurdan,,0
11002000000,Proto-Germanic,56.21281,12.04376,3120,hound,,xundaz,,xundaz,xundaz,,0
11002000000,Proto-Germanic,56.21281,12.04376,3150,mouse,,musz,,muːsz,mūsz,,0
11002000000,Proto-Germanic,56.21281,12.04376,3230,goose,,gansz,,ɡansz,gansz,,0
11002000000,Proto-Germanic,56.21281,12.04376,3310,cow,,kowz,,koːwz,kōwz²,,0
11002000000,Proto-Germanic,56.21281,12.04376,3320,lamb,,lambaz,,lambaz,lambaz,,0
11002000000,Proto-Germanic,56.21281,12.04376,3340,calf,,kalbaz,,kalbaz,kalbaz,,0
11002000000,Proto-Germanic,56.21281,12.04376,3240,fish,,fiskaz,,fiskaz,fiskaz,,0
11002000000,Proto-Germanic,56.21281,12.04376,3820,horn,,xurnan,,xurnan,xurnan,,0
11002000000,Proto-Germanic,56.21281,12.04376,3900,wool,,wullo,,wulloː,wullō,,0
11002000000,Proto-Germanic,56.21281,12.04376,5120,moon,,menon,,meːnon,mēnon,,0
11002000000,Proto-Germanic,56.21281,12.04376,5260,north,,nurthaz,,nurθaz,nurþaz,,0
11002000000,Proto-Germanic,56.21281,12.04376,5510,stone,,stainaz,,stainaz,stainaz,,0
11002000000,Proto-Germanic,56.21281,12.04376,5430,ash,,askon,,askoːn,askōn,,0
11002000000,Proto-Germanic,56.21281,12.04376,5520,earth,,ertho,,erθoː,erþō,,0
11002000000,Proto-Germanic,56.21281,12.04376,6260,leaf,,lauban,,lauban,lauban,,0
11002000000,Proto-Germanic,56.21281,12.04376,6270,thorn,,thurnuz,,θurnuz,þurnuz²,,0
11002000000,Proto-Germanic,56.21281,12.04376,6290,oak,,aikz,,aikz,aikz,,0
11002000000,Proto-Germanic,56.21281,12.04376,5810,rain,,regnan,,reɡnan,regnan²,,0
11002000000,Proto-Germanic,56.21281,12.04376,5910,storm,,sturmaz,,sturmaz,sturmaz,,0
11002000000,Proto-Germanic,56.21281,12.04376,5920,thunder,,thunraz,,θunraz,þunraz,,0
11002000000,Proto-Germanic,56.21281,12.04376,5820,snow,,snaigwaz,,snaiɡwaz,snaigwaz,,0
11002000000,Proto-Germanic,56.21281,12.04376,5830,ice,,isaz,,iːsaz,īsaz²,,0
11002000000,Proto-Germanic,56.21281,12.04376,5850,wind,,wendaz,,wendaz,wendaz,,0
11002000000,Proto-Germanic,56.21281,12.04376,6000,hunger,,xungruz,,xunɡruz,xungruz²,,0
11002000000,Proto-Germanic,56.21281,12.04376,6050,milk,,melkaz,,melkaz,melkaz,,0
11002000000,Proto-Germanic,56.21281,12.04376,6150,honey,,hunagan,,hunaɡan,hunagan,,0
11002000000,Proto-Germanic,56.21281,12.04376,6040,salt,,saltan,,saltan,saltan,,0
11002000000,Proto-Germanic,56.21281,12.04376,6070,corn,,kurnan,,kurnan,kurnan,,0
11002000000,Proto-Germanic,56.21281,12.04376,6510,house,,xusan,,xuːsan,xūsan,,0
11002000000,Proto-Germanic,56.21281,12.04376,6560,home,,xaimaz,,xaimaz,xaimaz²,,0
11002000000,Proto-Germanic,56.21281,12.04376,6540,yard,,gardaz,,ɡardaz,gardaz²,,0
11002000000,Proto-Germanic,56.21281,12.04376,6550,oven,,ufnaz,,ufnaz,ufnaz,,0
11002000000,Proto-Germanic,56.21281,12.04376,6570,stool,,stolaz,,stoːlaz,stōlaz,,0
11002000000,Proto-Germanic,56.21281,12.04376,6580,bath,,bathan,,baθan,baþan,,0
11002000000,Proto-Germanic,56.21281,12.04376,6600,thing,,thengaz,,θenɡaz,þengaz,,0
11002000000,Proto-Germanic,56.21281,12.04376,6630,needle,,nethlo,,neːθloː,nēþlō,,0
11002000000,Proto-Germanic,56.21281,12.04376,6640,ring,,xrengaz,,xrenɡaz,xrengaz,,0
11002000000,Proto-Germanic,56.21281,12.04376,8000,is,,esti,,esti,esti,,0
11002000000,Proto-Germanic,56.21281,12.04376,8310,eat,,etanan,,et,et!,,0
11002000000,Proto-Germanic,56.21281,12.04376,8330,bite,,bitanan,,biːt,bīt!,,0
11002000000,Proto-Germanic,56.21281,12.04376,8320,drink,,drenkanan,,drenk,drenk!,,0
11002000000,Proto-Germanic,56.21281,12.04376,8510,see,,sexwanan,,sexw,sexw!,,0
11002000000,Proto-Germanic,56.21281,12.04376,8520,hear,,xauzjanan,,xauziː,xauzī!,,0
11002000000,Proto-Germanic,56.21281,12.04376,9620,open,,upanaz,,upanaz,upanaz²,,0
11002000000,Proto-Germanic,56.21281,12.04376,8120,sit,,setjanan,,seti,seti!,,0
11002000000,Proto-Germanic,56.21281,12.04376,8720,wash,,waskanan,,wask,wask!,,0
11002000000,Proto-Germanic,56.21281,12.04376,8990,swear,,swarjanan,,swari,swari!,,0
11002000000,Proto-Germanic,56.21281,12.04376,1010,I,,eka,,eka,eka,,0
11002000000,Proto-Germanic,56.21281,12.04376,1210,what,,xwat,,xwat,xwat,,0
11002000000,Proto-Germanic,56.21281,12.04376,1410,in,,eni,,eni,eni,,0
11002000000,Proto-Germanic,56.21281,12.04376,1430,out,,ut,,uːt,ūt,,0
11002000000,Proto-Germanic,56.21281,12.04376,1460,over,,uberi,,uberi,uberi,,0
11002000000,Proto-Germanic,56.21281,12.04376,1470,mid,,medjaz,,medjaz,medjaz,,0
11002000000,Proto-Germanic,56.21281,12.04376,5010,day,,dagaz,,daɡaz,dagaz,,0
11002000000,Proto-Germanic,56.21281,12.04376,5020,night,,naxtz,,naxtz,naxtz,,0
11002000000,Proto-Germanic,56.21281,12.04376,510,year,,jeran,,jeːran,jēran,,0
