LanguageId,LanguageName,Latitude,Longitude,WordId,WordModernName1,WordModernName2,WordProtoName1,WordProtoName2,Phonetic,SpellingAltv1,SpellingAltv2,NotCognateWithMainWordInThisFamily2
11161120409,"Swabia: Tübingen",48.5229,9.0521,10,one,,oyno,,ʔɔɪs,,,0
11161120409,"Swabia: Tübingen",48.5229,9.0521,20,two,,dwaaw,,tsβɔˑe,,,0
11161120409,"Swabia: Tübingen",48.5229,9.0521,30,three,,tris,,dʁɛ̈iˑ,,,0
11161120409,"Swabia: Tübingen",48.5229,9.0521,40,four,,kwetwores,,fiˑɔ̈,,,0
11161120409,"Swabia: Tübingen",48.5229,9.0521,50,five,,kwenkwe,,fäˑɪf,,,0
11161120409,"Swabia: Tübingen",48.5229,9.0521,60,six,,swexs,,sɪks,,,0
11161120409,"Swabia: Tübingen",48.5229,9.0521,70,seven,,sextam,,ˈsiːbə,,,0
11161120409,"Swabia: Tübingen",48.5229,9.0521,80,eight,,oxtuu,,ʔäχt,,,0
11161120409,"Swabia: Tübingen",48.5229,9.0521,90,nine,,nowan,,näˑe,,,0
11161120409,"Swabia: Tübingen",48.5229,9.0521,100,ten,,dekam,,tseˑə,,,0
11161120409,"Swabia: Tübingen",48.5229,9.0521,200,hundred,,kantom,,ˈhʊndʁ̞̩t,,,0
11161120409,"Swabia: Tübingen",48.5229,9.0521,7820,,,,,ʔäˑl,,,0
11161120409,"Swabia: Tübingen",48.5229,9.0521,7020,,,,,β̞ɛ̈iˑs,,,0
11161120409,"Swabia: Tübingen",48.5229,9.0521,7030,,,,,ʁɑ̟ˑɵ̠t,,,0
11161120409,"Swabia: Tübingen",48.5229,9.0521,7040,green,,glastos,,ɡʁeˑə,,,0
11161120409,"Swabia: Tübingen",48.5229,9.0521,7210,,,,,läŋˑ,,,0
11161120409,"Swabia: Tübingen",48.5229,9.0521,7410,,,,,ʃäˑɔ̈f,,,0
11161120409,"Swabia: Tübingen",48.5229,9.0521,7840,full,,laanos,,fʊl,,,0
11161120409,"Swabia: Tübingen",48.5229,9.0521,7510,young,,yowankos,,jʊŋ,,,0
11161120409,"Swabia: Tübingen",48.5229,9.0521,7980,,,,,nuˑiˑ,,,0
11161120409,"Swabia: Tübingen",48.5229,9.0521,7670,,,,,ˈnäkət,,,0
11161120409,"Swabia: Tübingen",48.5229,9.0521,7650,,,,,kʰɛ̝k,,,0
11161120409,"Swabia: Tübingen",48.5229,9.0521,7660,,,,,fɪʃt,,,0
11161120409,"Swabia: Tübingen",48.5229,9.0521,7710,good,,mati,,ɡuˑət,,,0
11161120409,"Swabia: Tübingen",48.5229,9.0521,7910,,,,,βäˑɔ̈m,,,0
11161120409,"Swabia: Tübingen",48.5229,9.0521,7920,,,,,kʰält,,,0
11161120409,"Swabia: Tübingen",48.5229,9.0521,7560,,,,,..,,,0
11161120409,"Swabia: Tübingen",48.5229,9.0521,7680,,,,,häɪli̞ç,,,0
11161120409,"Swabia: Tübingen",48.5229,9.0521,7700,,,,,ˈbɛ̝sɔ̈,,,0
11161120409,"Swabia: Tübingen",48.5229,9.0521,810,,,,,ʁ̞eəxt,,,0
11161120409,"Swabia: Tübingen",48.5229,9.0521,2010,head,,kwennom,,hɑ̟ɵ̠pt,,,0
11161120409,"Swabia: Tübingen",48.5229,9.0521,2110,,,,,ʔɑ̟ʊk,,,0
11161120409,"Swabia: Tübingen",48.5229,9.0521,2130,,,,,ʔɑ̟ʊɔ̈,,,0
11161120409,"Swabia: Tübingen",48.5229,9.0521,2140,teardrop,,dakro,,ˈtʁe̞ːnə,,,0
11161120409,"Swabia: Tübingen",48.5229,9.0521,2210,,,,,munˑt,,,0
11161120409,"Swabia: Tübingen",48.5229,9.0521,2230,tongue,,tangwaat,,tsuŋɡ,,,0
11161120409,"Swabia: Tübingen",48.5229,9.0521,2240,,,,,tsäː,,,0
11161120409,"Swabia: Tübingen",48.5229,9.0521,2310,,,,,hänˑt,,,0
11161120409,"Swabia: Tübingen",48.5229,9.0521,2510,,,,,fuˑəs,,,0
11161120409,"Swabia: Tübingen",48.5229,9.0521,2530,,,,,kniː,,,0
11161120409,"Swabia: Tübingen",48.5229,9.0521,2540,,,,,tsäɪə,,,0
11161120409,"Swabia: Tübingen",48.5229,9.0521,2610,,,,,bluˑɔ̈t,,,0
11161120409,"Swabia: Tübingen",48.5229,9.0521,2620,,,,,bɔ̞̃ˑẽ,,,0
11161120409,"Swabia: Tübingen",48.5229,9.0521,2640,,,,,ˈnäːɡl̩,,,0
11161120409,"Swabia: Tübingen",48.5229,9.0521,2810,,,,,hɛʁ̞ts,,,0
11161120409,"Swabia: Tübingen",48.5229,9.0521,2840,,,,,ˈle̞ːbɔ̈χ,,,0
11161120409,"Swabia: Tübingen",48.5229,9.0521,4310,,,,,ˈmʊətɔ̈,,,0
11161120409,"Swabia: Tübingen",48.5229,9.0521,4320,,,,,ˈfätɔ̈,,,0
11161120409,"Swabia: Tübingen",48.5229,9.0521,4410,,,,,ˈdɔ̝χtɔ̈,,,0
11161120409,"Swabia: Tübingen",48.5229,9.0521,4330,,,,,ˈbʁʊədɔ̈,,,0
11161120409,"Swabia: Tübingen",48.5229,9.0521,4100,name,,anuman,,ˈnäːmɛ̈,,,0
11161120409,"Swabia: Tübingen",48.5229,9.0521,4110,,,,,βɔˑt,,,0
11161120409,"Swabia: Tübingen",48.5229,9.0521,3120,,,,,hʊ̞nt,,,0
11161120409,"Swabia: Tübingen",48.5229,9.0521,3150,,,,,mɐ̠uˑs,,,0
11161120409,"Swabia: Tübingen",48.5229,9.0521,3230,,,,,ɡäːs,,,0
11161120409,"Swabia: Tübingen",48.5229,9.0521,3310,,,,,kʰuˑə,,,0
11161120409,"Swabia: Tübingen",48.5229,9.0521,3320,,,,,la̠m,,,0
11161120409,"Swabia: Tübingen",48.5229,9.0521,3340,,,,,kʰäˑlp,,,0
11161120409,"Swabia: Tübingen",48.5229,9.0521,3240,,,,,fiʃ,,,0
11161120409,"Swabia: Tübingen",48.5229,9.0521,3820,,,,,hɒnˑ,,,0
11161120409,"Swabia: Tübingen",48.5229,9.0521,3900,,,,,ˈwʊ̞lɛ̝̈,,,0
11161120409,"Swabia: Tübingen",48.5229,9.0521,5120,,,,,mõ̞ː,,,0
11161120409,"Swabia: Tübingen",48.5229,9.0521,5260,,,,,nɔˑt,,,0
11161120409,"Swabia: Tübingen",48.5229,9.0521,5510,,,,,ʃtɔ̞ˑẽ,,,0
11161120409,"Swabia: Tübingen",48.5229,9.0521,5430,,,,,ˈʔäʃɛ̝̈,,,0
11161120409,"Swabia: Tübingen",48.5229,9.0521,5520,soil,,kwriiyets,,ˈʔɛʁ̞dɛ̝̈,,,0
11161120409,"Swabia: Tübingen",48.5229,9.0521,6260,,,,,lɑ̈ˑʊp,,,0
11161120409,"Swabia: Tübingen",48.5229,9.0521,6270,,,,,dɔ̞n,,,0
11161120409,"Swabia: Tübingen",48.5229,9.0521,6290,,,,,ˈʔɔˑɪçɛ̝̈,,,0
11161120409,"Swabia: Tübingen",48.5229,9.0521,5810,,,,,ˈʁe̞əɡə,,,0
11161120409,"Swabia: Tübingen",48.5229,9.0521,5910,,,,,ʃtʊɔ̈m,,,0
11161120409,"Swabia: Tübingen",48.5229,9.0521,5920,,,,,ˈdɔ̞nɔ̈χ,,,0
11161120409,"Swabia: Tübingen",48.5229,9.0521,5820,,,,,ʃneː,,,0
11161120409,"Swabia: Tübingen",48.5229,9.0521,5830,,,,,ʔɐ̟iˑs,,,0
11161120409,"Swabia: Tübingen",48.5229,9.0521,5850,wind,,wintos,,vɪnt,,,0
11161120409,"Swabia: Tübingen",48.5229,9.0521,6000,,,,,ˈhʊŋɔ̈,,,0
11161120409,"Swabia: Tübingen",48.5229,9.0521,6050,,,,,ˈmɪli̞ç,,,0
11161120409,"Swabia: Tübingen",48.5229,9.0521,6150,,,,,ˈho̞ːniç,,,0
11161120409,"Swabia: Tübingen",48.5229,9.0521,6040,salt,,salanos,,säˑlts,,,0
11161120409,"Swabia: Tübingen",48.5229,9.0521,6070,grain,,graanom,,kʰɔ̞nˑ,,,0
11161120409,"Swabia: Tübingen",48.5229,9.0521,6510,,,,,hɐ̠uˑs,,,0
11161120409,"Swabia: Tübingen",48.5229,9.0521,6560,,,,,hɔˑɪm,,,0
11161120409,"Swabia: Tübingen",48.5229,9.0521,6540,,,,,ˈɡäɔ̈t̪ə,,,0
11161120409,"Swabia: Tübingen",48.5229,9.0521,6550,,,,,ˈʔo̞ːfə,,,0
11161120409,"Swabia: Tübingen",48.5229,9.0521,6570,,,,,ʃtuˑəl,,,0
11161120409,"Swabia: Tübingen",48.5229,9.0521,6580,,,,,bäːt,,,0
11161120409,"Swabia: Tübingen",48.5229,9.0521,6600,,,,,dɪŋ,,,0
11161120409,"Swabia: Tübingen",48.5229,9.0521,1440,,,,,..,,,0
11161120409,"Swabia: Tübingen",48.5229,9.0521,6630,,,,,ˈnɔ̞ːdl̩,,,0
11161120409,"Swabia: Tübingen",48.5229,9.0521,6640,,,,,ʁɪŋ,,,0
11161120409,"Swabia: Tübingen",48.5229,9.0521,8000,,,,,ʔi̞ʃ,,,0
11161120409,"Swabia: Tübingen",48.5229,9.0521,8310,,,,,ʔiˑs,,,0
11161120409,"Swabia: Tübingen",48.5229,9.0521,8330,,,,,bɐ̟iˑs,,,0
11161120409,"Swabia: Tübingen",48.5229,9.0521,8320,,,,,dʁɪŋˑk,,,0
11161120409,"Swabia: Tübingen",48.5229,9.0521,8510,,,,,seˑə,,,0
11161120409,"Swabia: Tübingen",48.5229,9.0521,8520,,,,,høˑɔ̈,,,0
11161120409,"Swabia: Tübingen",48.5229,9.0521,9620,,,,,ˈʔo̞fə,,,0
11161120409,"Swabia: Tübingen",48.5229,9.0521,8120,,,,,si̞ts,,,0
11161120409,"Swabia: Tübingen",48.5229,9.0521,8720,,,,,βäʃ,,,0
11161120409,"Swabia: Tübingen",48.5229,9.0521,8940,,,,,fɛ̝x̟t,,,0
11161120409,"Swabia: Tübingen",48.5229,9.0521,8990,,,,,ʃβøʁ̞̩,,,0
11161120409,"Swabia: Tübingen",48.5229,9.0521,1010,,,,,ʔiç,,,0
11161120409,"Swabia: Tübingen",48.5229,9.0521,1210,,,,,βäːs,,,0
11161120409,"Swabia: Tübingen",48.5229,9.0521,1410,,,,,ʔi̞n,,,0
11161120409,"Swabia: Tübingen",48.5229,9.0521,1430,,,,,ʔɐ̠uˑs,,,0
11161120409,"Swabia: Tübingen",48.5229,9.0521,1460,,,,,ˈʔyːbɔ̈,,,0
11161120409,"Swabia: Tübingen",48.5229,9.0521,1470,,,,,ˈmi̞tɛ̝̈,,,0
11161120409,"Swabia: Tübingen",48.5229,9.0521,5010,,,,,tʰäːk,,,0
11161120409,"Swabia: Tübingen",48.5229,9.0521,5020,,,,,näːχt,,,0
11161120409,"Swabia: Tübingen",48.5229,9.0521,510,,,,,jɔːχ,,,0
