LanguageId,LanguageName,Latitude,Longitude,WordId,WordModernName1,WordModernName2,WordProtoName1,WordProtoName2,Phonetic,SpellingAltv1,SpellingAltv2,NotCognateWithMainWordInThisFamily2
11161180809,"Liecht.: Walser",47.12,9.53,10,one,,oyno,,ʔæˑɪ̝s,,,0
11161180809,"Liecht.: Walser",47.12,9.53,20,two,,dwaaw,,tsβæˑɪ̝,,,0
11161180809,"Liecht.: Walser",47.12,9.53,30,three,,tris,,dɾyː,,,0
11161180809,"Liecht.: Walser",47.12,9.53,40,four,,kwetwores,,fiˑəɹ̝,,,0
11161180809,"Liecht.: Walser",47.12,9.53,50,five,,kwenkwe,,fyːɸ,,,0
11161180809,"Liecht.: Walser",47.12,9.53,60,six,,swexs,,sæks,,,0
11161180809,"Liecht.: Walser",47.12,9.53,70,seven,,sextam,,ˈsiːpə,,,0
11161180809,"Liecht.: Walser",47.12,9.53,80,eight,,oxtuu,,ʔäχt,,,0
11161180809,"Liecht.: Walser",47.12,9.53,90,nine,,nowan,,nyː,,,0
11161180809,"Liecht.: Walser",47.12,9.53,100,ten,,dekam,,ˈtsahə,,,0
11161180809,"Liecht.: Walser",47.12,9.53,200,hundred,,kantom,,ˈhʊndət,,,0
11161180809,"Liecht.: Walser",47.12,9.53,7820,,,,,ˈʔa̠l,,,0
11161180809,"Liecht.: Walser",47.12,9.53,7020,,,,,β̞iːs,,,0
11161180809,"Liecht.: Walser",47.12,9.53,7030,,,,,ɹo̞ːt,,,0
11161180809,"Liecht.: Walser",47.12,9.53,7040,green,,glastos,,ɡryˑɛ̈,,,0
11161180809,"Liecht.: Walser",47.12,9.53,7210,,,,,lɪŋɡ,,,0
11161180809,"Liecht.: Walser",47.12,9.53,7410,,,,,ʃa̠ˑɹɸ,,,0
11161180809,"Liecht.: Walser",47.12,9.53,7840,full,,laanos,,ˈɸo̟lə,,,0
11161180809,"Liecht.: Walser",47.12,9.53,7510,young,,yowankos,,jʊŋɡ,,,0
11161180809,"Liecht.: Walser",47.12,9.53,7980,,,,,"nɜ̹ ̟ˑʏ",,,0
11161180809,"Liecht.: Walser",47.12,9.53,7670,,,,,ˈna̠ˑkɪ̝k,,,0
11161180809,"Liecht.: Walser",47.12,9.53,7650,,,,,kʰɛ̝k,,,0
11161180809,"Liecht.: Walser",47.12,9.53,7660,,,,,fɛ̝ʃt,,,0
11161180809,"Liecht.: Walser",47.12,9.53,7710,good,,mati,,ɡoˑət,,,0
11161180809,"Liecht.: Walser",47.12,9.53,7910,,,,,ˈβaːɾəm,,,0
11161180809,"Liecht.: Walser",47.12,9.53,7920,,,,,xa̠ːlt,,,0
11161180809,"Liecht.: Walser",47.12,9.53,7560,,,,,sɛ̝ːɹ̝̥,,,0
11161180809,"Liecht.: Walser",47.12,9.53,7680,,,,,ˈhæɪ̝lɪ̝k,,,0
11161180809,"Liecht.: Walser",47.12,9.53,7700,,,,,ˈbɛ̝səɹ,,,0
11161180809,"Liecht.: Walser",47.12,9.53,810,,,,,raχt,,,0
11161180809,"Liecht.: Walser",47.12,9.53,2010,head,,kwennom,,hɑö̞pt,,,0
11161180809,"Liecht.: Walser",47.12,9.53,2110,,,,,ʔɑʊk,,,0
11161180809,"Liecht.: Walser",47.12,9.53,2130,,,,,ʔo̞ːɹ̝̥,,,0
11161180809,"Liecht.: Walser",47.12,9.53,2140,teardrop,,dakro,,dɾa̠ːnə,,,0
11161180809,"Liecht.: Walser",47.12,9.53,2210,,,,,..,,,0
11161180809,"Liecht.: Walser",47.12,9.53,2230,tongue,,tangwaat,,ˈtsʊŋɡə,,,0
11161180809,"Liecht.: Walser",47.12,9.53,2240,,,,,tsa̠nt,,,0
11161180809,"Liecht.: Walser",47.12,9.53,2310,,,,,ha̠ˑnt,,,0
11161180809,"Liecht.: Walser",47.12,9.53,2510,,,,,ɸoˑɛ̈s,,,0
11161180809,"Liecht.: Walser",47.12,9.53,2530,,,,,tʰəˈnɜ̹ˑʏ,,,0
11161180809,"Liecht.: Walser",47.12,9.53,2540,,,,,ˈtseːbɐ,,,0
11161180809,"Liecht.: Walser",47.12,9.53,2610,,,,,bloˑɐt,,,0
11161180809,"Liecht.: Walser",47.12,9.53,2620,,,,,bæˑɪ̝,,,0
11161180809,"Liecht.: Walser",47.12,9.53,2640,,,,,ˈna̠ːɡl̩,,,0
11161180809,"Liecht.: Walser",47.12,9.53,2810,,,,,haˑɹts,,,0
11161180809,"Liecht.: Walser",47.12,9.53,2840,,,,,ˈlabəɾə,,,0
11161180809,"Liecht.: Walser",47.12,9.53,4310,,,,,ˈma̠ˑma̠,,,0
11161180809,"Liecht.: Walser",47.12,9.53,4320,,,,,ˈta̠ta̠,,,0
11161180809,"Liecht.: Walser",47.12,9.53,4410,,,,,ˈdɔxtɛ̈ɾ̥,,,0
11161180809,"Liecht.: Walser",47.12,9.53,4330,,,,,ˈbɾʊɔ̈dɛ̈ɾ̥,,,0
11161180809,"Liecht.: Walser",47.12,9.53,4100,name,,anuman,,ˈna̠ˑma̠,,,0
11161180809,"Liecht.: Walser",47.12,9.53,4110,,,,,β̞ɔ̞ːr̥t,,,0
11161180809,"Liecht.: Walser",47.12,9.53,3120,,,,,huːnt,,,0
11161180809,"Liecht.: Walser",47.12,9.53,3150,,,,,muːs,,,0
11161180809,"Liecht.: Walser",47.12,9.53,3230,,,,,ɡa̠ns,,,0
11161180809,"Liecht.: Walser",47.12,9.53,3310,,,,,xu̞ˑɛ̈,,,0
11161180809,"Liecht.: Walser",47.12,9.53,3320,,,,,..,,,0
11161180809,"Liecht.: Walser",47.12,9.53,3340,,,,,xa̠ˑlp,,,0
11161180809,"Liecht.: Walser",47.12,9.53,3240,,,,,fi̞ʃ,,,0
11161180809,"Liecht.: Walser",47.12,9.53,3820,,,,,ˈhoːɾə,,,0
11161180809,"Liecht.: Walser",47.12,9.53,3900,,,,,β̞olə,,,0
11161180809,"Liecht.: Walser",47.12,9.53,5120,,,,,ˈma̠ːna̠,,,0
11161180809,"Liecht.: Walser",47.12,9.53,5260,,,,,ˈnɔ̞ɾdə,,,0
11161180809,"Liecht.: Walser",47.12,9.53,5510,,,,,ʃtæˑɪ̝,,,0
11161180809,"Liecht.: Walser",47.12,9.53,5430,,,,,ˈʔæʃə,,,0
11161180809,"Liecht.: Walser",47.12,9.53,5520,soil,,kwriiyets,,ˈʔa̠rdə,,,0
11161180809,"Liecht.: Walser",47.12,9.53,6260,,,,,läˑʊp,,,0
11161180809,"Liecht.: Walser",47.12,9.53,6270,,,,,ˈdoːɾə,,,0
11161180809,"Liecht.: Walser",47.12,9.53,6290,,,,,ˈʔæɪ̝x̟ə,,,0
11161180809,"Liecht.: Walser",47.12,9.53,5810,,,,,ˈra̠ɡə,,,0
11161180809,"Liecht.: Walser",47.12,9.53,5910,,,,,ˈʃtu̞ɾəm,,,0
11161180809,"Liecht.: Walser",47.12,9.53,5920,,,,,ˈdɔ̝nɛ̈ɾ̥,,,0
11161180809,"Liecht.: Walser",47.12,9.53,5820,,,,,ʃneː,,,0
11161180809,"Liecht.: Walser",47.12,9.53,5830,,,,,ʔiːʃ,,,0
11161180809,"Liecht.: Walser",47.12,9.53,5850,wind,,wintos,,..,,,0
11161180809,"Liecht.: Walser",47.12,9.53,6000,,,,,ˈhʊŋɡəɾ̥,,,0
11161180809,"Liecht.: Walser",47.12,9.53,6050,,,,,mi̞lx̟,,,0
11161180809,"Liecht.: Walser",47.12,9.53,6150,,,,,ˈho̞ːnɪɡ,,,0
11161180809,"Liecht.: Walser",47.12,9.53,6040,salt,,salanos,,sa̠ːlts,,,0
11161180809,"Liecht.: Walser",47.12,9.53,6070,grain,,graanom,,ˈkʰo̞ːɾə,,,0
11161180809,"Liecht.: Walser",47.12,9.53,6510,,,,,huːs,,,0
11161180809,"Liecht.: Walser",47.12,9.53,6560,,,,,ˈhæɪ̝mət,,,0
11161180809,"Liecht.: Walser",47.12,9.53,6540,,,,,ˈɡa̠ːɹ̝tə,,,0
11161180809,"Liecht.: Walser",47.12,9.53,6550,,,,,ˈʔoːɸə,,,0
11161180809,"Liecht.: Walser",47.12,9.53,6570,,,,,ʃtuˑəl,,,0
11161180809,"Liecht.: Walser",47.12,9.53,6580,,,,,ba̠ːt,,,0
11161180809,"Liecht.: Walser",47.12,9.53,6600,,,,,dɪ̝ŋɡ,,,0
11161180809,"Liecht.: Walser",47.12,9.53,1440,,,,,..,,,0
11161180809,"Liecht.: Walser",47.12,9.53,6630,,,,,ˈna̠ːdlə,,,0
11161180809,"Liecht.: Walser",47.12,9.53,6640,,,,,rɪŋɡ,,,0
11161180809,"Liecht.: Walser",47.12,9.53,8000,,,,,ʔiʃt,,,0
11161180809,"Liecht.: Walser",47.12,9.53,8310,,,,,ˈʔa̠s,,,0
11161180809,"Liecht.: Walser",47.12,9.53,8330,,,,,ˈbiːs,,,0
11161180809,"Liecht.: Walser",47.12,9.53,8320,,,,,ˈdrɪŋk,,,0
11161180809,"Liecht.: Walser",47.12,9.53,8510,,,,,..,,,0
11161180809,"Liecht.: Walser",47.12,9.53,8520,,,,,ˈhøːɾ,,,0
11161180809,"Liecht.: Walser",47.12,9.53,9620,,,,,ˈʔo̞ɸə,,,0
11161180809,"Liecht.: Walser",47.12,9.53,8120,,,,,..,,,0
11161180809,"Liecht.: Walser",47.12,9.53,8720,,,,,ˈβa̠ʃ,,,0
11161180809,"Liecht.: Walser",47.12,9.53,8940,,,,,..,,,0
11161180809,"Liecht.: Walser",47.12,9.53,8990,,,,,ˈʃβøːɾɐ,,,0
11161180809,"Liecht.: Walser",47.12,9.53,1010,,,,,ʔiː,,,0
11161180809,"Liecht.: Walser",47.12,9.53,1210,,,,,β̞äˑs,,,0
11161180809,"Liecht.: Walser",47.12,9.53,1410,,,,,iˑ,,,0
11161180809,"Liecht.: Walser",47.12,9.53,1430,,,,,ʔuˑs,,,0
11161180809,"Liecht.: Walser",47.12,9.53,1460,,,,,ˈʔobər̥,,,0
11161180809,"Liecht.: Walser",47.12,9.53,1470,,,,,ˈmi̞tɛ̈,,,0
11161180809,"Liecht.: Walser",47.12,9.53,5010,,,,,da̠ːk,,,0
11161180809,"Liecht.: Walser",47.12,9.53,5020,,,,,na̠χt,,,0
11161180809,"Liecht.: Walser",47.12,9.53,510,,,,,ja̠ːr̥,,,0
