LanguageId,LanguageName,Latitude,Longitude,WordId,WordModernName1,WordModernName2,WordProtoName1,WordProtoName2,Phonetic,SpellingAltv1,SpellingAltv2,NotCognateWithMainWordInThisFamily2
11111110102,RP,51.75195,-1.25778,10,one,,ainaz,,wɐ̠n,,,0
11111110102,RP,51.75195,-1.25778,20,two,,twou,,tʰʊuˑ,,,0
11111110102,RP,51.75195,-1.25778,30,three,,threjez,,θɹɪiˑ,,,0
11111110102,RP,51.75195,-1.25778,40,four,,fedworez,,fɔː,,,0
11111110102,RP,51.75195,-1.25778,50,five,,fenfe,,fäˑɪv,,,0
11111110102,RP,51.75195,-1.25778,60,six,,sexs,,sɪks,,,0
11111110102,RP,51.75195,-1.25778,70,seven,,sebun,,ˈsɛvə̆n,,,0
11111110102,RP,51.75195,-1.25778,80,eight,,axtou,,e̞ɪtʰ,,,0
11111110102,RP,51.75195,-1.25778,90,nine,,newun,,näˑɪn,,,0
11111110102,RP,51.75195,-1.25778,100,ten,,texun,,tʰɛn,,,0
11111110102,RP,51.75195,-1.25778,200,hundred,,xundaradan,,ˈhɐ̠ndɹəd,,,0
11111110102,RP,51.75195,-1.25778,7820,all,,allaz,,ɔːɫ,,,0
11111110102,RP,51.75195,-1.25778,7020,white,,xwitaz,,wäɪtʰ,,,0
11111110102,RP,51.75195,-1.25778,7030,red,,raudaz,,ɹɛd,,,0
11111110102,RP,51.75195,-1.25778,7040,green,,groniz,,ɡɹɪiˑn,,,0
11111110102,RP,51.75195,-1.25778,7210,long,,langaz,,lɔ̞ŋ,,,0
11111110102,RP,51.75195,-1.25778,7410,sharp,,skarpaz,,ʃɑːp,,,0
11111110102,RP,51.75195,-1.25778,7840,full,,fullaz,,fʊɫ,,,0
11111110102,RP,51.75195,-1.25778,7510,young,,jungaz,,jɐ̠ŋ,,,0
11111110102,RP,51.75195,-1.25778,7980,new,,neujaz,,njʊuˑ,,,0
11111110102,RP,51.75195,-1.25778,7670,naked,,nakwadaz,,ˈne̞ɪkɪd,,,0
11111110102,RP,51.75195,-1.25778,7650,quick,,kwikwaz,,kʰwɪkʰ,,,0
11111110102,RP,51.75195,-1.25778,7660,fast,,fastaz,,fɑːst,,,0
11111110102,RP,51.75195,-1.25778,7710,good,,godaz,,ɡʊd,,,0
11111110102,RP,51.75195,-1.25778,7910,warm,,warmaz,,wɔːm,,,0
11111110102,RP,51.75195,-1.25778,7920,cold,,kaldaz,,kʰəˑʊˑɫd,,,0
11111110102,RP,51.75195,-1.25778,7560,sore,,sairaz,,sɔː,,,0
11111110102,RP,51.75195,-1.25778,7680,holy,,xailagaz,,ˈhəʊlɪ,,,0
11111110102,RP,51.75195,-1.25778,7700,better,,batizon,,ˈbɛtə,,,0
11111110102,RP,51.75195,-1.25778,810,right,,rextaz,,ɹäɪtʰ,,,0
11111110102,RP,51.75195,-1.25778,2010,head,,xaubadan,,hɛd,,,0
11111110102,RP,51.75195,-1.25778,2110,eye,,augon,,äˑɪ,,,0
11111110102,RP,51.75195,-1.25778,2130,ear,,auzon,,ɪ̞ˑə,,,0
11111110102,RP,51.75195,-1.25778,2140,tear,,taxruz,,tʰɪ̞ˑə,,,0
11111110102,RP,51.75195,-1.25778,2210,mouth,,munthaz,,maʊθ,,,0
11111110102,RP,51.75195,-1.25778,2230,tongue,,tungon,,tʰɐ̠ŋ,,,0
11111110102,RP,51.75195,-1.25778,2240,tooth,,tanthz,,tʰuˑθ,,,0
11111110102,RP,51.75195,-1.25778,2310,hand,,xanduz,,hæˑnd,,,0
11111110102,RP,51.75195,-1.25778,2510,foot,,fotz,,fʊtʰ,,,0
11111110102,RP,51.75195,-1.25778,2530,knee,,knewan,,nɪiˑ,,,0
11111110102,RP,51.75195,-1.25778,2540,toe,,taixwon,,tʰəˑʊˑ,,,0
11111110102,RP,51.75195,-1.25778,2610,blood,,blodan,,blɐ̠d,,,0
11111110102,RP,51.75195,-1.25778,2620,bone,,bainan,,bəˑʊˑn,,,0
11111110102,RP,51.75195,-1.25778,2640,nail,,naglaz,,ne̞ˑɪɫ,,,0
11111110102,RP,51.75195,-1.25778,2810,heart,,xerton,,hɑːtʰ,,,0
11111110102,RP,51.75195,-1.25778,2840,liver,,libaro,,ˈlɪvə,,,0
11111110102,RP,51.75195,-1.25778,4310,mother,,moder,,ˈmɐ̠ð̞ə,,,0
11111110102,RP,51.75195,-1.25778,4320,father,,fader,,ˈfɑːð̞ə,,,0
11111110102,RP,51.75195,-1.25778,4410,daughter,,duxter,,ˈdɔˑtə,,,0
11111110102,RP,51.75195,-1.25778,4330,brother,,brother,,ˈbɹɐ̠ð̞ə,,,0
11111110102,RP,51.75195,-1.25778,4100,name,,namon,,ne̞ˑɪm,,,0
11111110102,RP,51.75195,-1.25778,4110,word,,wurdan,,wɜːd,,,0
11111110102,RP,51.75195,-1.25778,3120,hound,,xundaz,,haˑʊnd,,,0
11111110102,RP,51.75195,-1.25778,3150,mouse,,musz,,maʊs,,,0
11111110102,RP,51.75195,-1.25778,3230,goose,,gansz,,ɡuˑs,,,0
11111110102,RP,51.75195,-1.25778,3310,cow,,kowz,,kʰaˑʊ,,,0
11111110102,RP,51.75195,-1.25778,3320,lamb,,lambaz,,læˑm,,,0
11111110102,RP,51.75195,-1.25778,3340,calf,,kalbaz,,kʰɑːf,,,0
11111110102,RP,51.75195,-1.25778,3240,fish,,fiskaz,,fɪʃ,,,0
11111110102,RP,51.75195,-1.25778,3820,horn,,xurnan,,hɔːn,,,0
11111110102,RP,51.75195,-1.25778,3900,wool,,wullo,,wʊɫ,,,0
11111110102,RP,51.75195,-1.25778,5120,moon,,menon,,mʊuˑn,,,0
11111110102,RP,51.75195,-1.25778,5260,north,,nurthaz,,nɔːθ,,,0
11111110102,RP,51.75195,-1.25778,5510,stone,,stainaz,,stəˑʊˑn,,,0
11111110102,RP,51.75195,-1.25778,5430,ash,,askon,,æʃ,,,0
11111110102,RP,51.75195,-1.25778,5520,earth,,ertho,,ɜːθ,,,0
11111110102,RP,51.75195,-1.25778,6260,leaf,,lauban,,liˑf,,,0
11111110102,RP,51.75195,-1.25778,6270,thorn,,thurnuz,,θɔːn,,,0
11111110102,RP,51.75195,-1.25778,6290,oak,,aikz,,əʊkʰ,,,0
11111110102,RP,51.75195,-1.25778,5810,rain,,regnan,,ɹe̞ˑɪn,,,0
11111110102,RP,51.75195,-1.25778,5910,storm,,sturmaz,,stɔːm,,,0
11111110102,RP,51.75195,-1.25778,5920,thunder,,thunraz,,ˈθɐ̠ndə,,,0
11111110102,RP,51.75195,-1.25778,5820,snow,,snaigwaz,,snəˑʊˑ,,,0
11111110102,RP,51.75195,-1.25778,5830,ice,,isaz,,äɪs,,,0
11111110102,RP,51.75195,-1.25778,5850,wind,,wendaz,,wɪnd,,,0
11111110102,RP,51.75195,-1.25778,6000,hunger,,xungruz,,ˈhɐ̠ŋɡə,,,0
11111110102,RP,51.75195,-1.25778,6050,milk,,melkaz,,mɪɫk,,,0
11111110102,RP,51.75195,-1.25778,6150,honey,,hunagan,,ˈhɐ̠nɪ,,,0
11111110102,RP,51.75195,-1.25778,6040,salt,,saltan,,sɔˑɫtʰ,,,0
11111110102,RP,51.75195,-1.25778,6070,corn,,kurnan,,kʰɔːn,,,0
11111110102,RP,51.75195,-1.25778,6510,house,,xusan,,haʊs,,,0
11111110102,RP,51.75195,-1.25778,6560,home,,xaimaz,,həˑʊˑm,,,0
11111110102,RP,51.75195,-1.25778,6540,yard,,gardaz,,jɑːd,,,0
11111110102,RP,51.75195,-1.25778,6550,oven,,ufnaz,,ˈɐ̠və̆n,,,0
11111110102,RP,51.75195,-1.25778,6570,stool,,stolaz,,stʊuˑɫ,,,0
11111110102,RP,51.75195,-1.25778,6580,bath,,bathan,,bɑːθ,,,0
11111110102,RP,51.75195,-1.25778,6600,thing,,thengaz,,θɪŋ,,,0
11111110102,RP,51.75195,-1.25778,1440,top,,tuppaz,,tʰɔ̞p,,,0
11111110102,RP,51.75195,-1.25778,6630,needle,,nethlo,,ˈniˑdɫ̩,,,0
11111110102,RP,51.75195,-1.25778,6640,ring,,xrengaz,,ɹɪŋ,,,0
11111110102,RP,51.75195,-1.25778,8000,is,,esti,,ɪz,,,0
11111110102,RP,51.75195,-1.25778,8310,eat,,etanan,,iˑtʰ,,,0
11111110102,RP,51.75195,-1.25778,8330,bite,,bitanan,,bäɪtʰ,,,0
11111110102,RP,51.75195,-1.25778,8320,drink,,drenkanan,,dɹɪŋkʰ,,,0
11111110102,RP,51.75195,-1.25778,8510,see,,sexwanan,,sɪiˑ,,,0
11111110102,RP,51.75195,-1.25778,8520,hear,,xauzjanan,,hɪ̞ˑə,,,0
11111110102,RP,51.75195,-1.25778,9620,open,,upanaz,,ˈəʊpə̆n,,,0
11111110102,RP,51.75195,-1.25778,8120,sit,,setjanan,,sɪtʰ,,,0
11111110102,RP,51.75195,-1.25778,8720,wash,,waskanan,,wɔ̞ʃ,,,0
11111110102,RP,51.75195,-1.25778,8940,fight,,fextanan,,fäɪtʰ,,,0
11111110102,RP,51.75195,-1.25778,8990,swear,,swarjanan,,swɛ̝ˑə,,,0
11111110102,RP,51.75195,-1.25778,1010,I,,eka,,äˑɪ,,,0
11111110102,RP,51.75195,-1.25778,1210,what,,xwat,,wɔ̞tʰ,,,0
11111110102,RP,51.75195,-1.25778,1410,in,,eni,,ɪn,,,0
11111110102,RP,51.75195,-1.25778,1430,out,,ut,,aʊtʰ,,,0
11111110102,RP,51.75195,-1.25778,1460,over,,uberi,,əʊvə,,,0
11111110102,RP,51.75195,-1.25778,1470,mid,,medjaz,,mɪd,,,0
11111110102,RP,51.75195,-1.25778,5010,day,,dagaz,,de̞ˑɪ,,,0
11111110102,RP,51.75195,-1.25778,5020,night,,naxtz,,näɪtʰ,,,0
11111110102,RP,51.75195,-1.25778,510,year,,jeran,,jɪ̞ˑə,,,0
