LanguageId,LanguageName,Latitude,Longitude,WordId,WordModernName1,WordModernName2,WordProtoName1,WordProtoName2,Phonetic,SpellingAltv1,SpellingAltv2,NotCognateWithMainWordInThisFamily2
11221000008,Faroese,62.0009,-6.79504,10,one,,oyno,,äiˑn,ein,,0
11221000008,Faroese,62.0009,-6.79504,20,two,,dwaaw,,tʰvɛ̝iˑ,tvey,,0
11221000008,Faroese,62.0009,-6.79504,30,three,,tris,,tʰɹʊiˑ,trý,,0
11221000008,Faroese,62.0009,-6.79504,40,four,,kwetwores,,ˈfʊ̆iɹ̝ä,fýra,,0
11221000008,Faroese,62.0009,-6.79504,50,five,,kwenkwe,,fɪmˑ,fimm,,0
11221000008,Faroese,62.0009,-6.79504,60,six,,swexs,,sɛ̝ks,seks,,0
11221000008,Faroese,62.0009,-6.79504,70,seven,,sextam,,sjɛ̝iˑ,sjey,,0
11221000008,Faroese,62.0009,-6.79504,80,eight,,oxtuu,,ˈɔʰttä,átta,,0
11221000008,Faroese,62.0009,-6.79504,90,nine,,nowan,,ˈnʊttʃʊ,níggju,,0
11221000008,Faroese,62.0009,-6.79504,100,ten,,dekam,,ˈtʰʊttʃʊ̞,tíggju,,0
11221000008,Faroese,62.0009,-6.79504,200,hundred,,kantom,,ˈhʊnˑtɹä,hundrað,,0
11221000008,Faroese,62.0009,-6.79504,7820,,,,,ätl̩ʌ̈ɹ̝,all·ur,,0
11221000008,Faroese,62.0009,-6.79504,7020,,,,,kʰv̥ʊitʌ̈ɹ̝,hvít·ur,,0
11221000008,Faroese,62.0009,-6.79504,7030,,,,,ɹ̝ɛ̝jjʌ̈ɹ̝,reyð·ur,,0
11221000008,Faroese,62.0009,-6.79504,7040,green,,glastos,,ɡɾø̞̈ːnʌ̈ɹ̝,grøn·ur,,0
11221000008,Faroese,62.0009,-6.79504,7210,,,,,ˈlɛ̝ŋkʌ̈ɹ̝,lang·ur,,0
11221000008,Faroese,62.0009,-6.79504,7410,,,,,skäɹ̝̥pʌ̈ɹ̝,skarp·ur,,0
11221000008,Faroese,62.0009,-6.79504,7840,full,,laanos,,ˈfʊtl̩ʌ̈ɹ̝,full·ur,,0
11221000008,Faroese,62.0009,-6.79504,7510,young,,yowankos,,ʊŋkʌ̈ɹ̝,ung·ur,,0
11221000008,Faroese,62.0009,-6.79504,7980,,,,,ˈnʊttʃʌ̈ɹ̝,nýggj·ur,,0
11221000008,Faroese,62.0009,-6.79504,7670,,,,,ˈnɛ̝̆ätʃɪn,nakin,,0
11221000008,Faroese,62.0009,-6.79504,7650,,,,,ˈkʰv̥iːk,kvik·ur,,0
11221000008,Faroese,62.0009,-6.79504,7660,,,,,fässtʌ̈ɹ̝,fast·ur,,0
11221000008,Faroese,62.0009,-6.79504,7710,good,,mati,,ɡɔwwʌ̈ɹ̝,góð·ur,,0
11221000008,Faroese,62.0009,-6.79504,7910,,,,,väɹmʌ̈ɹ̝,varm·ur,,0
11221000008,Faroese,62.0009,-6.79504,7920,,,,,ˈkʰa̠ltʌ̈ɹ̝,kald·ur,,0
11221000008,Faroese,62.0009,-6.79504,7560,,,,,sɑ̈ɹ̝ʌ̈ɹ̝,sár·ur,,0
11221000008,Faroese,62.0009,-6.79504,7680,,,,,ˈhæiˑlävʌ̈ɹ̝,heilag·ur,,0
11221000008,Faroese,62.0009,-6.79504,7700,,,,,ˈbeəʰtɹ̝̥ə,betri,,0
11221000008,Faroese,62.0009,-6.79504,810,,,,,ɹäʰttʌ̈ɹ̝,rætt·ur,,0
11221000008,Faroese,62.0009,-6.79504,2010,head,,kwennom,,hœ̈t,høvd,,0
11221000008,Faroese,62.0009,-6.79504,2110,,,,,ˈɛ̝jjä,eyga,,0
11221000008,Faroese,62.0009,-6.79504,2130,,,,,ˈɔɪ̝ˑɹ̝ä,oyra,,0
11221000008,Faroese,62.0009,-6.79504,2140,teardrop,,dakro,,tʰɔ̆äɹ̝ä,tára,,0
11221000008,Faroese,62.0009,-6.79504,2210,,,,,mʊnˑ,munn,,0
11221000008,Faroese,62.0009,-6.79504,2230,tongue,,tangwaat,,ˈtʰʊŋˑkä,tunga,,0
11221000008,Faroese,62.0009,-6.79504,2240,,,,,tʰɔnˑ,tonn,,0
11221000008,Faroese,62.0009,-6.79504,2310,,,,,hɔnt,hond,,0
11221000008,Faroese,62.0009,-6.79504,2510,,,,,fɒuˑt,fót,,0
11221000008,Faroese,62.0009,-6.79504,2530,,,,,kʰnɛ̝aˑ,knæ,,0
11221000008,Faroese,62.0009,-6.79504,2540,,,,,tʰɔäˑ,tá,,0
11221000008,Faroese,62.0009,-6.79504,2610,,,,,blɒuˑ,blóð,,0
11221000008,Faroese,62.0009,-6.79504,2620,,,,,bäiˑn,bein,,0
11221000008,Faroese,62.0009,-6.79504,2640,,,,,ˈnäɡl̩,nagl,,0
11221000008,Faroese,62.0009,-6.79504,2810,,,,,ˈjäɹ̝ɹ̝tä,hjarta,,0
11221000008,Faroese,62.0009,-6.79504,2840,,,,,ˈliːvʌ̈ɹ̝,livur,,0
11221000008,Faroese,62.0009,-6.79504,4310,,,,,ˈmɒʊwwəɹ̝,móðir,,0
11221000008,Faroese,62.0009,-6.79504,4320,,,,,ˈfɛ̝æjəɹ̝,faðir,,0
11221000008,Faroese,62.0009,-6.79504,4410,,,,,ˈdɔ̞ʰttəɹ̝,dóttir,,0
11221000008,Faroese,62.0009,-6.79504,4330,,,,,ˈbɾɒuˑəɹ̝,bróðir,,0
11221000008,Faroese,62.0009,-6.79504,4100,name,,anuman,,ˈnäwən,navn,,0
11221000008,Faroese,62.0009,-6.79504,4110,,,,,o̞ːɹ̝,orð,,0
11221000008,Faroese,62.0009,-6.79504,3120,,,,,hʊnt,hund,,0
11221000008,Faroese,62.0009,-6.79504,3150,,,,,mø̈uˑs,mús,,0
11221000008,Faroese,62.0009,-6.79504,3230,,,,,ɡʊ̆äˑs,gás,,0
11221000008,Faroese,62.0009,-6.79504,3310,,,,,kʰekf,kúgv,,0
11221000008,Faroese,62.0009,-6.79504,3320,,,,,lämˑp,lamb,,0
11221000008,Faroese,62.0009,-6.79504,3340,,,,,ˈkʰɔləv,kálv,,0
11221000008,Faroese,62.0009,-6.79504,3240,,,,,fɪssk,fisk,,0
11221000008,Faroese,62.0009,-6.79504,3820,,,,,ˈhɔ̞tn̩,horn,,0
11221000008,Faroese,62.0009,-6.79504,3900,,,,,ʊtl̩,ull,,0
11221000008,Faroese,62.0009,-6.79504,5120,,,,,ˈmɑ̈ːnə,máni,,0
11221000008,Faroese,62.0009,-6.79504,5260,,,,,nɔːɹ̝,norð,,0
11221000008,Faroese,62.0009,-6.79504,5510,,,,,stäiˑn,stein,,0
11221000008,Faroese,62.0009,-6.79504,5430,,,,,ˈœ̈skä,øska,,0
11221000008,Faroese,62.0009,-6.79504,5520,soil,,kwriiyets,,jø̞̈ːɹ̝,jørð,,0
11221000008,Faroese,62.0009,-6.79504,6260,,,,,lɛ̝iˑv,leyv,,0
11221000008,Faroese,62.0009,-6.79504,6270,,,,,tʰɔɹnʌ̈ɹ̝,torn·ur,,0
11221000008,Faroese,62.0009,-6.79504,6290,,,,,äiˑk,eik,,0
11221000008,Faroese,62.0009,-6.79504,5810,,,,,ˈɾɛ̝kn̩,regn,,0
11221000008,Faroese,62.0009,-6.79504,5910,,,,,stɔɹm,storm,,0
11221000008,Faroese,62.0009,-6.79504,5920,,,,,tʰoːɹ̝ä,tora,,0
11221000008,Faroese,62.0009,-6.79504,5820,,,,,snjɛ̝kf,snjógv,,0
11221000008,Faroese,62.0009,-6.79504,5830,,,,,ʊiˑs,ís,,0
11221000008,Faroese,62.0009,-6.79504,5850,wind,,wintos,,vɪnˑt,vind,,0
11221000008,Faroese,62.0009,-6.79504,6000,,,,,ˈhʊnˑkəɹ̝,hungur,,0
11221000008,Faroese,62.0009,-6.79504,6050,,,,,mĭɔɬk,mjólk,,0
11221000008,Faroese,62.0009,-6.79504,6150,,,,,ˈhʊnäŋk,hunang,,0
11221000008,Faroese,62.0009,-6.79504,6040,salt,,salanos,,säɬɬt,salt,,0
11221000008,Faroese,62.0009,-6.79504,6070,grain,,graanom,,ˈkʰɔdn̩,korn,,0
11221000008,Faroese,62.0009,-6.79504,6510,,,,,hø̈uˑs,hús,,0
11221000008,Faroese,62.0009,-6.79504,6560,,,,,häˑɪ̝ˑm,heim,,0
11221000008,Faroese,62.0009,-6.79504,6540,,,,,ɡɛ̝äˑɹ̝,garð,,0
11221000008,Faroese,62.0009,-6.79504,6550,,,,,ˈɔwn̩ʌ̈ɹ̝,ovn·ur,,0
11221000008,Faroese,62.0009,-6.79504,6570,,,,,stɔuˑl̥,stól,,0
11221000008,Faroese,62.0009,-6.79504,6580,,,,,bea̠ˑ,bað,,0
11221000008,Faroese,62.0009,-6.79504,6600,,,,,tʰɪŋˑk,ting,,0
11221000008,Faroese,62.0009,-6.79504,1440,,,,,tʰɔʰpˑ,topp,,0
11221000008,Faroese,62.0009,-6.79504,6630,,,,,nɔˑäˑl,nál,,0
11221000008,Faroese,62.0009,-6.79504,6640,,,,,ɹɪŋk,ring,,0
11221000008,Faroese,62.0009,-6.79504,8000,,,,,e̝ˑəɹ̝,er,,0
11221000008,Faroese,62.0009,-6.79504,8310,,,,,i̞ɪt,et!,,0
11221000008,Faroese,62.0009,-6.79504,8330,,,,,bʊiˑt,bít!,,0
11221000008,Faroese,62.0009,-6.79504,8320,,,,,dɾɛ̝ʰk̟k̟,drekk!,,0
11221000008,Faroese,62.0009,-6.79504,8510,,,,,sʊtʃ,síggj!,,0
11221000008,Faroese,62.0009,-6.79504,8520,,,,,hɔɪɹ̝,hoyr!,,0
11221000008,Faroese,62.0009,-6.79504,9620,,,,,ˈoəpɪn,opin,,0
11221000008,Faroese,62.0009,-6.79504,8120,,,,,siːt,sit!,,0
11221000008,Faroese,62.0009,-6.79504,8720,,,,,ˈväsˑkä,vaska!,,0
11221000008,Faroese,62.0009,-6.79504,8940,,,,,ˈfɪkʰtä,fikta!,,0
11221000008,Faroese,62.0009,-6.79504,8990,,,,,ˈsvœɹiˑ,svørj!,,0
11221000008,Faroese,62.0009,-6.79504,1010,,,,,e̝ˑə,eg,,0
11221000008,Faroese,62.0009,-6.79504,1210,,,,,kʰv̥ɛ̝at,hvat?,,0
11221000008,Faroese,62.0009,-6.79504,1410,,,,,ʊiˑ,í,,0
11221000008,Faroese,62.0009,-6.79504,1430,,,,,ʏuˑt,út,,0
11221000008,Faroese,62.0009,-6.79504,1460,,,,,ˈiːvəɹ̝,yvir,,0
11221000008,Faroese,62.0009,-6.79504,1470,,,,,mɪʰtt,mitt,,0
11221000008,Faroese,62.0009,-6.79504,5010,,,,,dɛ̝a,dag,,0
11221000008,Faroese,62.0009,-6.79504,5020,,,,,nɔʰt,nátt,,0
11221000008,Faroese,62.0009,-6.79504,510,,,,,ɔäˑɹ̝,ár,,0
