LanguageId,LanguageName,Latitude,Longitude,WordId,WordModernName1,WordModernName2,WordProtoName1,WordProtoName2,Phonetic,SpellingAltv1,SpellingAltv2,NotCognateWithMainWordInThisFamily
11111120201,Lindisfarne,55.677,-1.795,10,one,,ainaz,,jɛːn,,,0
11111120201,Lindisfarne,55.677,-1.795,20,two,,twou,,tɔ̈ʊˑ,,,0
11111120201,Lindisfarne,55.677,-1.795,30,three,,threjez,,θχɛ̈iˑ,,,0
11111120201,Lindisfarne,55.677,-1.795,40,four,,fedworez,,ˈfɔ̈ŭɐ,,,0
11111120201,Lindisfarne,55.677,-1.795,50,five,,fenfe,,fɒˑɪv,,,0
11111120201,Lindisfarne,55.677,-1.795,60,six,,sexs,,sɪ̠ks,,,0
11111120201,Lindisfarne,55.677,-1.795,70,seven,,sebun,,ˈsivɪ̠n,,,0
11111120201,Lindisfarne,55.677,-1.795,80,eight,,axtou,,ɛ̝it,,,0
11111120201,Lindisfarne,55.677,-1.795,90,nine,,newun,,nɛ̈ĭɪ̠n,,,0
11111120201,Lindisfarne,55.677,-1.795,100,ten,,texun,,tɛːn,,,0
11111120201,Lindisfarne,55.677,-1.795,200,hundred,,xundaradan,,ˈhɔ̈ndɐ,,,0
11111120201,Lindisfarne,55.677,-1.795,7820,all,,allaz,,ɒː,,,0
11111120201,Lindisfarne,55.677,-1.795,7020,white,,xwitaz,,ʍɛ̈it,,,0
11111120201,Lindisfarne,55.677,-1.795,7030,red,,raudaz,,ʁid,,,0
11111120201,Lindisfarne,55.677,-1.795,7040,green,,groniz,,ɡʁin,,,0
11111120201,Lindisfarne,55.677,-1.795,7210,long,,langaz,,lɒːŋ,,,0
11111120201,Lindisfarne,55.677,-1.795,7410,sharp,,skarpaz,,ʃɑ̟ːʁ̞p,,,0
11111120201,Lindisfarne,55.677,-1.795,7840,full,,fullaz,,fɔ̈l,,,0
11111120201,Lindisfarne,55.677,-1.795,7510,young,,jungaz,,jɔ̈ŋ,,,0
11111120201,Lindisfarne,55.677,-1.795,7980,new,,neujaz,,nju̞ː,,,0
11111120201,Lindisfarne,55.677,-1.795,7670,naked,,nakwadaz,,ˈnjɛkɪ̠d,,,0
11111120201,Lindisfarne,55.677,-1.795,7660,fast,,fastaz,,fɛːst,,,0
11111120201,Lindisfarne,55.677,-1.795,7710,good,,godaz,,ɡɔ̈d,,,0
11111120201,Lindisfarne,55.677,-1.795,7910,warm,,warmaz,,ˈwɒˑʁ̞ɪ̠m,,,0
11111120201,Lindisfarne,55.677,-1.795,7920,cold,,kaldaz,,kɒːd,,,0
11111120201,Lindisfarne,55.677,-1.795,7560,sore,,sairaz,,seˑɐʁ̥̊,,,0
11111120201,Lindisfarne,55.677,-1.795,7680,holy,,xailagaz,,ˈho̞lɛɪ,,,0
11111120201,Lindisfarne,55.677,-1.795,7700,better,,batizon,,ˈbɛtɐ,,,0
11111120201,Lindisfarne,55.677,-1.795,810,right,,rextaz,,ʁɛ̈it,,,0
11111120201,Lindisfarne,55.677,-1.795,2010,head,,xaubadan,,hid,,,0
11111120201,Lindisfarne,55.677,-1.795,2110,eye,,augon,,ɒˑɪ,,,0
11111120201,Lindisfarne,55.677,-1.795,2130,ear,,auzon,,iˑɐ,,,0
11111120201,Lindisfarne,55.677,-1.795,2130,ear,,auzon,,iˑɐʁ̞,,,0
11111120201,Lindisfarne,55.677,-1.795,2210,mouth,,munthaz,,mu̞θ,,,0
11111120201,Lindisfarne,55.677,-1.795,2230,tongue,,tungon,,tɔ̈ŋ,,,0
11111120201,Lindisfarne,55.677,-1.795,2240,tooth,,tanthz,,tu̞θ,,,0
11111120201,Lindisfarne,55.677,-1.795,2310,hand,,xanduz,,hɒːnd,,,0
11111120201,Lindisfarne,55.677,-1.795,2510,foot,,fotz,,fɔ̈t,,,0
11111120201,Lindisfarne,55.677,-1.795,2530,knee,,knewan,,nɛ̈iˑ,,,0
11111120201,Lindisfarne,55.677,-1.795,2540,toe,,taixwon,,to̞ː,,,0
11111120201,Lindisfarne,55.677,-1.795,2610,blood,,blodan,,blɔ̈d,,,0
11111120201,Lindisfarne,55.677,-1.795,2620,bone,,bainan,,bo̞ːn,,,0
11111120201,Lindisfarne,55.677,-1.795,2640,nail,,naglaz,,ne̞ːl,,,0
11111120201,Lindisfarne,55.677,-1.795,2810,heart,,xerton,,hɑ̟ːʁ̞t,,,0
11111120201,Lindisfarne,55.677,-1.795,2840,liver,,libaro,,ˈlɪ̠vɐ,,,0
11111120201,Lindisfarne,55.677,-1.795,4310,mother,,moder,,ˈmɔ̈ðɐʁ̞̊,,,0
11111120201,Lindisfarne,55.677,-1.795,4320,father,,fader,,ˈfe̞ðɐ,,,0
11111120201,Lindisfarne,55.677,-1.795,4410,daughter,,duxter,,ˈdɔ̈ʊtɐ,,,0
11111120201,Lindisfarne,55.677,-1.795,4330,brother,,brother,,ˈbʁ̞ɔ̈ðɐ,,,0
11111120201,Lindisfarne,55.677,-1.795,4100,name,,namon,,njɛːm,,,0
11111120201,Lindisfarne,55.677,-1.795,4110,word,,wurdan,,ˈwɔ̈ʁɪ̠d,,,0
11111120201,Lindisfarne,55.677,-1.795,3120,hound,,xundaz,,hu̞nd,,,0
11111120201,Lindisfarne,55.677,-1.795,3150,mouse,,musz,,mu̞s,,,0
11111120201,Lindisfarne,55.677,-1.795,3230,goose,,gansz,,ɡu̞s,,,0
11111120201,Lindisfarne,55.677,-1.795,3310,cow,,kowz,,kɔ̈ʊˑ,,,0
11111120201,Lindisfarne,55.677,-1.795,3320,lamb,,lambaz,,läːm,,,0
11111120201,Lindisfarne,55.677,-1.795,3340,calf,,kalbaz,,kʰäːf,,,0
11111120201,Lindisfarne,55.677,-1.795,3240,fish,,fiskaz,,fɪ̠ʃ,,,0
11111120201,Lindisfarne,55.677,-1.795,3820,horn,,xurnan,,ˈho̞ˑʁ̞ɪ̠n,,,0
11111120201,Lindisfarne,55.677,-1.795,3900,wool,,wullo,,wʊl,,,0
11111120201,Lindisfarne,55.677,-1.795,5120,moon,,menon,,mu̞n,,,0
11111120201,Lindisfarne,55.677,-1.795,5260,north,,nurthaz,,no̞ˑɐθ,,,0
11111120201,Lindisfarne,55.677,-1.795,5510,stone,,stainaz,,stjɛːn,,,0
11111120201,Lindisfarne,55.677,-1.795,5430,ash,,askon,,äˑʃ,,,0
11111120201,Lindisfarne,55.677,-1.795,5520,earth,,ertho,,ɛʁ̞θ,,,0
11111120201,Lindisfarne,55.677,-1.795,6260,leaf,,lauban,,liːv,,,0
11111120201,Lindisfarne,55.677,-1.795,6270,thorn,,thurnuz,,ˈθo̞ˑʁ̞ɪ̠n,,,0
11111120201,Lindisfarne,55.677,-1.795,6290,oak,,aikz,,o̞ˑk,,,0
11111120201,Lindisfarne,55.677,-1.795,5810,rain,,regnan,,ʁe̝ˑən,,,0
11111120201,Lindisfarne,55.677,-1.795,5910,storm,,sturmaz,,stɔ̞ːʁm,,,0
11111120201,Lindisfarne,55.677,-1.795,5920,thunder,,thunraz,,ˈθɔ̈nɐ,,,0
11111120201,Lindisfarne,55.677,-1.795,5820,snow,,snaigwaz,,snɒː,,,0
11111120201,Lindisfarne,55.677,-1.795,5830,ice,,isaz,,ɛ̈is,,,0
11111120201,Lindisfarne,55.677,-1.795,5850,wind,,wendaz,,wɔ̈nd,,,0
11111120201,Lindisfarne,55.677,-1.795,6000,hunger,,xungruz,,ˈhɔ̈ŋɐ,,,0
11111120201,Lindisfarne,55.677,-1.795,6050,milk,,melkaz,,mɪ̠lk,,,0
11111120201,Lindisfarne,55.677,-1.795,6150,honey,,hunagan,,ˈhɔ̈nɛɪ,,,0
11111120201,Lindisfarne,55.677,-1.795,6040,salt,,saltan,,säːt,,,0
11111120201,Lindisfarne,55.677,-1.795,6070,corn,,kurnan,,ko̞ˑʁ̞ɪ̠n,,,0
11111120201,Lindisfarne,55.677,-1.795,6510,house,,xusan,,hu̞s,,,0
11111120201,Lindisfarne,55.677,-1.795,6560,home,,xaimaz,,çɛːm,,,0
11111120201,Lindisfarne,55.677,-1.795,6540,yard,,gardaz,,jɛːʁ̞d,,,0
11111120201,Lindisfarne,55.677,-1.795,6550,oven,,ufnaz,,ˈɔ̈vɪ̠n,,,0
11111120201,Lindisfarne,55.677,-1.795,6570,stool,,stolaz,,stu̞l,,,0
11111120201,Lindisfarne,55.677,-1.795,6580,bath,,bathan,,bäːθ,,,0
11111120201,Lindisfarne,55.677,-1.795,6600,thing,,thengaz,,θɪ̠ŋ,,,0
11111120201,Lindisfarne,55.677,-1.795,6630,needle,,nethlo,,ˈnidl̩,,,0
11111120201,Lindisfarne,55.677,-1.795,6640,ring,,xrengaz,,ʁɪ̠ŋ,,,0
11111120201,Lindisfarne,55.677,-1.795,8000,is,,esti,,ɪ̠z,,,0
11111120201,Lindisfarne,55.677,-1.795,8310,eat,,etanan,,it,,,0
11111120201,Lindisfarne,55.677,-1.795,8330,bite,,bitanan,,bɛ̈it,,,0
11111120201,Lindisfarne,55.677,-1.795,8320,drink,,drenkanan,,dʁ̞ɪ̠ŋk,,,0
11111120201,Lindisfarne,55.677,-1.795,8510,see,,sexwanan,,sɛ̈iˑ,,,0
11111120201,Lindisfarne,55.677,-1.795,8520,hear,,xauzjanan,,hiˑɐ,,,0
11111120201,Lindisfarne,55.677,-1.795,9620,open,,upanaz,,ˈo̞pɪ̠n,,,0
11111120201,Lindisfarne,55.677,-1.795,8120,sit,,setjanan,,sɪ̠t,,,0
11111120201,Lindisfarne,55.677,-1.795,8720,wash,,waskanan,,wɛːʃ,,,0
11111120201,Lindisfarne,55.677,-1.795,8990,swear,,swarjanan,,swiˑɐ,,,0
11111120201,Lindisfarne,55.677,-1.795,1010,I,,eka,,äˑɪ,,,0
11111120201,Lindisfarne,55.677,-1.795,1210,what,,xwat,,ʍäːt,,,0
11111120201,Lindisfarne,55.677,-1.795,1410,in,,eni,,ɪ̠n,,,0
11111120201,Lindisfarne,55.677,-1.795,1430,out,,ut,,u̞t,,,0
11111120201,Lindisfarne,55.677,-1.795,1460,over,,uberi,,ˈɔ̈ŭɐ,,,0
11111120201,Lindisfarne,55.677,-1.795,1470,mid,,medjaz,,mɪ̠d,,,0
11111120201,Lindisfarne,55.677,-1.795,5010,day,,dagaz,,de̞ː,,,0
11111120201,Lindisfarne,55.677,-1.795,5020,night,,naxtz,,nɛ̈it,,,0
11111120201,Lindisfarne,55.677,-1.795,510,year,,jeran,,ʝiˑɐʁ̞,,,0
