LanguageId,LanguageName,Latitude,Longitude,WordId,WordModernName1,WordModernName2,WordProtoName1,WordProtoName2,Phonetic,SpellingAltv1,SpellingAltv2,NotCognateWithMainWordInThisFamily2
11131220609,"‘Flemish’: Antwerp",51.21667,4.4,10,one,,oyno,,iən,,,0
11131220609,"‘Flemish’: Antwerp",51.21667,4.4,20,two,,dwaaw,,tʰveə,,,0
11131220609,"‘Flemish’: Antwerp",51.21667,4.4,30,three,,tris,,dɾa̠ː,,,0
11131220609,"‘Flemish’: Antwerp",51.21667,4.4,40,four,,kwetwores,,viːs̠,,,0
11131220609,"‘Flemish’: Antwerp",51.21667,4.4,50,five,,kwenkwe,,vaːf,,,0
11131220609,"‘Flemish’: Antwerp",51.21667,4.4,60,six,,swexs,,zɪs,,,0
11131220609,"‘Flemish’: Antwerp",51.21667,4.4,70,seven,,sextam,,ˈzeːv̥ə,,,0
11131220609,"‘Flemish’: Antwerp",51.21667,4.4,80,eight,,oxtuu,,aɪçt,,,0
11131220609,"‘Flemish’: Antwerp",51.21667,4.4,90,nine,,nowan,,ˈneːʝə,,,0
11131220609,"‘Flemish’: Antwerp",51.21667,4.4,100,ten,,dekam,,tʰiˑn,,,0
11131220609,"‘Flemish’: Antwerp",51.21667,4.4,200,hundred,,kantom,,ˈʌndəs̠tʰ,,,0
11131220609,"‘Flemish’: Antwerp",51.21667,4.4,7820,,,,,äɫ,,,0
11131220609,"‘Flemish’: Antwerp",51.21667,4.4,7020,,,,,β̞it,,,0
11131220609,"‘Flemish’: Antwerp",51.21667,4.4,7030,,,,,roət,,,0
11131220609,"‘Flemish’: Antwerp",51.21667,4.4,7040,green,,glastos,,çɾyˑn,,,0
11131220609,"‘Flemish’: Antwerp",51.21667,4.4,7210,,,,,laɪŋ,,,0
11131220609,"‘Flemish’: Antwerp",51.21667,4.4,7410,,,,,ˈsjaːɾəp,,,0
11131220609,"‘Flemish’: Antwerp",51.21667,4.4,7840,full,,laanos,,vɔɫ,,,0
11131220609,"‘Flemish’: Antwerp",51.21667,4.4,7510,young,,yowankos,,jʊ̞ŋ,,,0
11131220609,"‘Flemish’: Antwerp",51.21667,4.4,7980,,,,,nif,,,0
11131220609,"‘Flemish’: Antwerp",51.21667,4.4,7670,,,,,näkt,,,0
11131220609,"‘Flemish’: Antwerp",51.21667,4.4,7650,,,,,kβ̞ɪ̝k̟,,,0
11131220609,"‘Flemish’: Antwerp",51.21667,4.4,7660,,,,,fast,,,0
11131220609,"‘Flemish’: Antwerp",51.21667,4.4,7710,good,,mati,,xu̞ː,,,0
11131220609,"‘Flemish’: Antwerp",51.21667,4.4,7910,,,,,ˈβ̞aːɾəm,,,0
11131220609,"‘Flemish’: Antwerp",51.21667,4.4,7920,,,,,"kɔ̞ ̟ːt",,,0
11131220609,"‘Flemish’: Antwerp",51.21667,4.4,7560,,,,,ze̝ˑər̥,,,0
11131220609,"‘Flemish’: Antwerp",51.21667,4.4,7680,,,,,ˈaˑɪ̞lɪç,,,0
11131220609,"‘Flemish’: Antwerp",51.21667,4.4,7700,,,,,ˈb̬ɛ̝ˑtʰəs̠,,,0
11131220609,"‘Flemish’: Antwerp",51.21667,4.4,810,,,,,rɪçt,,,0
11131220609,"‘Flemish’: Antwerp",51.21667,4.4,2010,head,,kwennom,,hɔˑft,,,0
11131220609,"‘Flemish’: Antwerp",51.21667,4.4,2110,,,,,o̞əx,,,0
11131220609,"‘Flemish’: Antwerp",51.21667,4.4,2130,,,,,o̞ːr̥,,,0
11131220609,"‘Flemish’: Antwerp",51.21667,4.4,2140,teardrop,,dakro,,tʰɾa̠ˑn,,,0
11131220609,"‘Flemish’: Antwerp",51.21667,4.4,2210,,,,,mɔnt,,,0
11131220609,"‘Flemish’: Antwerp",51.21667,4.4,2230,tongue,,tangwaat,,tʌŋ,,,0
11131220609,"‘Flemish’: Antwerp",51.21667,4.4,2240,,,,,ta̠nt,,,0
11131220609,"‘Flemish’: Antwerp",51.21667,4.4,2310,,,,,ha̠nt,,,0
11131220609,"‘Flemish’: Antwerp",51.21667,4.4,2510,,,,,fu̞ˑt,,,0
11131220609,"‘Flemish’: Antwerp",51.21667,4.4,2530,,,,,kniː,,,0
11131220609,"‘Flemish’: Antwerp",51.21667,4.4,2540,,,,,teən,,,0
11131220609,"‘Flemish’: Antwerp",51.21667,4.4,2610,,,,,bluːt,,,0
11131220609,"‘Flemish’: Antwerp",51.21667,4.4,2620,,,,,beən,,,0
11131220609,"‘Flemish’: Antwerp",51.21667,4.4,2640,,,,,ˈnɑːxɫ̩,,,0
11131220609,"‘Flemish’: Antwerp",51.21667,4.4,2810,,,,,haɾ̥t,,,0
11131220609,"‘Flemish’: Antwerp",51.21667,4.4,2840,,,,,ˈleˑv̥ər̥,,,0
11131220609,"‘Flemish’: Antwerp",51.21667,4.4,4310,,,,,ˈmo̞ːd̪əs̠,,,0
11131220609,"‘Flemish’: Antwerp",51.21667,4.4,4320,,,,,ˈfɑ̟ːd̪əs̠,,,0
11131220609,"‘Flemish’: Antwerp",51.21667,4.4,4410,,,,,ˈdɔxtəs̠,,,0
11131220609,"‘Flemish’: Antwerp",51.21667,4.4,4330,,,,,bɾuːs̠,,,0
11131220609,"‘Flemish’: Antwerp",51.21667,4.4,4100,name,,anuman,,nɑ̈ːm,,,0
11131220609,"‘Flemish’: Antwerp",51.21667,4.4,4110,,,,,β̞ɔˑs̠t,,,0
11131220609,"‘Flemish’: Antwerp",51.21667,4.4,3120,,,,,ɐ̠ʊnt,,,0
11131220609,"‘Flemish’: Antwerp",51.21667,4.4,3150,,,,,mɔəs,,,0
11131220609,"‘Flemish’: Antwerp",51.21667,4.4,3230,,,,,çjans,,,0
11131220609,"‘Flemish’: Antwerp",51.21667,4.4,3310,,,,,ku̞ː,,,0
11131220609,"‘Flemish’: Antwerp",51.21667,4.4,3320,,,,,la̠m,,,0
11131220609,"‘Flemish’: Antwerp",51.21667,4.4,3340,,,,,ˈkaɫəf,,,0
11131220609,"‘Flemish’: Antwerp",51.21667,4.4,3240,,,,,vɪs,,,0
11131220609,"‘Flemish’: Antwerp",51.21667,4.4,3820,,,,,ˈo̞ːɾən,,,0
11131220609,"‘Flemish’: Antwerp",51.21667,4.4,3900,,,,,wʌɫ,,,0
11131220609,"‘Flemish’: Antwerp",51.21667,4.4,5120,,,,,mɑ̟ːn,,,0
11131220609,"‘Flemish’: Antwerp",51.21667,4.4,5260,,,,,nɔs̠t,,,0
11131220609,"‘Flemish’: Antwerp",51.21667,4.4,5510,,,,,steən,,,0
11131220609,"‘Flemish’: Antwerp",51.21667,4.4,5430,,,,,a̠s,,,0
11131220609,"‘Flemish’: Antwerp",51.21667,4.4,5520,soil,,kwriiyets,,ˈɑːrdə,,,0
11131220609,"‘Flemish’: Antwerp",51.21667,4.4,6260,,,,,lo̞əf,,,0
11131220609,"‘Flemish’: Antwerp",51.21667,4.4,6270,,,,,ˈdo̞ːɾə,,,0
11131220609,"‘Flemish’: Antwerp",51.21667,4.4,6290,,,,,aˑɪk̟,,,0
11131220609,"‘Flemish’: Antwerp",51.21667,4.4,5810,,,,,ˈreːçɪn,,,0
11131220609,"‘Flemish’: Antwerp",51.21667,4.4,5910,,,,,ˈstə̝ɾəm,,,0
11131220609,"‘Flemish’: Antwerp",51.21667,4.4,5920,,,,,ˈd̬ɔndəs̠,,,0
11131220609,"‘Flemish’: Antwerp",51.21667,4.4,5820,,,,,sniə,,,0
11131220609,"‘Flemish’: Antwerp",51.21667,4.4,5830,,,,,aːs,,,0
11131220609,"‘Flemish’: Antwerp",51.21667,4.4,5850,wind,,wintos,,β̞ɪ̝nt,,,0
11131220609,"‘Flemish’: Antwerp",51.21667,4.4,6000,,,,,ˈʊ̞ŋəs̠,,,0
11131220609,"‘Flemish’: Antwerp",51.21667,4.4,6050,,,,,ˈmɛlək̟,,,0
11131220609,"‘Flemish’: Antwerp",51.21667,4.4,6150,,,,,ˈøːnɪŋ,,,0
11131220609,"‘Flemish’: Antwerp",51.21667,4.4,6040,salt,,salanos,,zɔ̞ˑt,,,0
11131220609,"‘Flemish’: Antwerp",51.21667,4.4,6070,grain,,graanom,,ˈko̞ːrə,,,0
11131220609,"‘Flemish’: Antwerp",51.21667,4.4,6510,,,,,ɔɐs,,,0
11131220609,"‘Flemish’: Antwerp",51.21667,4.4,6560,,,,,heˑm,,,0
11131220609,"‘Flemish’: Antwerp",51.21667,4.4,6540,,,,,x̟ɑ̈ˑɾ̥t,,,0
11131220609,"‘Flemish’: Antwerp",51.21667,4.4,6550,,,,,ˈo̞ːvə,,,0
11131220609,"‘Flemish’: Antwerp",51.21667,4.4,6570,,,,,stu̞ː,,,0
11131220609,"‘Flemish’: Antwerp",51.21667,4.4,6580,,,,,ba̠t,,,0
11131220609,"‘Flemish’: Antwerp",51.21667,4.4,6600,,,,,dɪŋ,,,0
11131220609,"‘Flemish’: Antwerp",51.21667,4.4,1440,,,,,tɔp,,,0
11131220609,"‘Flemish’: Antwerp",51.21667,4.4,6630,,,,,nɑ̟ɫ̥t,,,0
11131220609,"‘Flemish’: Antwerp",51.21667,4.4,6640,,,,,rɪ̝ŋ,,,0
11131220609,"‘Flemish’: Antwerp",51.21667,4.4,8000,,,,,ɪs,,,0
11131220609,"‘Flemish’: Antwerp",51.21667,4.4,8310,,,,,e̞ˑt,,,0
11131220609,"‘Flemish’: Antwerp",51.21667,4.4,8330,,,,,baːt,,,0
11131220609,"‘Flemish’: Antwerp",51.21667,4.4,8320,,,,,dɾɪ̝ŋk̟,,,0
11131220609,"‘Flemish’: Antwerp",51.21667,4.4,8510,,,,,zeˑə,,,0
11131220609,"‘Flemish’: Antwerp",51.21667,4.4,8520,,,,,o̞əs̠,,,0
11131220609,"‘Flemish’: Antwerp",51.21667,4.4,9620,,,,,ˈo̞ˑpə,,,0
11131220609,"‘Flemish’: Antwerp",51.21667,4.4,8120,,,,,zɪ̝t,,,0
11131220609,"‘Flemish’: Antwerp",51.21667,4.4,8720,,,,,β̞a̠s,,,0
11131220609,"‘Flemish’: Antwerp",51.21667,4.4,8940,,,,,fɛçt,,,0
11131220609,"‘Flemish’: Antwerp",51.21667,4.4,8990,,,,,dzvɛ̝ːs̠,,,0
11131220609,"‘Flemish’: Antwerp",51.21667,4.4,1010,,,,,ik̟,,,0
11131220609,"‘Flemish’: Antwerp",51.21667,4.4,1210,,,,,β̞at,,,0
11131220609,"‘Flemish’: Antwerp",51.21667,4.4,1410,,,,,i̞n,,,0
11131220609,"‘Flemish’: Antwerp",51.21667,4.4,1430,,,,,ɔ̞ɐt,,,0
11131220609,"‘Flemish’: Antwerp",51.21667,4.4,1460,,,,,ˈo̞ːfəɾ̥,,,0
11131220609,"‘Flemish’: Antwerp",51.21667,4.4,1470,,,,,ˈmɪdə,,,0
11131220609,"‘Flemish’: Antwerp",51.21667,4.4,5010,,,,,daç,,,0
11131220609,"‘Flemish’: Antwerp",51.21667,4.4,5020,,,,,nax̟t,,,0
11131220609,"‘Flemish’: Antwerp",51.21667,4.4,510,,,,,jɑːɾ̥,,,0
