LanguageId,LanguageName,Latitude,Longitude,WordId,WordModernName1,WordModernName2,WordProtoName1,WordProtoName2,Phonetic,SpellingAltv1,SpellingAltv2,NotCognateWithMainWordInThisFamily2
11161160309,"Switz.: Biel",47.15,7.24,10,one,,oyno,,ɛ̝ɪs,,,0
11161160309,"Switz.: Biel",47.15,7.24,20,two,,dwaaw,,tsβœˑɪ,,,0
11161160309,"Switz.: Biel",47.15,7.24,30,three,,tris,,tɾyː,,,0
11161160309,"Switz.: Biel",47.15,7.24,40,four,,kwetwores,,fiˑəɾ̥,,,0
11161160309,"Switz.: Biel",47.15,7.24,50,five,,kwenkwe,,fyːf,,,0
11161160309,"Switz.: Biel",47.15,7.24,60,six,,swexs,,säχs,,,0
11161160309,"Switz.: Biel",47.15,7.24,70,seven,,sextam,,ˈseˑpə,,,0
11161160309,"Switz.: Biel",47.15,7.24,80,eight,,oxtuu,,ɒˑχt,,,0
11161160309,"Switz.: Biel",47.15,7.24,90,nine,,nowan,,nyːn,,,0
11161160309,"Switz.: Biel",47.15,7.24,100,ten,,dekam,,tsäˑə,,,0
11161160309,"Switz.: Biel",47.15,7.24,200,hundred,,kantom,,ˈhʊn̪d̪ət,,,0
11161160309,"Switz.: Biel",47.15,7.24,7820,,,,,ɔˑʊ,,,0
11161160309,"Switz.: Biel",47.15,7.24,7020,,,,,β̞iːs,,,0
11161160309,"Switz.: Biel",47.15,7.24,7030,,,,,rɔːt,,,0
11161160309,"Switz.: Biel",47.15,7.24,7040,green,,glastos,,ɡɾʏɛ̝̈n,,,0
11161160309,"Switz.: Biel",47.15,7.24,7210,,,,,laŋ,,,0
11161160309,"Switz.: Biel",47.15,7.24,7410,,,,,ʃɑːɾf,,,0
11161160309,"Switz.: Biel",47.15,7.24,7840,full,,laanos,,fɔˑʊ,,,0
11161160309,"Switz.: Biel",47.15,7.24,7510,young,,yowankos,,jʊŋ,,,0
11161160309,"Switz.: Biel",47.15,7.24,7980,,,,,nœɪ,,,0
11161160309,"Switz.: Biel",47.15,7.24,7670,,,,,nɒkχt,,,0
11161160309,"Switz.: Biel",47.15,7.24,7650,,,,,kxɛ̝kχ,,,0
11161160309,"Switz.: Biel",47.15,7.24,7660,,,,,fɛ̝ʃt,,,0
11161160309,"Switz.: Biel",47.15,7.24,7710,good,,mati,,ɡʊət,,,0
11161160309,"Switz.: Biel",47.15,7.24,7910,,,,,βäːrm,,,0
11161160309,"Switz.: Biel",47.15,7.24,7920,,,,,χɑʊt,,,0
11161160309,"Switz.: Biel",47.15,7.24,7560,,,,,sɛːr̥,,,0
11161160309,"Switz.: Biel",47.15,7.24,7680,,,,,ˈhe̞i̞lɪk,,,0
11161160309,"Switz.: Biel",47.15,7.24,7700,,,,,ˈbɛsˑəɾ̥,,,0
11161160309,"Switz.: Biel",47.15,7.24,810,,,,,ɾa̠ˑχt,,,0
11161160309,"Switz.: Biel",47.15,7.24,2010,head,,kwennom,,hɔ̞opt,,,0
11161160309,"Switz.: Biel",47.15,7.24,2110,,,,,ɔ̞ok,,,0
11161160309,"Switz.: Biel",47.15,7.24,2130,,,,,ɔːr̥,,,0
11161160309,"Switz.: Biel",47.15,7.24,2140,teardrop,,dakro,,ˈt̪r̥äːnə,,,0
11161160309,"Switz.: Biel",47.15,7.24,2210,,,,,mu̞ː,,,0
11161160309,"Switz.: Biel",47.15,7.24,2230,tongue,,tangwaat,,ˈtsʊŋˑə,,,0
11161160309,"Switz.: Biel",47.15,7.24,2240,,,,,tsɑ̟ːn,,,0
11161160309,"Switz.: Biel",47.15,7.24,2310,,,,,hɒˑŋ,,,0
11161160309,"Switz.: Biel",47.15,7.24,2510,,,,,foəs,,,0
11161160309,"Switz.: Biel",47.15,7.24,2530,,,,,χnœɪ,,,0
11161160309,"Switz.: Biel",47.15,7.24,2540,,,,,tsa̠ˑɪə,,,0
11161160309,"Switz.: Biel",47.15,7.24,2610,,,,,blʊɛ̈t,,,0
11161160309,"Switz.: Biel",47.15,7.24,2620,,,,,pɛ̝ˑɪ,,,0
11161160309,"Switz.: Biel",47.15,7.24,2640,,,,,ˈnɑ̈ˑku,,,0
11161160309,"Switz.: Biel",47.15,7.24,2810,,,,,haˑr̥ts,,,0
11161160309,"Switz.: Biel",47.15,7.24,2840,,,,,ˈlapəɾə,,,0
11161160309,"Switz.: Biel",47.15,7.24,4310,,,,,ˈmoətˑəɾ̥,,,0
11161160309,"Switz.: Biel",47.15,7.24,4320,,,,,ˈfätˑəɾ̥,,,0
11161160309,"Switz.: Biel",47.15,7.24,4410,,,,,ˈtɔχtəɾ̥,,,0
11161160309,"Switz.: Biel",47.15,7.24,4330,,,,,ˈbɾuətəɾ̥,,,0
11161160309,"Switz.: Biel",47.15,7.24,4100,name,,anuman,,ˈnɒmə̟,,,0
11161160309,"Switz.: Biel",47.15,7.24,4110,,,,,β̞ɔr̥t,,,0
11161160309,"Switz.: Biel",47.15,7.24,3120,,,,,hʊnt,,,0
11161160309,"Switz.: Biel",47.15,7.24,3150,,,,,muːs,,,0
11161160309,"Switz.: Biel",47.15,7.24,3230,,,,,ɡɒns,,,0
11161160309,"Switz.: Biel",47.15,7.24,3310,,,,,χʊə̟,,,0
11161160309,"Switz.: Biel",47.15,7.24,3320,,,,,lɒm,,,0
11161160309,"Switz.: Biel",47.15,7.24,3340,,,,,χɑʊp,,,0
11161160309,"Switz.: Biel",47.15,7.24,3240,,,,,fɪʃ,,,0
11161160309,"Switz.: Biel",47.15,7.24,3820,,,,,hɔˑrn,,,0
11161160309,"Switz.: Biel",47.15,7.24,3900,,,,,ˈβ̞ɵlə̟,,,0
11161160309,"Switz.: Biel",47.15,7.24,5120,,,,,mɔːnt,,,0
11161160309,"Switz.: Biel",47.15,7.24,5260,,,,,nɔˑr̥t,,,0
11161160309,"Switz.: Biel",47.15,7.24,5510,,,,,ʃtɛ̝ˑɪ,,,0
11161160309,"Switz.: Biel",47.15,7.24,5430,,,,,ˈʔa̠ʃə̟,,,0
11161160309,"Switz.: Biel",47.15,7.24,5520,soil,,kwriiyets,,ˈaːrtə,,,0
11161160309,"Switz.: Biel",47.15,7.24,6260,,,,,lɑʊp,,,0
11161160309,"Switz.: Biel",47.15,7.24,6270,,,,,tɔːɾn,,,0
11161160309,"Switz.: Biel",47.15,7.24,6290,,,,,ˈe̞i̞χə,,,0
11161160309,"Switz.: Biel",47.15,7.24,5810,,,,,ˈz̠a̠kə,,,0
11161160309,"Switz.: Biel",47.15,7.24,5910,,,,,ʃtʊˑɾm̩,,,0
11161160309,"Switz.: Biel",47.15,7.24,5920,,,,,ˈdɔnˑəɾ̥,,,0
11161160309,"Switz.: Biel",47.15,7.24,5820,,,,,ʃne̞ː,,,0
11161160309,"Switz.: Biel",47.15,7.24,5830,,,,,iːs,,,0
11161160309,"Switz.: Biel",47.15,7.24,5850,wind,,wintos,,β̞ɪnt,,,0
11161160309,"Switz.: Biel",47.15,7.24,6000,,,,,ˈhʊŋəz̠̥,,,0
11161160309,"Switz.: Biel",47.15,7.24,6050,,,,,mɪʊχ,,,0
11161160309,"Switz.: Biel",47.15,7.24,6150,,,,,ˈhɔˑnik,,,0
11161160309,"Switz.: Biel",47.15,7.24,6040,salt,,salanos,,sɑ̈ʊts,,,0
11161160309,"Switz.: Biel",47.15,7.24,6070,grain,,graanom,,χɔːɾn,,,0
11161160309,"Switz.: Biel",47.15,7.24,6510,,,,,huːs,,,0
11161160309,"Switz.: Biel",47.15,7.24,6560,,,,,he̞ɪm,,,0
11161160309,"Switz.: Biel",47.15,7.24,6540,,,,,ˈɡɒˑrtə,,,0
11161160309,"Switz.: Biel",47.15,7.24,6550,,,,,ˈʔɔˑfɛ̈,,,0
11161160309,"Switz.: Biel",47.15,7.24,6570,,,,,ʃtʊɛ̈ʊ,,,0
11161160309,"Switz.: Biel",47.15,7.24,6580,,,,,bɑːt,,,0
11161160309,"Switz.: Biel",47.15,7.24,6600,,,,,dɪŋ,,,0
11161160309,"Switz.: Biel",47.15,7.24,1440,,,,,..,,,0
11161160309,"Switz.: Biel",47.15,7.24,6630,,,,,ˈn̪ɑːdʊ,,,0
11161160309,"Switz.: Biel",47.15,7.24,6640,,,,,rɪŋ,,,0
11161160309,"Switz.: Biel",47.15,7.24,8000,,,,,ʔɪˑʃ,,,0
11161160309,"Switz.: Biel",47.15,7.24,8310,,,,,ʔɪs,,,0
11161160309,"Switz.: Biel",47.15,7.24,8330,,,,,biːs,,,0
11161160309,"Switz.: Biel",47.15,7.24,8320,,,,,drɪŋkχ,,,0
11161160309,"Switz.: Biel",47.15,7.24,8510,,,,,..,,,0
11161160309,"Switz.: Biel",47.15,7.24,8520,,,,,..,,,0
11161160309,"Switz.: Biel",47.15,7.24,9620,,,,,ˈʔɔ̝fˑə,,,0
11161160309,"Switz.: Biel",47.15,7.24,8120,,,,,sɪts,,,0
11161160309,"Switz.: Biel",47.15,7.24,8720,,,,,β̞aʃ,,,0
11161160309,"Switz.: Biel",47.15,7.24,8940,,,,,fa̠χt,,,0
11161160309,"Switz.: Biel",47.15,7.24,8990,,,,,ʃβ̞œːr̥,,,0
11161160309,"Switz.: Biel",47.15,7.24,1010,,,,,ʔi̞ːk̟,,,0
11161160309,"Switz.: Biel",47.15,7.24,1210,,,,,β̞ɒˑs,,,0
11161160309,"Switz.: Biel",47.15,7.24,1410,,,,,ʔɪn,,,0
11161160309,"Switz.: Biel",47.15,7.24,1430,,,,,uːs,,,0
11161160309,"Switz.: Biel",47.15,7.24,1460,,,,,ˈʏˑpəɾ̥,,,0
11161160309,"Switz.: Biel",47.15,7.24,1470,,,,,ˈmɪtˑɪ,,,0
11161160309,"Switz.: Biel",47.15,7.24,5010,,,,,t̪ɒːk,,,0
11161160309,"Switz.: Biel",47.15,7.24,5020,,,,,nɒχt,,,0
11161160309,"Switz.: Biel",47.15,7.24,510,,,,,jɑ̈ːr̥,,,0
