LanguageId,LanguageName,Latitude,Longitude,WordId,WordModernName1,WordModernName2,WordProtoName1,WordProtoName2,Phonetic,SpellingAltv1,SpellingAltv2,NotCognateWithMainWordInThisFamily2
11161140829,"Austria: Bodensee",47.48,9.68,10,one,,oyno,,ʔõɛ̃s,,,0
11161140829,"Austria: Bodensee",47.48,9.68,20,two,,dwaaw,,tsβoˑɐ,,,0
11161140829,"Austria: Bodensee",47.48,9.68,30,three,,tris,,dʁyː,,,0
11161140829,"Austria: Bodensee",47.48,9.68,40,four,,kwetwores,,fiˑəʁ̞,,,0
11161140829,"Austria: Bodensee",47.48,9.68,50,five,,kwenkwe,,fyːɸ,,,0
11161140829,"Austria: Bodensee",47.48,9.68,60,six,,swexs,,sɪks,,,0
11161140829,"Austria: Bodensee",47.48,9.68,70,seven,,sextam,,ˈseˑbə,,,0
11161140829,"Austria: Bodensee",47.48,9.68,80,eight,,oxtuu,,ʔa̠xt,,,0
11161140829,"Austria: Bodensee",47.48,9.68,90,nine,,nowan,,nyː,,,0
11161140829,"Austria: Bodensee",47.48,9.68,100,ten,,dekam,,tsẽˑə̃,,,0
11161140829,"Austria: Bodensee",47.48,9.68,200,hundred,,kantom,,ˈhʊndəʁ̞t,,,0
11161140829,"Austria: Bodensee",47.48,9.68,7820,,,,,ʔa̠ˑl,,,0
11161140829,"Austria: Bodensee",47.48,9.68,7020,,,,,viːs,,,0
11161140829,"Austria: Bodensee",47.48,9.68,7030,,,,,roːtʰ,,,0
11161140829,"Austria: Bodensee",47.48,9.68,7040,green,,glastos,,ɡɾỹˑɛ̈̃,,,0
11161140829,"Austria: Bodensee",47.48,9.68,7210,,,,,la̠ŋ,,,0
11161140829,"Austria: Bodensee",47.48,9.68,7410,,,,,ʃa̠ːʁ̞f,,,0
11161140829,"Austria: Bodensee",47.48,9.68,7840,full,,laanos,,fʊ̞l,,,0
11161140829,"Austria: Bodensee",47.48,9.68,7510,young,,yowankos,,jʊŋ,,,0
11161140829,"Austria: Bodensee",47.48,9.68,7980,,,,,nœˑʏ,,,0
11161140829,"Austria: Bodensee",47.48,9.68,7670,,,,,ˈna̠kɪk̟,,,0
11161140829,"Austria: Bodensee",47.48,9.68,7650,,,,,..,,,0
11161140829,"Austria: Bodensee",47.48,9.68,7660,,,,,fɛ̝ʃt,,,0
11161140829,"Austria: Bodensee",47.48,9.68,7710,good,,mati,,ɡoɛ̈t,,,0
11161140829,"Austria: Bodensee",47.48,9.68,7910,,,,,va̠ːʁ̞m,,,0
11161140829,"Austria: Bodensee",47.48,9.68,7920,,,,,kʰa̠ːlt,,,0
11161140829,"Austria: Bodensee",47.48,9.68,7560,,,,,..,,,0
11161140829,"Austria: Bodensee",47.48,9.68,7680,,,,,ˈha̠ɪlɪɡ,,,0
11161140829,"Austria: Bodensee",47.48,9.68,7700,,,,,ˈbɛ̝sˑəʁ̞,,,0
11161140829,"Austria: Bodensee",47.48,9.68,810,,,,,ʁ̞eˑɐxt,,,0
11161140829,"Austria: Bodensee",47.48,9.68,2010,head,,kwennom,,ha̠ʊpt,,,0
11161140829,"Austria: Bodensee",47.48,9.68,2110,,,,,ʔɔ̈ˑʊˑk,,,0
11161140829,"Austria: Bodensee",47.48,9.68,2130,,,,,o̞ːʁ̞,,,0
11161140829,"Austria: Bodensee",47.48,9.68,2140,teardrop,,dakro,,ˈtʁɛ̝ːnə,,,0
11161140829,"Austria: Bodensee",47.48,9.68,2210,,,,,mʊˑnt,,,0
11161140829,"Austria: Bodensee",47.48,9.68,2230,tongue,,tangwaat,,ˈtsʊŋə,,,0
11161140829,"Austria: Bodensee",47.48,9.68,2240,,,,,tsã̠ː,,,0
11161140829,"Austria: Bodensee",47.48,9.68,2310,,,,,ha̠ˑnt,,,0
11161140829,"Austria: Bodensee",47.48,9.68,2510,,,,,fʊˑɛ̈s,,,0
11161140829,"Austria: Bodensee",47.48,9.68,2530,,,,,kʰnyː,,,0
11161140829,"Austria: Bodensee",47.48,9.68,2540,,,,,tseːə,,,0
11161140829,"Austria: Bodensee",47.48,9.68,2610,,,,,blʊˑət,,,0
11161140829,"Austria: Bodensee",47.48,9.68,2620,,,,,bõ̞ˑɐ̃,,,0
11161140829,"Austria: Bodensee",47.48,9.68,2640,,,,,ˈna̠ːɡl̩,,,0
11161140829,"Austria: Bodensee",47.48,9.68,2810,,,,,hɛ̝ˑʁ̞ts,,,0
11161140829,"Austria: Bodensee",47.48,9.68,2840,,,,,ˈleˑəbəʁ̞,,,0
11161140829,"Austria: Bodensee",47.48,9.68,4310,,,,,ˈmʊətəʁ̞,,,0
11161140829,"Austria: Bodensee",47.48,9.68,4320,,,,,ˈfaˑtˑəʁ̞,,,0
11161140829,"Austria: Bodensee",47.48,9.68,4410,,,,,ˈdɔxtəʁ̞,,,0
11161140829,"Austria: Bodensee",47.48,9.68,4330,,,,,ˈbʁ̞ʏˑədəʁ̞,,,0
11161140829,"Austria: Bodensee",47.48,9.68,4100,name,,anuman,,ˈna̠ːmə,,,0
11161140829,"Austria: Bodensee",47.48,9.68,4110,,,,,..,,,0
11161140829,"Austria: Bodensee",47.48,9.68,3120,,,,,hʊˑnd,,,0
11161140829,"Austria: Bodensee",47.48,9.68,3150,,,,,muːs,,,0
11161140829,"Austria: Bodensee",47.48,9.68,3230,,,,,ɡa̠ns,,,0
11161140829,"Austria: Bodensee",47.48,9.68,3310,,,,,kʰʊˑɛ̈,,,0
11161140829,"Austria: Bodensee",47.48,9.68,3320,,,,,la̠m,,,0
11161140829,"Austria: Bodensee",47.48,9.68,3340,,,,,kʰa̠ˑlp,,,0
11161140829,"Austria: Bodensee",47.48,9.68,3240,,,,,fɪ̝ʃ,,,0
11161140829,"Austria: Bodensee",47.48,9.68,3820,,,,,hɔ̞ɐʁ̞n,,,0
11161140829,"Austria: Bodensee",47.48,9.68,3900,,,,,ˈvʊlɛ̈,,,0
11161140829,"Austria: Bodensee",47.48,9.68,5120,,,,,mu̞ː,,,0
11161140829,"Austria: Bodensee",47.48,9.68,5260,,,,,nɔ̞ːʁ̞də,,,0
11161140829,"Austria: Bodensee",47.48,9.68,5510,,,,,ʃtõˑɐ̃,,,0
11161140829,"Austria: Bodensee",47.48,9.68,5430,,,,,ˈʔɛ̝ʃə,,,0
11161140829,"Austria: Bodensee",47.48,9.68,5520,soil,,kwriiyets,,ˈʔɛ̝ˑʁ̞dɛ̝̈,,,0
11161140829,"Austria: Bodensee",47.48,9.68,6260,,,,,loːp,,,0
11161140829,"Austria: Bodensee",47.48,9.68,6270,,,,,dɔ̞rnə,,,0
11161140829,"Austria: Bodensee",47.48,9.68,6290,,,,,ˈʔo̞ɐxə,,,0
11161140829,"Austria: Bodensee",47.48,9.68,5810,,,,,ˈʁeˑɐɡə,,,0
11161140829,"Austria: Bodensee",47.48,9.68,5910,,,,,ˈʃtʊˑʁ̞m̩,,,0
11161140829,"Austria: Bodensee",47.48,9.68,5920,,,,,ˈdɔ̞nəʁ̞,,,0
11161140829,"Austria: Bodensee",47.48,9.68,5820,,,,,ʃneˑɪ,,,0
11161140829,"Austria: Bodensee",47.48,9.68,5830,,,,,ʔiːs,,,0
11161140829,"Austria: Bodensee",47.48,9.68,5850,wind,,wintos,,vɪnt,,,0
11161140829,"Austria: Bodensee",47.48,9.68,6000,,,,,ˈhʊŋəʁ̞,,,0
11161140829,"Austria: Bodensee",47.48,9.68,6050,,,,,mɪ̝lx,,,0
11161140829,"Austria: Bodensee",47.48,9.68,6150,,,,,ˈhɔ̞ːnɪɡ,,,0
11161140829,"Austria: Bodensee",47.48,9.68,6040,salt,,salanos,,sa̠ːlts,,,0
11161140829,"Austria: Bodensee",47.48,9.68,6070,grain,,graanom,,kʰɔ̞ɐʁ̞n,,,0
11161140829,"Austria: Bodensee",47.48,9.68,6510,,,,,huːs,,,0
11161140829,"Austria: Bodensee",47.48,9.68,6560,,,,,hoɐm,,,0
11161140829,"Austria: Bodensee",47.48,9.68,6540,,,,,ˈɡa̠ːʁ̞tə,,,0
11161140829,"Austria: Bodensee",47.48,9.68,6550,,,,,ˈʔo̞ːfə,,,0
11161140829,"Austria: Bodensee",47.48,9.68,6570,,,,,ʃtʊˑəl,,,0
11161140829,"Austria: Bodensee",47.48,9.68,6580,,,,,ba̠ːt,,,0
11161140829,"Austria: Bodensee",47.48,9.68,6600,,,,,dɪ̝ŋ,,,0
11161140829,"Austria: Bodensee",47.48,9.68,1440,,,,,..,,,0
11161140829,"Austria: Bodensee",47.48,9.68,6630,,,,,ˈnɔ̞ːdl̩,,,0
11161140829,"Austria: Bodensee",47.48,9.68,6640,,,,,ʁɪŋ,,,0
11161140829,"Austria: Bodensee",47.48,9.68,8000,,,,,ʔi̞ʃt,,,0
11161140829,"Austria: Bodensee",47.48,9.68,8310,,,,,ʔi̞əs,,,0
11161140829,"Austria: Bodensee",47.48,9.68,8330,,,,,biːs,,,0
11161140829,"Austria: Bodensee",47.48,9.68,8320,,,,,dʁɪnk̟,,,0
11161140829,"Austria: Bodensee",47.48,9.68,8510,,,,,..,,,0
11161140829,"Austria: Bodensee",47.48,9.68,8520,,,,,høːʁ̞,,,0
11161140829,"Austria: Bodensee",47.48,9.68,9620,,,,,ˈʔo̞fˑə,,,0
11161140829,"Austria: Bodensee",47.48,9.68,8120,,,,,..,,,0
11161140829,"Austria: Bodensee",47.48,9.68,8720,,,,,vɛ̝ˑʃ,,,0
11161140829,"Austria: Bodensee",47.48,9.68,8940,,,,,..,,,0
11161140829,"Austria: Bodensee",47.48,9.68,8990,,,,,ʃvøːʁ̞,,,0
11161140829,"Austria: Bodensee",47.48,9.68,1010,,,,,ʔiː,,,0
11161140829,"Austria: Bodensee",47.48,9.68,1210,,,,,väːs,,,0
11161140829,"Austria: Bodensee",47.48,9.68,1410,,,,,ʔi̞n,,,0
11161140829,"Austria: Bodensee",47.48,9.68,1430,,,,,ʔuːs,,,0
11161140829,"Austria: Bodensee",47.48,9.68,1460,,,,,ˈʏ̠ˑbəʁ̞,,,0
11161140829,"Austria: Bodensee",47.48,9.68,1470,,,,,ˈmɪətə,,,0
11161140829,"Austria: Bodensee",47.48,9.68,5010,,,,,da̠ːɡ,,,0
11161140829,"Austria: Bodensee",47.48,9.68,5020,,,,,na̠ːxt,,,0
11161140829,"Austria: Bodensee",47.48,9.68,510,,,,,jɔːʁ̞,,,0
