LanguageId,LanguageName,Latitude,Longitude,WordId,WordModernName1,WordModernName2,WordProtoName1,WordProtoName2,Phonetic,SpellingAltv1,SpellingAltv2,NotCognateWithMainWordInThisFamily2
11121320209,"Fris. N.: Feer",54.71667,8.5,10,one,,oyno,,ʔiæ̝n,,,0
11121320209,"Fris. N.: Feer",54.71667,8.5,20,two,,dwaaw,,tʰäo,,,0
11121320209,"Fris. N.: Feer",54.71667,8.5,30,three,,tris,,tri̞,,,0
11121320209,"Fris. N.: Feer",54.71667,8.5,40,four,,kwetwores,,fjä̝o̞ɔ̟,,,0
11121320209,"Fris. N.: Feer",54.71667,8.5,50,five,,kwenkwe,,fiːf,,,0
11121320209,"Fris. N.: Feer",54.71667,8.5,60,six,,swexs,,se̝ːks,,,0
11121320209,"Fris. N.: Feer",54.71667,8.5,70,seven,,sextam,,ˈsøːvn̩,,,0
11121320209,"Fris. N.: Feer",54.71667,8.5,80,eight,,oxtuu,,ʔä̠χt,,,0
11121320209,"Fris. N.: Feer",54.71667,8.5,90,nine,,nowan,,ˈnjygⁿŋ̩,,,0
11121320209,"Fris. N.: Feer",54.71667,8.5,100,ten,,dekam,,tʰʲiːn,,,0
11121320209,"Fris. N.: Feer",54.71667,8.5,200,hundred,,kantom,,hʊnɐ̞tʰ,,,0
11121320209,"Fris. N.: Feer",54.71667,8.5,7820,,,,,ʔäːl,,,0
11121320209,"Fris. N.: Feer",54.71667,8.5,7020,,,,,vitç,,,0
11121320209,"Fris. N.: Feer",54.71667,8.5,7030,,,,,ruət,,,0
11121320209,"Fris. N.: Feer",54.71667,8.5,7040,green,,glastos,,dreːn,,,0
11121320209,"Fris. N.: Feer",54.71667,8.5,7210,,,,,lʊŋ,,,0
11121320209,"Fris. N.: Feer",54.71667,8.5,7410,,,,,ˈsg̥arap,,,0
11121320209,"Fris. N.: Feer",54.71667,8.5,7840,full,,laanos,,fɔl,,,0
11121320209,"Fris. N.: Feer",54.71667,8.5,7510,young,,yowankos,,jɒŋ,,,0
11121320209,"Fris. N.: Feer",54.71667,8.5,7980,,,,,nai,,,0
11121320209,"Fris. N.: Feer",54.71667,8.5,7670,,,,,ˈnäːgət,,,0
11121320209,"Fris. N.: Feer",54.71667,8.5,7660,,,,,feːst,,,0
11121320209,"Fris. N.: Feer",54.71667,8.5,7710,good,,mati,,gʊt,,,0
11121320209,"Fris. N.: Feer",54.71667,8.5,7910,,,,,ˈväram,,,0
11121320209,"Fris. N.: Feer",54.71667,8.5,7920,,,,,kʰuˑl,,,0
11121320209,"Fris. N.: Feer",54.71667,8.5,7560,,,,,sië,,,0
11121320209,"Fris. N.: Feer",54.71667,8.5,7680,,,,,ˈhe̞likʰ,,,0
11121320209,"Fris. N.: Feer",54.71667,8.5,7700,,,,,ˈbeːda,,,0
11121320209,"Fris. N.: Feer",54.71667,8.5,810,,,,,rɔ̞χt,,,0
11121320209,"Fris. N.: Feer",54.71667,8.5,2010,head,,kwennom,,ho̝ːt,,,0
11121320209,"Fris. N.: Feer",54.71667,8.5,2110,,,,,ʔu̟ːk,,,0
11121320209,"Fris. N.: Feer",54.71667,8.5,2130,,,,,ʔuʌ,,,0
11121320209,"Fris. N.: Feer",54.71667,8.5,2140,teardrop,,dakro,,tʰuʌ,,,0
11121320209,"Fris. N.: Feer",54.71667,8.5,2210,,,,,mœ̞s,,,0
11121320209,"Fris. N.: Feer",54.71667,8.5,2230,tongue,,tangwaat,,tʰɒ̃ŋ,,,0
11121320209,"Fris. N.: Feer",54.71667,8.5,2240,,,,,tʰʊ̞s,,,0
11121320209,"Fris. N.: Feer",54.71667,8.5,2310,,,,,hʊn,,,0
11121320209,"Fris. N.: Feer",54.71667,8.5,2510,,,,,fʊ̞tʰ,,,0
11121320209,"Fris. N.: Feer",54.71667,8.5,2530,,,,,ˈkʰnœ̝bʝɛ̝n,,,0
11121320209,"Fris. N.: Feer",54.71667,8.5,2540,,,,,tʰuʌn,,,0
11121320209,"Fris. N.: Feer",54.71667,8.5,2610,,,,,blo̟tʰ,,,0
11121320209,"Fris. N.: Feer",54.71667,8.5,2620,,,,,ˈbijɛn,,,0
11121320209,"Fris. N.: Feer",54.71667,8.5,2640,,,,,ˈnäːjl̩,,,0
11121320209,"Fris. N.: Feer",54.71667,8.5,2810,,,,,ha̠ˑχt,,,0
11121320209,"Fris. N.: Feer",54.71667,8.5,2840,,,,,lʏvä̟,,,0
11121320209,"Fris. N.: Feer",54.71667,8.5,4310,,,,,mäm,,,1
11121320209,"Fris. N.: Feer",54.71667,8.5,4320,,,,,ˈpfeˑdɐ,,,0
11121320209,"Fris. N.: Feer",54.71667,8.5,4410,,,,,do:χtɐ,,,0
11121320209,"Fris. N.: Feer",54.71667,8.5,4330,,,,,ˈbrʊlə,,,0
11121320209,"Fris. N.: Feer",54.71667,8.5,4100,name,,anuman,,nø̃ːm,,,0
11121320209,"Fris. N.: Feer",54.71667,8.5,4110,,,,,voʌtʰ,,,0
11121320209,"Fris. N.: Feer",54.71667,8.5,3120,,,,,hy̟ɲ,,,0
11121320209,"Fris. N.: Feer",54.71667,8.5,3150,,,,,mʏ̈s,,,0
11121320209,"Fris. N.: Feer",54.71667,8.5,3230,,,,,gʊ̞s,,,0
11121320209,"Fris. N.: Feer",54.71667,8.5,3310,,,,,kʰʏ,,,0
11121320209,"Fris. N.: Feer",54.71667,8.5,3320,,,,,lom,,,0
11121320209,"Fris. N.: Feer",54.71667,8.5,3340,,,,,ˈkʰuələ,,,0
11121320209,"Fris. N.: Feer",54.71667,8.5,3240,,,,,fask,,,0
11121320209,"Fris. N.: Feer",54.71667,8.5,3820,,,,,hʊrn,,,0
11121320209,"Fris. N.: Feer",54.71667,8.5,3900,,,,,ʔo̞l,,,0
11121320209,"Fris. N.: Feer",54.71667,8.5,5120,,,,,mõːn,,,0
11121320209,"Fris. N.: Feer",54.71667,8.5,5260,,,,,noɤt,,,0
11121320209,"Fris. N.: Feer",54.71667,8.5,5510,,,,,stiæn,,,0
11121320209,"Fris. N.: Feer",54.71667,8.5,5430,,,,,ʔe̝ːskʰ,,,0
11121320209,"Fris. N.: Feer",54.71667,8.5,5520,soil,,kwriiyets,,ʔeɛt,,,0
11121320209,"Fris. N.: Feer",54.71667,8.5,6260,,,,,bleːd̥,,,1
11121320209,"Fris. N.: Feer",54.71667,8.5,6270,,,,,pʰuɤtʰ,,,1
11121320209,"Fris. N.: Feer",54.71667,8.5,6290,,,,,ˈʔikʰʲe,,,0
11121320209,"Fris. N.: Feer",54.71667,8.5,5810,,,,,rɪn,,,0
11121320209,"Fris. N.: Feer",54.71667,8.5,5910,,,,,ˈsd̥ʊrʌm,,,0
11121320209,"Fris. N.: Feer",54.71667,8.5,5920,,,,,ˈtʰɔnä,,,0
11121320209,"Fris. N.: Feer",54.71667,8.5,5820,,,,,snæ,,,0
11121320209,"Fris. N.: Feer",54.71667,8.5,5830,,,,,ʔɪs,,,0
11121320209,"Fris. N.: Feer",54.71667,8.5,5850,wind,,wintos,,viɲ,,,0
11121320209,"Fris. N.: Feer",54.71667,8.5,6000,,,,,ˈhɒ̃nəŋ,,,0
11121320209,"Fris. N.: Feer",54.71667,8.5,6050,,,,,muəlk,,,0
11121320209,"Fris. N.: Feer",54.71667,8.5,6150,,,,,ˈhœneŋ,,,0
11121320209,"Fris. N.: Feer",54.71667,8.5,6040,salt,,salanos,,säːlt,,,0
11121320209,"Fris. N.: Feer",54.71667,8.5,6070,grain,,graanom,,kʰʊrn,,,0
11121320209,"Fris. N.: Feer",54.71667,8.5,6510,,,,,hʏs,,,0
11121320209,"Fris. N.: Feer",54.71667,8.5,6560,,,,,ˈʔaran,,,1
11121320209,"Fris. N.: Feer",54.71667,8.5,6540,,,,,g̥uɤt,,,0
11121320209,"Fris. N.: Feer",54.71667,8.5,6550,,,,,ʔõŋkʰ,,,0
11121320209,"Fris. N.: Feer",54.71667,8.5,6570,,,,,sd̥uːl,,,0
11121320209,"Fris. N.: Feer",54.71667,8.5,6580,,,,,,,,0
11121320209,"Fris. N.: Feer",54.71667,8.5,6600,,,,,d̥eŋ,,,0
11121320209,"Fris. N.: Feer",54.71667,8.5,6630,,,,,ˈneːdˡl̩,,,0
11121320209,"Fris. N.: Feer",54.71667,8.5,6640,,,,,rɪŋ,,,0
11121320209,"Fris. N.: Feer",54.71667,8.5,8000,,,,,ʔas,,,0
11121320209,"Fris. N.: Feer",54.71667,8.5,8310,,,,,ʔiˑtç,,,0
11121320209,"Fris. N.: Feer",54.71667,8.5,8330,,,,,bitç,,,0
11121320209,"Fris. N.: Feer",54.71667,8.5,8320,,,,,draŋk,,,0
11121320209,"Fris. N.: Feer",54.71667,8.5,8510,,,,,sɛ,,,0
11121320209,"Fris. N.: Feer",54.71667,8.5,8520,,,,,çiɛ̞,,,0
11121320209,"Fris. N.: Feer",54.71667,8.5,9620,,,,,ˈʔeːb̥ⁿm̩,,,0
11121320209,"Fris. N.: Feer",54.71667,8.5,8120,,,,,sat,,,0
11121320209,"Fris. N.: Feer",54.71667,8.5,8720,,,,,ˈvaske,,,0
11121320209,"Fris. N.: Feer",54.71667,8.5,8940,,,,,fɛçt,,,0
11121320209,"Fris. N.: Feer",54.71667,8.5,8990,,,,,sv̥ea,,,0
11121320209,"Fris. N.: Feer",54.71667,8.5,1010,,,,,ʔɪkʰ,,,0
11121320209,"Fris. N.: Feer",54.71667,8.5,1210,,,,,vät,,,0
11121320209,"Fris. N.: Feer",54.71667,8.5,1410,,,,,ʔo̝ːn,,,0
11121320209,"Fris. N.: Feer",54.71667,8.5,1430,,,,,ʔytʰ,,,0
11121320209,"Fris. N.: Feer",54.71667,8.5,1460,,,,,ʔäo̞ɑ̝,,,0
11121320209,"Fris. N.: Feer",54.71667,8.5,1470,,,,,ˈmädⁿn̩,,,0
11121320209,"Fris. N.: Feer",54.71667,8.5,5010,,,,,dä̠i,,,0
11121320209,"Fris. N.: Feer",54.71667,8.5,5020,,,,,nɑ̟χtʰ,,,0
11121320209,"Fris. N.: Feer",54.71667,8.5,510,,,,,joɤ,,,0
