LanguageId,LanguageName,Latitude,Longitude,WordId,WordModernName1,WordModernName2,WordProtoName1,WordProtoName2,Phonetic,SpellingAltv1,SpellingAltv2,NotCognateWithMainWordInThisFamily2
11161180509,"Switz.: Graubünden",46.70013,9.45365,10,one,,oyno,,äɪnts,,,0
11161180509,"Switz.: Graubünden",46.70013,9.45365,20,two,,dwaaw,,tsväˑɪ,,,0
11161180509,"Switz.: Graubünden",46.70013,9.45365,30,three,,tris,,dɾeiˑ,,,0
11161180509,"Switz.: Graubünden",46.70013,9.45365,40,four,,kwetwores,,fiˑɛɾ,,,0
11161180509,"Switz.: Graubünden",46.70013,9.45365,50,five,,kwenkwe,,fyːf,,,0
11161180509,"Switz.: Graubünden",46.70013,9.45365,60,six,,swexs,,seɪks,,,0
11161180509,"Switz.: Graubünden",46.70013,9.45365,70,seven,,sextam,,ˈseːbɐ,,,0
11161180509,"Switz.: Graubünden",46.70013,9.45365,80,eight,,oxtuu,,ʔäˑχt,,,0
11161180509,"Switz.: Graubünden",46.70013,9.45365,90,nine,,nowan,,nyːn,,,0
11161180509,"Switz.: Graubünden",46.70013,9.45365,100,ten,,dekam,,tseːn,,,0
11161180509,"Switz.: Graubünden",46.70013,9.45365,200,hundred,,kantom,,ˈhoˑndət,,,0
11161180509,"Switz.: Graubünden",46.70013,9.45365,7820,,,,,ʔa̠l,,,0
11161180509,"Switz.: Graubünden",46.70013,9.45365,7020,,,,,βiːs,,,0
11161180509,"Switz.: Graubünden",46.70013,9.45365,7030,,,,,ro̞ːt,,,0
11161180509,"Switz.: Graubünden",46.70013,9.45365,7040,green,,glastos,,ɡɾʏˑɛ̝̈n,,,0
11161180509,"Switz.: Graubünden",46.70013,9.45365,7210,,,,,läŋk̟,,,0
11161180509,"Switz.: Graubünden",46.70013,9.45365,7410,,,,,ʃa̟ˑrf,,,0
11161180509,"Switz.: Graubünden",46.70013,9.45365,7840,full,,laanos,,föl,,,0
11161180509,"Switz.: Graubünden",46.70013,9.45365,7510,young,,yowankos,,jʊŋk̟,,,0
11161180509,"Switz.: Graubünden",46.70013,9.45365,7980,,,,,nœˑʏ,,,0
11161180509,"Switz.: Graubünden",46.70013,9.45365,7670,,,,,näˑkt,,,0
11161180509,"Switz.: Graubünden",46.70013,9.45365,7650,,,,,k̟ʰɛ̝k̟,,,0
11161180509,"Switz.: Graubünden",46.70013,9.45365,7660,,,,,fɛ̝ʃt,,,0
11161180509,"Switz.: Graubünden",46.70013,9.45365,7710,good,,mati,,ɡoɔ̈t,,,0
11161180509,"Switz.: Graubünden",46.70013,9.45365,7910,,,,,βäːrm,,,0
11161180509,"Switz.: Graubünden",46.70013,9.45365,7920,,,,,qʰɑːlt,,,0
11161180509,"Switz.: Graubünden",46.70013,9.45365,7560,,,,,sɛ̝ːɾ,,,0
11161180509,"Switz.: Graubünden",46.70013,9.45365,7680,,,,,ˈha̠ɪli̞k,,,0
11161180509,"Switz.: Graubünden",46.70013,9.45365,7700,,,,,ˈbɛ̝sˑɾ̩,,,0
11161180509,"Switz.: Graubünden",46.70013,9.45365,810,,,,,ɾe̞ˑχt,,,0
11161180509,"Switz.: Graubünden",46.70013,9.45365,2010,head,,kwennom,,häʊpt,,,0
11161180509,"Switz.: Graubünden",46.70013,9.45365,2110,,,,,äok,,,0
11161180509,"Switz.: Graubünden",46.70013,9.45365,2130,,,,,ɔ̝ːr,,,0
11161180509,"Switz.: Graubünden",46.70013,9.45365,2140,teardrop,,dakro,,ˈtɾɛ̝ːnɐ,,,0
11161180509,"Switz.: Graubünden",46.70013,9.45365,2210,,,,,muːl,,,0
11161180509,"Switz.: Graubünden",46.70013,9.45365,2230,tongue,,tangwaat,,ˈtsʊŋɡɐ,,,0
11161180509,"Switz.: Graubünden",46.70013,9.45365,2240,,,,,tsɑ̈ːn,,,0
11161180509,"Switz.: Graubünden",46.70013,9.45365,2310,,,,,häˑnt,,,0
11161180509,"Switz.: Graubünden",46.70013,9.45365,2510,,,,,fʊɔ̈s,,,0
11161180509,"Switz.: Graubünden",46.70013,9.45365,2530,,,,,kʰnyː,,,0
11161180509,"Switz.: Graubünden",46.70013,9.45365,2540,,,,,ˈtseːbɐ,,,0
11161180509,"Switz.: Graubünden",46.70013,9.45365,2610,,,,,blʊɔ̈t,,,0
11161180509,"Switz.: Graubünden",46.70013,9.45365,2620,,,,,bäˑi̞,,,0
11161180509,"Switz.: Graubünden",46.70013,9.45365,2640,,,,,ˈnɑ̈ːɡl̩,,,0
11161180509,"Switz.: Graubünden",46.70013,9.45365,2810,,,,,hɛrts,,,0
11161180509,"Switz.: Graubünden",46.70013,9.45365,2840,,,,,ˈlɛ̝ːbəɾə,,,0
11161180509,"Switz.: Graubünden",46.70013,9.45365,4310,,,,,ˈmoɔ̈tr̩,,,0
11161180509,"Switz.: Graubünden",46.70013,9.45365,4320,,,,,ˈfa̠ˑtˑr̩,,,0
11161180509,"Switz.: Graubünden",46.70013,9.45365,4410,,,,,ˈdɔˑχtr̩,,,0
11161180509,"Switz.: Graubünden",46.70013,9.45365,4330,,,,,ˈbrʊɔ̈dr̩,,,0
11161180509,"Switz.: Graubünden",46.70013,9.45365,4100,name,,anuman,,ˈna̠ˑmɐ,,,0
11161180509,"Switz.: Graubünden",46.70013,9.45365,4110,,,,,βɔˑrt,,,0
11161180509,"Switz.: Graubünden",46.70013,9.45365,3120,,,,,hʊˑnt,,,0
11161180509,"Switz.: Graubünden",46.70013,9.45365,3150,,,,,muːs,,,0
11161180509,"Switz.: Graubünden",46.70013,9.45365,3230,,,,,ɡäns,,,0
11161180509,"Switz.: Graubünden",46.70013,9.45365,3310,,,,,kʰʊˑä,,,0
11161180509,"Switz.: Graubünden",46.70013,9.45365,3320,,,,,läm,,,0
11161180509,"Switz.: Graubünden",46.70013,9.45365,3340,,,,,kʰäˑlp,,,0
11161180509,"Switz.: Graubünden",46.70013,9.45365,3240,,,,,fi̞ˑʃ,,,0
11161180509,"Switz.: Graubünden",46.70013,9.45365,3820,,,,,ˈho̞ːɾə,,,0
11161180509,"Switz.: Graubünden",46.70013,9.45365,3900,,,,,ˈwʊlɐ,,,0
11161180509,"Switz.: Graubünden",46.70013,9.45365,5120,,,,,moˑnt,,,0
11161180509,"Switz.: Graubünden",46.70013,9.45365,5260,,,,,ˈnɔˑrd,,,0
11161180509,"Switz.: Graubünden",46.70013,9.45365,5510,,,,,ʃtäˑi̞,,,0
11161180509,"Switz.: Graubünden",46.70013,9.45365,5430,,,,,ˈɛ̝ˑʃə,,,0
11161180509,"Switz.: Graubünden",46.70013,9.45365,5520,soil,,kwriiyets,,ˈɛˑrdə,,,0
11161180509,"Switz.: Graubünden",46.70013,9.45365,6260,,,,,la̠ʊp,,,0
11161180509,"Switz.: Graubünden",46.70013,9.45365,6270,,,,,dɔˑrn,,,0
11161180509,"Switz.: Graubünden",46.70013,9.45365,6290,,,,,ˈʔäɪχə,,,0
11161180509,"Switz.: Graubünden",46.70013,9.45365,5810,,,,,ˈrɛ̝ːɡɐ,,,0
11161180509,"Switz.: Graubünden",46.70013,9.45365,5910,,,,,ʃtʊˑrm̩,,,0
11161180509,"Switz.: Graubünden",46.70013,9.45365,5920,,,,,ˈdo̞nˑɾ̩,,,0
11161180509,"Switz.: Graubünden",46.70013,9.45365,5820,,,,,ʃne̝ː,,,0
11161180509,"Switz.: Graubünden",46.70013,9.45365,5830,,,,,iːs,,,0
11161180509,"Switz.: Graubünden",46.70013,9.45365,5850,wind,,wintos,,βi̞ˑnt,,,0
11161180509,"Switz.: Graubünden",46.70013,9.45365,6000,,,,,ˈhʊŋɡr̩,,,0
11161180509,"Switz.: Graubünden",46.70013,9.45365,6050,,,,,mɪ̝lχ,,,0
11161180509,"Switz.: Graubünden",46.70013,9.45365,6150,,,,,Array,,,0
11161180509,"Switz.: Graubünden",46.70013,9.45365,6040,salt,,salanos,,sɑ̟ːlts,,,0
11161180509,"Switz.: Graubünden",46.70013,9.45365,6070,grain,,graanom,,kʰɔ̝ːɾɐ,,,0
11161180509,"Switz.: Graubünden",46.70013,9.45365,6510,,,,,huːs,,,0
11161180509,"Switz.: Graubünden",46.70013,9.45365,6560,,,,,häˑɪm,,,0
11161180509,"Switz.: Graubünden",46.70013,9.45365,6540,,,,,ˈɡɑːrtə,,,0
11161180509,"Switz.: Graubünden",46.70013,9.45365,6550,,,,,ˈʔo̞ːfə,,,0
11161180509,"Switz.: Graubünden",46.70013,9.45365,6570,,,,,ʃtuˑɛ̝̈l,,,0
11161180509,"Switz.: Graubünden",46.70013,9.45365,6580,,,,,bɑːt,,,0
11161180509,"Switz.: Graubünden",46.70013,9.45365,6600,,,,,dɪ̝ˑŋk̟,,,0
11161180509,"Switz.: Graubünden",46.70013,9.45365,1440,,,,,..,,,0
11161180509,"Switz.: Graubünden",46.70013,9.45365,6630,,,,,Array,,,0
11161180509,"Switz.: Graubünden",46.70013,9.45365,6640,,,,,ri̞ˑŋk̟,,,0
11161180509,"Switz.: Graubünden",46.70013,9.45365,8000,,,,,ʔi̞ʃ,,,0
11161180509,"Switz.: Graubünden",46.70013,9.45365,8310,,,,,ʔi̞s,,,0
11161180509,"Switz.: Graubünden",46.70013,9.45365,8330,,,,,biːs,,,0
11161180509,"Switz.: Graubünden",46.70013,9.45365,8320,,,,,dɾɪŋk̟ʰ,,,0
11161180509,"Switz.: Graubünden",46.70013,9.45365,8510,,,,,..,,,0
11161180509,"Switz.: Graubünden",46.70013,9.45365,8520,,,,,..,,,0
11161180509,"Switz.: Graubünden",46.70013,9.45365,9620,,,,,ˈʔo̞ˑfə,,,0
11161180509,"Switz.: Graubünden",46.70013,9.45365,8120,,,,,sɪ̝ts,,,0
11161180509,"Switz.: Graubünden",46.70013,9.45365,8720,,,,,βäʃ,,,0
11161180509,"Switz.: Graubünden",46.70013,9.45365,8940,,,,,ˈfɛ̝ˑχt,,,0
11161180509,"Switz.: Graubünden",46.70013,9.45365,8990,,,,,ʃβœːɾ̥,,,0
11161180509,"Switz.: Graubünden",46.70013,9.45365,1010,,,,,ʔiː,,,0
11161180509,"Switz.: Graubünden",46.70013,9.45365,1210,,,,,väs,,,0
11161180509,"Switz.: Graubünden",46.70013,9.45365,1410,,,,,ʔɪ̝n,,,0
11161180509,"Switz.: Graubünden",46.70013,9.45365,1430,,,,,uːs,,,0
11161180509,"Switz.: Graubünden",46.70013,9.45365,1460,,,,,ˈʏˑbr̩,,,0
11161180509,"Switz.: Graubünden",46.70013,9.45365,1470,,,,,ˈmi̞tˑi̞,,,0
11161180509,"Switz.: Graubünden",46.70013,9.45365,5010,,,,,dɑ̈ˑɒk,,,0
11161180509,"Switz.: Graubünden",46.70013,9.45365,5020,,,,,na̠ˑχt,,,0
11161180509,"Switz.: Graubünden",46.70013,9.45365,510,,,,,jɑːr,,,0
