LanguageId,LanguageName,Latitude,Longitude,WordId,WordModernName1,WordModernName2,WordProtoName1,WordProtoName2,Phonetic,SpellingAltv1,SpellingAltv2,NotCognateWithMainWordInThisFamily2
11161140139,"Alsace N.: Herrlisheim",48.73006,7.9068,10,one,,oyno,,ʔɛːns,eins,,0
11161140139,"Alsace N.: Herrlisheim",48.73006,7.9068,20,two,,dwaaw,,tsvɛ̝ˑi,zwei,,0
11161140139,"Alsace N.: Herrlisheim",48.73006,7.9068,30,three,,tris,,Array,drei,,0
11161140139,"Alsace N.: Herrlisheim",48.73006,7.9068,40,four,,kwetwores,,fiˑəχ,vier,,0
11161140139,"Alsace N.: Herrlisheim",48.73006,7.9068,50,five,,kwenkwe,,ˈfɪnə̠ɸ,fenef,,0
11161140139,"Alsace N.: Herrlisheim",48.73006,7.9068,60,six,,swexs,,sɪks,sechs,,0
11161140139,"Alsace N.: Herrlisheim",48.73006,7.9068,70,seven,,sextam,,ˈsɛ̝βə,sewe,,0
11161140139,"Alsace N.: Herrlisheim",48.73006,7.9068,80,eight,,oxtuu,,ʔɔːχt,ààcht,,0
11161140139,"Alsace N.: Herrlisheim",48.73006,7.9068,90,nine,,nowan,,niːn,niin,,0
11161140139,"Alsace N.: Herrlisheim",48.73006,7.9068,100,ten,,dekam,,tsɛ̝ː,zehn,,0
11161140139,"Alsace N.: Herrlisheim",48.73006,7.9068,200,hundred,,kantom,,ˈhʊndə̠χt,hùndert,,0
11161140139,"Alsace N.: Herrlisheim",48.73006,7.9068,7820,,,,,ʔɔl,àll,,0
11161140139,"Alsace N.: Herrlisheim",48.73006,7.9068,7020,,,,,vis,wiss,,0
11161140139,"Alsace N.: Herrlisheim",48.73006,7.9068,7030,,,,,ʁo̞ːtʰ,rot,,0
11161140139,"Alsace N.: Herrlisheim",48.73006,7.9068,7040,green,,glastos,,ˈɡʁe̝ːn,grien,,0
11161140139,"Alsace N.: Herrlisheim",48.73006,7.9068,7210,,,,,ˈlɔ̈ŋ,làng,,0
11161140139,"Alsace N.: Herrlisheim",48.73006,7.9068,7410,,,,,ʃɒ̝χf,schàrf,,0
11161140139,"Alsace N.: Herrlisheim",48.73006,7.9068,7840,full,,laanos,,fʊl,voll,,0
11161140139,"Alsace N.: Herrlisheim",48.73006,7.9068,7510,young,,yowankos,,jʊŋ,jùng,,0
11161140139,"Alsace N.: Herrlisheim",48.73006,7.9068,7980,,,,,nɛ̝ˑi,nej,,0
11161140139,"Alsace N.: Herrlisheim",48.73006,7.9068,7670,,,,,ˈnɔkətʰ,nàcket,,0
11161140139,"Alsace N.: Herrlisheim",48.73006,7.9068,7650,,,,,..,,,0
11161140139,"Alsace N.: Herrlisheim",48.73006,7.9068,7660,,,,,fɛ̝ʃt,fescht,,0
11161140139,"Alsace N.: Herrlisheim",48.73006,7.9068,7710,good,,mati,,ɡøˑət,güet,,0
11161140139,"Alsace N.: Herrlisheim",48.73006,7.9068,7910,,,,,vɔːʁ̞m,wàrm,,0
11161140139,"Alsace N.: Herrlisheim",48.73006,7.9068,7920,,,,,kʰɔlt,kàlt,,0
11161140139,"Alsace N.: Herrlisheim",48.73006,7.9068,7560,,,,,sɛ̝ːχ,sehr,,0
11161140139,"Alsace N.: Herrlisheim",48.73006,7.9068,7680,,,,,ˈhäilik̟ʰ,heilig,,0
11161140139,"Alsace N.: Herrlisheim",48.73006,7.9068,7700,,,,,ˈbɛ̝səχ,besser,,0
11161140139,"Alsace N.: Herrlisheim",48.73006,7.9068,810,,,,,ʁäːχt,recht,,0
11161140139,"Alsace N.: Herrlisheim",48.73006,7.9068,2010,head,,kwennom,,hœˑʏpt,Häupt,,0
11161140139,"Alsace N.: Herrlisheim",48.73006,7.9068,2110,,,,,ˈʔœʏjə,Auw,,0
11161140139,"Alsace N.: Herrlisheim",48.73006,7.9068,2130,,,,,ʔoːχ,Ohr,,0
11161140139,"Alsace N.: Herrlisheim",48.73006,7.9068,2140,teardrop,,dakro,,ˈtʁäːnə,Träne,,0
11161140139,"Alsace N.: Herrlisheim",48.73006,7.9068,2210,,,,,mʊnt,Mül,,0
11161140139,"Alsace N.: Herrlisheim",48.73006,7.9068,2230,tongue,,tangwaat,,tsʊŋ,Zùng,,0
11161140139,"Alsace N.: Herrlisheim",48.73006,7.9068,2240,,,,,tsäːn,Zahn,,0
11161140139,"Alsace N.: Herrlisheim",48.73006,7.9068,2310,,,,,hɒnt,Hand,,0
11161140139,"Alsace N.: Herrlisheim",48.73006,7.9068,2510,,,,,ɸe̝ːs,Füess,,0
11161140139,"Alsace N.: Herrlisheim",48.73006,7.9068,2530,,,,,kniː,Knie,,0
11161140139,"Alsace N.: Herrlisheim",48.73006,7.9068,2540,,,,,tseː,Zeh,,0
11161140139,"Alsace N.: Herrlisheim",48.73006,7.9068,2610,,,,,bløːt,Blüet,,0
11161140139,"Alsace N.: Herrlisheim",48.73006,7.9068,2620,,,,,bäˑin,Bei(n),,0
11161140139,"Alsace N.: Herrlisheim",48.73006,7.9068,2640,,,,,ˈnäːjəl,Najel,,0
11161140139,"Alsace N.: Herrlisheim",48.73006,7.9068,2810,,,,,häχts,Herz,,0
11161140139,"Alsace N.: Herrlisheim",48.73006,7.9068,2840,,,,,Array,Lewer,,0
11161140139,"Alsace N.: Herrlisheim",48.73006,7.9068,4310,,,,,ˈmøˑətə̠χ,Müeder,,0
11161140139,"Alsace N.: Herrlisheim",48.73006,7.9068,4320,,,,,ˈfɒtə̠χ,Vàter,,0
11161140139,"Alsace N.: Herrlisheim",48.73006,7.9068,4410,,,,,ˈdo̞ːχtə̠χ,Tochter,,0
11161140139,"Alsace N.: Herrlisheim",48.73006,7.9068,4330,,,,,ˈbʁe̝ːdə̠χ,Brüeder,,0
11161140139,"Alsace N.: Herrlisheim",48.73006,7.9068,4100,name,,anuman,,ˈnɒmə,Nàmme,,0
11161140139,"Alsace N.: Herrlisheim",48.73006,7.9068,4110,,,,,voχt,Wort,,0
11161140139,"Alsace N.: Herrlisheim",48.73006,7.9068,3120,,,,,hʊnt,Hùnd,,0
11161140139,"Alsace N.: Herrlisheim",48.73006,7.9068,3150,,,,,myːs,Müs,,0
11161140139,"Alsace N.: Herrlisheim",48.73006,7.9068,3230,,,,,ɡɔns,Gàns,,0
11161140139,"Alsace N.: Herrlisheim",48.73006,7.9068,3310,,,,,kʰyː,Küh,,0
11161140139,"Alsace N.: Herrlisheim",48.73006,7.9068,3320,,,,,lɔ̈m,Lamm,,0
11161140139,"Alsace N.: Herrlisheim",48.73006,7.9068,3340,,,,,kʰɔlp,Kàlb,,0
11161140139,"Alsace N.: Herrlisheim",48.73006,7.9068,3240,,,,,fɪʃ,Fìsch,,0
11161140139,"Alsace N.: Herrlisheim",48.73006,7.9068,3820,,,,,ˈhoʁ̞ən,Horn,,0
11161140139,"Alsace N.: Herrlisheim",48.73006,7.9068,3900,,,,,ˈvʊlə,Wolle,,0
11161140139,"Alsace N.: Herrlisheim",48.73006,7.9068,5120,,,,,moːn,Mond,,0
11161140139,"Alsace N.: Herrlisheim",48.73006,7.9068,5260,,,,,noχt,Nord,,0
11161140139,"Alsace N.: Herrlisheim",48.73006,7.9068,5510,,,,,ʃtɛ̝ːn,Stein,,0
11161140139,"Alsace N.: Herrlisheim",48.73006,7.9068,5430,,,,,ˈʔäʃə,Asch,,0
11161140139,"Alsace N.: Herrlisheim",48.73006,7.9068,5520,soil,,kwriiyets,,ʔäχt,Erd,,0
11161140139,"Alsace N.: Herrlisheim",48.73006,7.9068,6260,,,,,läipʰ,Loib,,0
11161140139,"Alsace N.: Herrlisheim",48.73006,7.9068,6270,,,,,ˈtoʁ̞ən,Dorn,,0
11161140139,"Alsace N.: Herrlisheim",48.73006,7.9068,6290,,,,,ʔäiʃ,Eich,,0
11161140139,"Alsace N.: Herrlisheim",48.73006,7.9068,5810,,,,,ˈʁäːjə,Räje,,0
11161140139,"Alsace N.: Herrlisheim",48.73006,7.9068,5910,,,,,ˈʃtʊʁ̞m̩,Stùrm,,0
11161140139,"Alsace N.: Herrlisheim",48.73006,7.9068,5920,,,,,ˈdonəχ,Donner,,0
11161140139,"Alsace N.: Herrlisheim",48.73006,7.9068,5820,,,,,ʃne̝ː,Schnee,,0
11161140139,"Alsace N.: Herrlisheim",48.73006,7.9068,5830,,,,,ʔiˑs,Iss,,0
11161140139,"Alsace N.: Herrlisheim",48.73006,7.9068,5850,wind,,wintos,,vɪnt,Wind,,0
11161140139,"Alsace N.: Herrlisheim",48.73006,7.9068,6000,,,,,ˈhʊŋəχ,Hùnger,,0
11161140139,"Alsace N.: Herrlisheim",48.73006,7.9068,6050,,,,,ˈmɪlɪʃ,Melich,,0
11161140139,"Alsace N.: Herrlisheim",48.73006,7.9068,6150,,,,,ˈhonik̟,Honig,,0
11161140139,"Alsace N.: Herrlisheim",48.73006,7.9068,6040,salt,,salanos,,sɔls,Sàlz,,0
11161140139,"Alsace N.: Herrlisheim",48.73006,7.9068,6070,grain,,graanom,,kʰoʁən,Korn,,0
11161140139,"Alsace N.: Herrlisheim",48.73006,7.9068,6510,,,,,hyˑs,Hüs,,0
11161140139,"Alsace N.: Herrlisheim",48.73006,7.9068,6560,,,,,häːm,Heim,,0
11161140139,"Alsace N.: Herrlisheim",48.73006,7.9068,6540,,,,,ˈɡɔːχtə,Gàrte,,0
11161140139,"Alsace N.: Herrlisheim",48.73006,7.9068,6550,,,,,ˈʔofə,Offe,,0
11161140139,"Alsace N.: Herrlisheim",48.73006,7.9068,6570,,,,,ʃtøːl,Stüehl,,0
11161140139,"Alsace N.: Herrlisheim",48.73006,7.9068,6580,,,,,bɔːt,Bàd,,0
11161140139,"Alsace N.: Herrlisheim",48.73006,7.9068,6600,,,,,dɪŋ,Ding,,0
11161140139,"Alsace N.: Herrlisheim",48.73006,7.9068,1440,,,,,..,Topf,,0
11161140139,"Alsace N.: Herrlisheim",48.73006,7.9068,6630,,,,,ˈnäːdl̩,Nodel,,0
11161140139,"Alsace N.: Herrlisheim",48.73006,7.9068,6640,,,,,ʁɪŋ,Ring,,0
11161140139,"Alsace N.: Herrlisheim",48.73006,7.9068,8000,,,,,ʔɪs,ìsch,,0
11161140139,"Alsace N.: Herrlisheim",48.73006,7.9068,8310,,,,,ʔɪs,ìss!,,0
11161140139,"Alsace N.: Herrlisheim",48.73006,7.9068,8330,,,,,biˑs,biss!,,0
11161140139,"Alsace N.: Herrlisheim",48.73006,7.9068,8320,,,,,tʁ̥ɪŋk̟,trìnk!,,0
11161140139,"Alsace N.: Herrlisheim",48.73006,7.9068,8510,,,,,seː,sieh!,,0
11161140139,"Alsace N.: Herrlisheim",48.73006,7.9068,8520,,,,,he̝ːχ,heer!,,0
11161140139,"Alsace N.: Herrlisheim",48.73006,7.9068,9620,,,,,ˈʔofə,offe,,0
11161140139,"Alsace N.: Herrlisheim",48.73006,7.9068,8120,,,,,sɪts,sitz!,,0
11161140139,"Alsace N.: Herrlisheim",48.73006,7.9068,8720,,,,,väʃ,wasch!,,0
11161140139,"Alsace N.: Herrlisheim",48.73006,7.9068,8940,,,,,..,,,0
11161140139,"Alsace N.: Herrlisheim",48.73006,7.9068,8990,,,,,ʃvœːχ,schweer!,,0
11161140139,"Alsace N.: Herrlisheim",48.73006,7.9068,1010,,,,,ʔɪʃ,ìch,,0
11161140139,"Alsace N.: Herrlisheim",48.73006,7.9068,1210,,,,,βɒs,wàs?,,0
11161140139,"Alsace N.: Herrlisheim",48.73006,7.9068,1410,,,,,ʔɪn,ìn,,0
11161140139,"Alsace N.: Herrlisheim",48.73006,7.9068,1430,,,,,ʔyˑs,üs,,0
11161140139,"Alsace N.: Herrlisheim",48.73006,7.9068,1460,,,,,ˈʔe̝βə̠χ,ewer,,0
11161140139,"Alsace N.: Herrlisheim",48.73006,7.9068,1470,,,,,ˈmɪdə,Mìtte,,0
11161140139,"Alsace N.: Herrlisheim",48.73006,7.9068,5010,,,,,dœː,Dàà,,0
11161140139,"Alsace N.: Herrlisheim",48.73006,7.9068,5020,,,,,nɔːχt,Nàcht,,0
11161140139,"Alsace N.: Herrlisheim",48.73006,7.9068,510,,,,,joːχ,Johr,,0
