LanguageId,LanguageName,Latitude,Longitude,WordId,WordModernName1,WordModernName2,WordProtoName1,WordProtoName2,Phonetic,SpellingAltv1,SpellingAltv2,NotCognateWithMainWordInThisFamily2
11151120109,"Franc. C.: Luxemburg",49.6,6.11667,10,one,,oyno,,ʔeːnt,eent,,0
11151120109,"Franc. C.: Luxemburg",49.6,6.11667,20,two,,dwaaw,,tsveː,zwee,,0
11151120109,"Franc. C.: Luxemburg",49.6,6.11667,30,three,,tris,,dʀaˑɪ,dräi,,0
11151120109,"Franc. C.: Luxemburg",49.6,6.11667,40,four,,kwetwores,,fə̆ɪˑɜ̠,véier,,0
11151120109,"Franc. C.: Luxemburg",49.6,6.11667,50,five,,kwenkwe,,ˈfɨ̞nəf,fënnef,,0
11151120109,"Franc. C.: Luxemburg",49.6,6.11667,60,six,,swexs,,zɛks,sechs,,0
11151120109,"Franc. C.: Luxemburg",49.6,6.11667,70,seven,,sextam,,ˈziːvən,siwen,,0
11151120109,"Franc. C.: Luxemburg",49.6,6.11667,80,eight,,oxtuu,,ʔa̠ːχt,aacht,,0
11151120109,"Franc. C.: Luxemburg",49.6,6.11667,90,nine,,nowan,,nɪŋ,néng,,0
11151120109,"Franc. C.: Luxemburg",49.6,6.11667,100,ten,,dekam,,tsɪŋ,zéng,,0
11151120109,"Franc. C.: Luxemburg",49.6,6.11667,200,hundred,,kantom,,ˈhɔnɐt,honnert,,0
11151120109,"Franc. C.: Luxemburg",49.6,6.11667,7820,,,,,ʔäl,all,,0
11151120109,"Franc. C.: Luxemburg",49.6,6.11667,7020,,,,,væ̈iˑs,wäiss,,0
11151120109,"Franc. C.: Luxemburg",49.6,6.11667,7030,,,,,ʀoːt,rout,,0
11151120109,"Franc. C.: Luxemburg",49.6,6.11667,7040,green,,glastos,,ɡʁɪŋ,gréng,,0
11151120109,"Franc. C.: Luxemburg",49.6,6.11667,7210,,,,,la̠ːŋ,laang,,0
11151120109,"Franc. C.: Luxemburg",49.6,6.11667,7410,,,,,ʃa̠ːf,schaarf,,0
11151120109,"Franc. C.: Luxemburg",49.6,6.11667,7840,full,,laanos,,fʊ̞l,foll,,0
11151120109,"Franc. C.: Luxemburg",49.6,6.11667,7510,young,,yowankos,,jʊŋk,jonk,,0
11151120109,"Franc. C.: Luxemburg",49.6,6.11667,7980,,,,,nɑ̟ˑɪ,nei,,0
11151120109,"Franc. C.: Luxemburg",49.6,6.11667,7670,,,,,..,plakeg,,0
11151120109,"Franc. C.: Luxemburg",49.6,6.11667,7650,,,,,..,,,0
11151120109,"Franc. C.: Luxemburg",49.6,6.11667,7660,,,,,fɛ̞st,fest,,0
11151120109,"Franc. C.: Luxemburg",49.6,6.11667,7710,good,,mati,,ɡʊt,gutt,,0
11151120109,"Franc. C.: Luxemburg",49.6,6.11667,7910,,,,,va̠ːm,waarm,,0
11151120109,"Franc. C.: Luxemburg",49.6,6.11667,7920,,,,,kʰa̠ːl,kal,,0
11151120109,"Franc. C.: Luxemburg",49.6,6.11667,7560,,,,,zɛɪɐ,séier,,0
11151120109,"Franc. C.: Luxemburg",49.6,6.11667,7680,,,,,ˈhɛləʃ,helleg,,0
11151120109,"Franc. C.: Luxemburg",49.6,6.11667,7700,,,,,ˈbɛ̞sʌ̞̈,besser,,0
11151120109,"Franc. C.: Luxemburg",49.6,6.11667,810,,,,,ʀiˑəts,riets,,0
11151120109,"Franc. C.: Luxemburg",49.6,6.11667,2010,head,,kwennom,,ha̠ːpt,Haapt,,0
11151120109,"Franc. C.: Luxemburg",49.6,6.11667,2110,,,,,ʔa̠ː,A,,0
11151120109,"Franc. C.: Luxemburg",49.6,6.11667,2130,,,,,ʔœ̈ʊɑ̈,Ouer,,0
11151120109,"Franc. C.: Luxemburg",49.6,6.11667,2140,teardrop,,dakro,,tʰʀɛɪn,Tréin,,0
11151120109,"Franc. C.: Luxemburg",49.6,6.11667,2210,,,,,mɔnt,Mond,,0
11151120109,"Franc. C.: Luxemburg",49.6,6.11667,2230,tongue,,tangwaat,,tsɔŋ,Zong,,0
11151120109,"Franc. C.: Luxemburg",49.6,6.11667,2240,,,,,tsänt,Zant,,0
11151120109,"Franc. C.: Luxemburg",49.6,6.11667,2310,,,,,hänt,Hand,,0
11151120109,"Franc. C.: Luxemburg",49.6,6.11667,2510,,,,,fœ̈ʊˑs,Fouss,,0
11151120109,"Franc. C.: Luxemburg",49.6,6.11667,2530,,,,,kʰnɛiˑ,Knéi,,0
11151120109,"Franc. C.: Luxemburg",49.6,6.11667,2540,,,,,tsɛi̞f,Zéif,,0
11151120109,"Franc. C.: Luxemburg",49.6,6.11667,2610,,,,,blʊ̈ts,Blutt,,0
11151120109,"Franc. C.: Luxemburg",49.6,6.11667,2620,,,,,beːn,Been,,0
11151120109,"Franc. C.: Luxemburg",49.6,6.11667,2640,,,,,noːl,Nol,,0
11151120109,"Franc. C.: Luxemburg",49.6,6.11667,2810,,,,,he̞ɐts,Häerz,,0
11151120109,"Franc. C.: Luxemburg",49.6,6.11667,2840,,,,,ˈlɪəvʌ̞̈,Liewer,,0
11151120109,"Franc. C.: Luxemburg",49.6,6.11667,4310,,,,,mäm,Mamm,,0
11151120109,"Franc. C.: Luxemburg",49.6,6.11667,4320,,,,,päp,Papp,,0
11151120109,"Franc. C.: Luxemburg",49.6,6.11667,4410,,,,,ˈdʊɪʃtɐ,Duechter,,0
11151120109,"Franc. C.: Luxemburg",49.6,6.11667,4330,,,,,ˈbʁʊ̞dɐˑ,Brudder,,0
11151120109,"Franc. C.: Luxemburg",49.6,6.11667,4100,name,,anuman,,nɵ̟m,Numm,,0
11151120109,"Franc. C.: Luxemburg",49.6,6.11667,4110,,,,,vʊˑɛ̈t,Wuert,,0
11151120109,"Franc. C.: Luxemburg",49.6,6.11667,3120,,,,,hʊ̞nt,Hond,,0
11151120109,"Franc. C.: Luxemburg",49.6,6.11667,3150,,,,,mæ̈ˑʊs,Maus,,0
11151120109,"Franc. C.: Luxemburg",49.6,6.11667,3230,,,,,ɡæns,Gäns,,0
11151120109,"Franc. C.: Luxemburg",49.6,6.11667,3310,,,,,kʰœ̈ʊˑ,Kou,,0
11151120109,"Franc. C.: Luxemburg",49.6,6.11667,3320,,,,,läm,Lamm,,0
11151120109,"Franc. C.: Luxemburg",49.6,6.11667,3340,,,,,ˈkʰäləf,Kallef,,0
11151120109,"Franc. C.: Luxemburg",49.6,6.11667,3240,,,,,fəʃ,Fësch,,0
11151120109,"Franc. C.: Luxemburg",49.6,6.11667,3820,,,,,Array,Har,,0
11151120109,"Franc. C.: Luxemburg",49.6,6.11667,3900,,,,,vɔ̝̈l,Woll,,0
11151120109,"Franc. C.: Luxemburg",49.6,6.11667,5120,,,,,mɔ̟nt,Mound,,0
11151120109,"Franc. C.: Luxemburg",49.6,6.11667,5260,,,,,ˈnʊəʁdən,Norden,,0
11151120109,"Franc. C.: Luxemburg",49.6,6.11667,5510,,,,,steːn,Steen,,0
11151120109,"Franc. C.: Luxemburg",49.6,6.11667,5430,,,,,ʔäks,Äschen,,0
11151120109,"Franc. C.: Luxemburg",49.6,6.11667,5520,soil,,kwriiyets,,ʔeˑɐt,Buedem,,0
11151120109,"Franc. C.: Luxemburg",49.6,6.11667,6260,,,,,..,Laf,,0
11151120109,"Franc. C.: Luxemburg",49.6,6.11667,6270,,,,,dɔ̞ɐˑ,Dar,,0
11151120109,"Franc. C.: Luxemburg",49.6,6.11667,6290,,,,,ʔeːʃ,Eech,,0
11151120109,"Franc. C.: Luxemburg",49.6,6.11667,5810,,,,,ʁeːn,Reen,,0
11151120109,"Franc. C.: Luxemburg",49.6,6.11667,5910,,,,,ʃtʊɛ̈m,Stuerm,,0
11151120109,"Franc. C.: Luxemburg",49.6,6.11667,5920,,,,,ˈdɔ̝̈nʌ̞̈,Donner,,0
11151120109,"Franc. C.: Luxemburg",49.6,6.11667,5820,,,,,ʃnɛiˑ,Schnéi,,0
11151120109,"Franc. C.: Luxemburg",49.6,6.11667,5830,,,,,ʔæ̈iˑs,Äis,,0
11151120109,"Franc. C.: Luxemburg",49.6,6.11667,5850,wind,,wintos,,vänt,Wand,,0
11151120109,"Franc. C.: Luxemburg",49.6,6.11667,6000,,,,,ˈhʊŋʌ̞̈,Honger,,0
11151120109,"Franc. C.: Luxemburg",49.6,6.11667,6050,,,,,ˈmɨ̞lɪ̠ʃ,Mëllech,,0
11151120109,"Franc. C.: Luxemburg",49.6,6.11667,6150,,,,,ˈhʊnəʃ,Hunneg,,0
11151120109,"Franc. C.: Luxemburg",49.6,6.11667,6040,salt,,salanos,,zälts,Salz,,0
11151120109,"Franc. C.: Luxemburg",49.6,6.11667,6070,grain,,graanom,,kʰa̠ːχ,Kar,,0
11151120109,"Franc. C.: Luxemburg",49.6,6.11667,6510,,,,,hɛ̈ʊˑs,Haus,,0
11151120109,"Franc. C.: Luxemburg",49.6,6.11667,6560,,,,,he̝ːm,heem,,0
11151120109,"Franc. C.: Luxemburg",49.6,6.11667,6540,,,,,ɡa̠ːχt,Gaart,,0
11151120109,"Franc. C.: Luxemburg",49.6,6.11667,6550,,,,,ʔʊɛ̈vən,Uewen,,0
11151120109,"Franc. C.: Luxemburg",49.6,6.11667,6570,,,,,ʃtʊl,Stull,,0
11151120109,"Franc. C.: Luxemburg",49.6,6.11667,6580,,,,,bʊɛ̈t,Bad,,0
11151120109,"Franc. C.: Luxemburg",49.6,6.11667,6600,,,,,ˈdɪŋən,Déngen,,0
11151120109,"Franc. C.: Luxemburg",49.6,6.11667,1440,,,,,..,Dëppen,,0
11151120109,"Franc. C.: Luxemburg",49.6,6.11667,6630,,,,,nʊl,Nol,,0
11151120109,"Franc. C.: Luxemburg",49.6,6.11667,6640,,,,,ʁɐŋ,Rank,,0
11151120109,"Franc. C.: Luxemburg",49.6,6.11667,8000,,,,,ɐs,ass,,0
11151120109,"Franc. C.: Luxemburg",49.6,6.11667,8310,,,,,iˑɛ̈s,iess!,,0
11151120109,"Franc. C.: Luxemburg",49.6,6.11667,8330,,,,,bæ̈iˑs,bäiss!,,0
11151120109,"Franc. C.: Luxemburg",49.6,6.11667,8320,,,,,dʀɪŋˑk,drénk!,,0
11151120109,"Franc. C.: Luxemburg",49.6,6.11667,8510,,,,,..,kuck!,,0
11151120109,"Franc. C.: Luxemburg",49.6,6.11667,8520,,,,,,héier!,,0
11151120109,"Franc. C.: Luxemburg",49.6,6.11667,9620,,,,,ˈʔʊ̞pən,oppen,,0
11151120109,"Franc. C.: Luxemburg",49.6,6.11667,8120,,,,,zɨ̞ts,sëtz!,,0
11151120109,"Franc. C.: Luxemburg",49.6,6.11667,8720,,,,,væʃ,wäsch!,,0
11151120109,"Franc. C.: Luxemburg",49.6,6.11667,8940,,,,,fæʃt,fecht!,,0
11151120109,"Franc. C.: Luxemburg",49.6,6.11667,8990,,,,,ʃviˑɛ̈,schwier!,,0
11151120109,"Franc. C.: Luxemburg",49.6,6.11667,1010,,,,,ʔœ̈ʃ,ech,,0
11151120109,"Franc. C.: Luxemburg",49.6,6.11667,1210,,,,,va̠ːt,wat?,,0
11151120109,"Franc. C.: Luxemburg",49.6,6.11667,1410,,,,,ʔän,an,,0
11151120109,"Franc. C.: Luxemburg",49.6,6.11667,1430,,,,,ʔæ̈ˑʊs,aus,,0
11151120109,"Franc. C.: Luxemburg",49.6,6.11667,1460,,,,,ˈʔiväˑ,ivver,,0
11151120109,"Franc. C.: Luxemburg",49.6,6.11667,1470,,,,,mɨ̞t,Mëtt,,0
11151120109,"Franc. C.: Luxemburg",49.6,6.11667,5010,,,,,da̠ːχ,Dag,,0
11151120109,"Franc. C.: Luxemburg",49.6,6.11667,5020,,,,,nuɛ̈ʃt,Nuecht,,0
11151120109,"Franc. C.: Luxemburg",49.6,6.11667,510,,,,,joˑɐ,Joer,,0
