LanguageId,LanguageName,Latitude,Longitude,WordId,WordModernName1,WordModernName2,WordProtoName1,WordProtoName2,Phonetic,SpellingAltv1,SpellingAltv2,NotCognateWithMainWordInThisFamily2
11141263309,"Westphalia: Münsterland",52.07812,8.03345,10,one,,ainaz,,ḛɪnə,een,,0
11141263309,"Westphalia: Münsterland",52.07812,8.03345,20,two,,twou,,ṯβ̞eːə,twe,,0
11141263309,"Westphalia: Münsterland",52.07812,8.03345,30,three,,threjez,,dɾeɪə,drai,,0
11141263309,"Westphalia: Münsterland",52.07812,8.03345,40,four,,fedworez,,fe̞ːɾə,"veer, vere",,0
11141263309,"Westphalia: Münsterland",52.07812,8.03345,50,five,,fenfe,,fiːʋə,"fiew, fiwe",,0
11141263309,"Westphalia: Münsterland",52.07812,8.03345,60,six,,sexs,,sɛsə,ses,,0
11141263309,"Westphalia: Münsterland",52.07812,8.03345,70,seven,,sebun,,siˑəm,siëm,,0
11141263309,"Westphalia: Münsterland",52.07812,8.03345,80,eight,,axtou,,ʔaxt,acht,,0
11141263309,"Westphalia: Münsterland",52.07812,8.03345,90,nine,,newun,,niəgn̩,niëgen,,0
11141263309,"Westphalia: Münsterland",52.07812,8.03345,100,ten,,texun,,ṯaɪn,tain,,0
11141263309,"Westphalia: Münsterland",52.07812,8.03345,200,hundred,,xundaradan,,hʊnɔṯʰ,hunnert,,0
11141263309,"Westphalia: Münsterland",52.07812,8.03345,7820,all,,allaz,,ʔɔl,al-,,0
11141263309,"Westphalia: Münsterland",52.07812,8.03345,7020,white,,xwitaz,,vɪtʰ,wit,,0
11141263309,"Westphalia: Münsterland",52.07812,8.03345,7030,red,,raudaz,,(h)r̞aʊtʰ,raud,,0
11141263309,"Westphalia: Münsterland",52.07812,8.03345,7040,green,,groniz,,ɣrœ̝ə̟n,gröön,,0
11141263309,"Westphalia: Münsterland",52.07812,8.03345,7210,long,,langaz,,laŋ,lang,,0
11141263309,"Westphalia: Münsterland",52.07812,8.03345,7410,sharp,,skarpaz,,ʃa̱̱ˤːp,scharp,,0
11141263309,"Westphalia: Münsterland",52.07812,8.03345,7840,full,,fullaz,,fʊl,vul,,0
11141263309,"Westphalia: Münsterland",52.07812,8.03345,7510,young,,jungaz,,jʊŋg̥,jung,,0
11141263309,"Westphalia: Münsterland",52.07812,8.03345,7980,new,,neujaz,,nɪgəs,ni,,0
11141263309,"Westphalia: Münsterland",52.07812,8.03345,7670,naked,,nakwadaz,,nakɪç,"naak, naken",,0
11141263309,"Westphalia: Münsterland",52.07812,8.03345,7660,fast,,fastaz,,fas(t)ə,fast,,0
11141263309,"Westphalia: Münsterland",52.07812,8.03345,7710,good,,godaz,,ɣuːəṯ,guët,,0
11141263309,"Westphalia: Münsterland",52.07812,8.03345,7910,warm,,warmaz,,väːm,waam,,0
11141263309,"Westphalia: Münsterland",52.07812,8.03345,7920,cold,,kaldaz,,kʰɔlt,kolt,,0
11141263309,"Westphalia: Münsterland",52.07812,8.03345,7560,sore,,sairaz,,dʏftɪç,düftig,,1
11141263309,"Westphalia: Münsterland",52.07812,8.03345,7680,holy,,xailagaz,,hɪlɪç,hillig,,0
11141263309,"Westphalia: Münsterland",52.07812,8.03345,7700,better,,batizon,,biɛṯə,biäter,,0
11141263309,"Westphalia: Münsterland",52.07812,8.03345,810,right,,rextaz,,r̞ɛçtʰ,Rächt,,0
11141263309,"Westphalia: Münsterland",52.07812,8.03345,2010,head,,xaubadan,,haʊpṯ,Höft,,0
11141263309,"Westphalia: Münsterland",52.07812,8.03345,2110,eye,,augon,,dœpə,Döppe,,1
11141263309,"Westphalia: Münsterland",52.07812,8.03345,2130,ear,,auzon,,ʔɔːɐ,Aor,,0
11141263309,"Westphalia: Münsterland",52.07812,8.03345,2140,tear,,taxruz,,ṯrɛːṇ,Träöne,,0
11141263309,"Westphalia: Münsterland",52.07812,8.03345,2210,mouth,,munthaz,,muːl,Mund,,1
11141263309,"Westphalia: Münsterland",52.07812,8.03345,2230,tongue,,tungon,,ṯʰʊŋən,Tunge,,0
11141263309,"Westphalia: Münsterland",52.07812,8.03345,2240,tooth,,tanthz,,ṯʰan,Tan,,0
11141263309,"Westphalia: Münsterland",52.07812,8.03345,2310,hand,,xanduz,,hand̥,Hand,,0
11141263309,"Westphalia: Münsterland",52.07812,8.03345,2510,foot,,fotz,,fo̞ʊt,Foot,,0
11141263309,"Westphalia: Münsterland",52.07812,8.03345,2530,knee,,knewan,,kʰnɛɪ,Knai,,0
11141263309,"Westphalia: Münsterland",52.07812,8.03345,2540,toe,,taixwon,,ṯʰaɪn,Teent,,0
11141263309,"Westphalia: Münsterland",52.07812,8.03345,2610,blood,,blodan,,blo̞ʊṯʰ,Blood,,0
11141263309,"Westphalia: Münsterland",52.07812,8.03345,2620,bone,,bainan,,bɛɪ̃n,Been,,0
11141263309,"Westphalia: Münsterland",52.07812,8.03345,2640,nail,,naglaz,,näːgḷ,Nagel,,0
11141263309,"Westphalia: Münsterland",52.07812,8.03345,2810,heart,,xerton,,jiɛṯə,Hiärt,,0
11141263309,"Westphalia: Münsterland",52.07812,8.03345,2840,liver,,libaro,,liɛʋɐ,Liäwer,,0
11141263309,"Westphalia: Münsterland",52.07812,8.03345,4310,mother,,moder,,mo̞ʊdɞ,Moder,,0
11141263309,"Westphalia: Münsterland",52.07812,8.03345,4320,father,,fader,,fæːdɞ,Vader,,0
11141263309,"Westphalia: Münsterland",52.07812,8.03345,4410,daughter,,duxter,,dɔχtɞ,Dochter,,0
11141263309,"Westphalia: Münsterland",52.07812,8.03345,4330,brother,,brother,,bɾoˑə,Broer,,0
11141263309,"Westphalia: Münsterland",52.07812,8.03345,4100,name,,namon,,næːm,Naome,,0
11141263309,"Westphalia: Münsterland",52.07812,8.03345,4110,word,,wurdan,,vɔːəṯ,Waod,,0
11141263309,"Westphalia: Münsterland",52.07812,8.03345,3120,hound,,xundaz,,ryˑə,Rüen,,0
11141263309,"Westphalia: Münsterland",52.07812,8.03345,3150,mouse,,musz,,muːs,Muus,,0
11141263309,"Westphalia: Münsterland",52.07812,8.03345,3230,goose,,gansz,,ɣaus,Gaus,,0
11141263309,"Westphalia: Münsterland",52.07812,8.03345,3310,cow,,kowz,,kʰoˑw,Kau,,0
11141263309,"Westphalia: Münsterland",52.07812,8.03345,3320,lamb,,lambaz,,lam,,,0
11141263309,"Westphalia: Münsterland",52.07812,8.03345,3340,calf,,kalbaz,,kʰalf,Kalw,,0
11141263309,"Westphalia: Münsterland",52.07812,8.03345,3240,fish,,fiskaz,,fɪsk,Fisk,,0
11141263309,"Westphalia: Münsterland",52.07812,8.03345,3820,horn,,xurnan,,hœ̝ːɾṇ,Häön,,0
11141263309,"Westphalia: Münsterland",52.07812,8.03345,3900,wool,,wullo,,vʊlə,Wulle,,0
11141263309,"Westphalia: Münsterland",52.07812,8.03345,5120,moon,,menon,,maʊnd̥,Maond,,0
11141263309,"Westphalia: Münsterland",52.07812,8.03345,5260,north,,nurthaz,,nɔːṯʰ,Nuorden,,0
11141263309,"Westphalia: Münsterland",52.07812,8.03345,5510,stone,,stainaz,,ʃtɛɪ̃n,Steen,,0
11141263309,"Westphalia: Münsterland",52.07812,8.03345,5430,ash,,askon,,ʔaskə,Aske,,0
11141263309,"Westphalia: Münsterland",52.07812,8.03345,5520,earth,,ertho,,ʔɛːḏṇ,Äer,,0
11141263309,"Westphalia: Münsterland",52.07812,8.03345,6260,leaf,,lauban,,laʊf,Lauw,,0
11141263309,"Westphalia: Münsterland",52.07812,8.03345,6270,thorn,,thurnuz,,dœ̝ɾṇ,Däön,,0
11141263309,"Westphalia: Münsterland",52.07812,8.03345,6290,oak,,aikz,,"ʔɛɪk ʰən",Eke,,0
11141263309,"Westphalia: Münsterland",52.07812,8.03345,5810,rain,,regnan,,r̞iɛŋə̃n,Riängen,,0
11141263309,"Westphalia: Münsterland",52.07812,8.03345,5910,storm,,sturmaz,,ʃtuˑəm,Stuorm,,0
11141263309,"Westphalia: Münsterland",52.07812,8.03345,5920,thunder,,thunraz,,dʊnə̞,Dunner,,0
11141263309,"Westphalia: Münsterland",52.07812,8.03345,5820,snow,,snaigwaz,,ʃnɛ̈ɪ,Snai,,0
11141263309,"Westphalia: Münsterland",52.07812,8.03345,5830,ice,,isaz,,ʔiːs,Ies,,0
11141263309,"Westphalia: Münsterland",52.07812,8.03345,5850,wind,,wendaz,,viːntʰ,Wind,,0
11141263309,"Westphalia: Münsterland",52.07812,8.03345,6000,hunger,,xungruz,,ʃmaxtʰ,Smacht,,1
11141263309,"Westphalia: Münsterland",52.07812,8.03345,6050,milk,,melkaz,,miəlkə,Miälk,,0
11141263309,"Westphalia: Münsterland",52.07812,8.03345,6150,honey,,hunagan,,haːnɪç,Hannig,,0
11141263309,"Westphalia: Münsterland",52.07812,8.03345,6040,salt,,saltan,,sɔltʰ,Solt,,0
11141263309,"Westphalia: Münsterland",52.07812,8.03345,6070,corn,,kurnan,,kʰœ̝ɾṇ,Koarn,,0
11141263309,"Westphalia: Münsterland",52.07812,8.03345,6510,house,,xusan,,huːs,Huus,,0
11141263309,"Westphalia: Münsterland",52.07812,8.03345,6560,home,,xaimaz,,haɪm,Heem,,0
11141263309,"Westphalia: Münsterland",52.07812,8.03345,6540,yard,,gardaz,,ɣɔːṇ,Gaorn,,0
11141263309,"Westphalia: Münsterland",52.07812,8.03345,6550,oven,,ufnaz,,uˑɔvṇ,Uom,,0
11141263309,"Westphalia: Münsterland",52.07812,8.03345,6570,stool,,stolaz,,ʃto̝ʊl,Stool,,0
11141263309,"Westphalia: Münsterland",52.07812,8.03345,6580,bath,,bathan,,baṯʰ,Baad,,0
11141263309,"Westphalia: Münsterland",52.07812,8.03345,6600,thing,,thengaz,,dɪŋg,Dingen,,0
11141263309,"Westphalia: Münsterland",52.07812,8.03345,1440,top,,tuppaz,,pɔtʰ,Pot,,1
11141263309,"Westphalia: Münsterland",52.07812,8.03345,6630,needle,,nethlo,,naʊdɫ̣,Naodel,,0
11141263309,"Westphalia: Münsterland",52.07812,8.03345,6640,ring,,xrengaz,,(h)r̞ɪŋ,Kring,,0
11141263309,"Westphalia: Münsterland",52.07812,8.03345,8000,is,,esti,,ʔɪs,is,,0
11141263309,"Westphalia: Münsterland",52.07812,8.03345,8310,eat,,etanan,,ʔɛtʰ,iät!,,0
11141263309,"Westphalia: Münsterland",52.07812,8.03345,8330,bite,,bitanan,,bɪtʰ,biet!,,0
11141263309,"Westphalia: Münsterland",52.07812,8.03345,8320,drink,,drenkanan,,drɪŋk,drink!,,0
11141263309,"Westphalia: Münsterland",52.07812,8.03345,8510,see,,sexwanan,,syː,sü!,,0
11141263309,"Westphalia: Münsterland",52.07812,8.03345,8520,hear,,xauzjanan,,hœ̝ˑə,häör!,,0
11141263309,"Westphalia: Münsterland",52.07812,8.03345,9620,open,,upanaz,,ʔoːpṃ,uopen,,0
11141263309,"Westphalia: Münsterland",52.07812,8.03345,8120,sit,,setjanan,,sɪtʰ,sit!,,0
11141263309,"Westphalia: Münsterland",52.07812,8.03345,8720,wash,,waskanan,,vask,wask!,,0
11141263309,"Westphalia: Münsterland",52.07812,8.03345,8940,fight,,fextanan,,fɛçtʰ,fächt!,,0
11141263309,"Westphalia: Münsterland",52.07812,8.03345,8990,swear,,swarjanan,,ʃʋœ̝ˑə,swüör!,,0
11141263309,"Westphalia: Münsterland",52.07812,8.03345,1010,I,,eka,,ʔɪkʰ,ik,,0
11141263309,"Westphalia: Münsterland",52.07812,8.03345,1210,what,,xwat,,vatʰ,wat,,0
11141263309,"Westphalia: Münsterland",52.07812,8.03345,1410,in,,eni,,ʔɪn,in,,0
11141263309,"Westphalia: Münsterland",52.07812,8.03345,1430,out,,ut,,ʔuːtʰ,uut,,0
11141263309,"Westphalia: Münsterland",52.07812,8.03345,1460,over,,uberi,,ʏœvɐ,üöwer,,0
11141263309,"Westphalia: Münsterland",52.07812,8.03345,1470,mid,,medjaz,,mɪdɪç,Midde,,0
11141263309,"Westphalia: Münsterland",52.07812,8.03345,5010,day,,dagaz,,dax,Dag,,0
11141263309,"Westphalia: Münsterland",52.07812,8.03345,5020,night,,naxtz,,naxt,Nacht,,0
11141263309,"Westphalia: Münsterland",52.07812,8.03345,510,year,,jeran,,jɔˑɐ,Jaor,,0
