LanguageId,LanguageName,Latitude,Longitude,WordId,WordModernName1,WordModernName2,WordProtoName1,WordProtoName2,Phonetic,SpellingAltv1,SpellingAltv2,NotCognateWithMainWordInThisFamily2
11131220209,"‘Flemish’: Ostend",51.23333,2.91667,10,one,,oyno,,ɛːn,,,0
11131220209,"‘Flemish’: Ostend",51.23333,2.91667,20,two,,dwaaw,,tʰβɛː,,,0
11131220209,"‘Flemish’: Ostend",51.23333,2.91667,30,three,,tris,,dɾiˑə,,,0
11131220209,"‘Flemish’: Ostend",51.23333,2.91667,40,four,,kwetwores,,viˑəɾə,,,0
11131220209,"‘Flemish’: Ostend",51.23333,2.91667,50,five,,kwenkwe,,ˈvø̈və,,,0
11131220209,"‘Flemish’: Ostend",51.23333,2.91667,60,six,,swexs,,ˈzasə,,,0
11131220209,"‘Flemish’: Ostend",51.23333,2.91667,70,seven,,sextam,,ˈseːvn̩,,,0
11131220209,"‘Flemish’: Ostend",51.23333,2.91667,80,eight,,oxtuu,,ˈɑ̈χtə,,,0
11131220209,"‘Flemish’: Ostend",51.23333,2.91667,90,nine,,nowan,,ˈneːhə̃,,,0
11131220209,"‘Flemish’: Ostend",51.23333,2.91667,100,ten,,dekam,,tiˑənə,,,0
11131220209,"‘Flemish’: Ostend",51.23333,2.91667,200,hundred,,kantom,,ˈʊndr̩t,,,0
11131220209,"‘Flemish’: Ostend",51.23333,2.91667,7820,,,,,ɑ̈ˑö,,,0
11131220209,"‘Flemish’: Ostend",51.23333,2.91667,7020,,,,,βɛt,,,0
11131220209,"‘Flemish’: Ostend",51.23333,2.91667,7030,,,,,rɔːt,,,0
11131220209,"‘Flemish’: Ostend",51.23333,2.91667,7040,green,,glastos,,ˈhɾuənə,,,0
11131220209,"‘Flemish’: Ostend",51.23333,2.91667,7210,,,,,la̠ŋ,,,0
11131220209,"‘Flemish’: Ostend",51.23333,2.91667,7410,,,,,ʃχɛrp,,,0
11131220209,"‘Flemish’: Ostend",51.23333,2.91667,7840,full,,laanos,,v̥œl,,,0
11131220209,"‘Flemish’: Ostend",51.23333,2.91667,7510,young,,yowankos,,jʊŋk,,,0
11131220209,"‘Flemish’: Ostend",51.23333,2.91667,7980,,,,,ˈniːβ̞ə,,,0
11131220209,"‘Flemish’: Ostend",51.23333,2.91667,7670,,,,,na̠kt,,,0
11131220209,"‘Flemish’: Ostend",51.23333,2.91667,7650,,,,,kβ̞ɪk̟,,,0
11131220209,"‘Flemish’: Ostend",51.23333,2.91667,7660,,,,,ˈvɑ̈stə,,,0
11131220209,"‘Flemish’: Ostend",51.23333,2.91667,7710,good,,mati,,hoət,,,0
11131220209,"‘Flemish’: Ostend",51.23333,2.91667,7910,,,,,βɑ̈rm,,,0
11131220209,"‘Flemish’: Ostend",51.23333,2.91667,7920,,,,,kut,,,0
11131220209,"‘Flemish’: Ostend",51.23333,2.91667,7560,,,,,zɛːs̠,,,0
11131220209,"‘Flemish’: Ostend",51.23333,2.91667,7680,,,,,ˈɛləç,,,0
11131220209,"‘Flemish’: Ostend",51.23333,2.91667,7700,,,,,"ˈbeˑtr̩ ̥",,,0
11131220209,"‘Flemish’: Ostend",51.23333,2.91667,810,,,,,raht,,,0
11131220209,"‘Flemish’: Ostend",51.23333,2.91667,2010,head,,kwennom,,o̞ːft,,,0
11131220209,"‘Flemish’: Ostend",51.23333,2.91667,2110,,,,,ˈo̞ˑχə,,,0
11131220209,"‘Flemish’: Ostend",51.23333,2.91667,2130,,,,,ˈɔ̝ːɾə,,,0
11131220209,"‘Flemish’: Ostend",51.23333,2.91667,2140,teardrop,,dakro,,Array,,,0
11131220209,"‘Flemish’: Ostend",51.23333,2.91667,2210,,,,,mʊnt,,,0
11131220209,"‘Flemish’: Ostend",51.23333,2.91667,2230,tongue,,tangwaat,,ˈtʊŋə,,,0
11131220209,"‘Flemish’: Ostend",51.23333,2.91667,2240,,,,,tɑ̈nt,,,0
11131220209,"‘Flemish’: Ostend",51.23333,2.91667,2310,,,,,ɑ̈nt,,,0
11131220209,"‘Flemish’: Ostend",51.23333,2.91667,2510,,,,,vu̞ˑət,,,0
11131220209,"‘Flemish’: Ostend",51.23333,2.91667,2530,,,,,kniˑə,,,0
11131220209,"‘Flemish’: Ostend",51.23333,2.91667,2540,,,,,tɛːn,,,0
11131220209,"‘Flemish’: Ostend",51.23333,2.91667,2610,,,,,blu̞ˑət,,,0
11131220209,"‘Flemish’: Ostend",51.23333,2.91667,2620,,,,,bɛːn,,,0
11131220209,"‘Flemish’: Ostend",51.23333,2.91667,2640,,,,,ˈna̠ːχə,,,0
11131220209,"‘Flemish’: Ostend",51.23333,2.91667,2810,,,,,ˈa̝rtə,,,0
11131220209,"‘Flemish’: Ostend",51.23333,2.91667,2840,,,,,ˈleːvəs̠,,,0
11131220209,"‘Flemish’: Ostend",51.23333,2.91667,4310,,,,,"ˈmoːdr̩ ̥",,,0
11131220209,"‘Flemish’: Ostend",51.23333,2.91667,4320,,,,,"ˈfɔ̞ːd̪r̩ ̥",,,0
11131220209,"‘Flemish’: Ostend",51.23333,2.91667,4410,,,,,ˈdɔ̞χtəs̠,,,0
11131220209,"‘Flemish’: Ostend",51.23333,2.91667,4330,,,,,ˈbɾu̞ːɾə,,,0
11131220209,"‘Flemish’: Ostend",51.23333,2.91667,4100,name,,anuman,,ˈnäːmə,,,0
11131220209,"‘Flemish’: Ostend",51.23333,2.91667,4110,,,,,β̞ɔˑɾ̥tʰ,,,0
11131220209,"‘Flemish’: Ostend",51.23333,2.91667,3120,,,,,ʊnt,,,0
11131220209,"‘Flemish’: Ostend",51.23333,2.91667,3150,,,,,mʉs,,,0
11131220209,"‘Flemish’: Ostend",51.23333,2.91667,3230,,,,,ˈχɑ̟̃zə,,,0
11131220209,"‘Flemish’: Ostend",51.23333,2.91667,3310,,,,,ku̞ˑə,,,0
11131220209,"‘Flemish’: Ostend",51.23333,2.91667,3320,,,,,lɑ̈m,,,0
11131220209,"‘Flemish’: Ostend",51.23333,2.91667,3340,,,,,kɔːf,,,0
11131220209,"‘Flemish’: Ostend",51.23333,2.91667,3240,,,,,vɛs,,,0
11131220209,"‘Flemish’: Ostend",51.23333,2.91667,3820,,,,,ˈɔːɾən,,,0
11131220209,"‘Flemish’: Ostend",51.23333,2.91667,3900,,,,,ˈβœlə,,,0
11131220209,"‘Flemish’: Ostend",51.23333,2.91667,5120,,,,,ˈmɔ̞ːnə,,,0
11131220209,"‘Flemish’: Ostend",51.23333,2.91667,5260,,,,,nɔːɾt,,,0
11131220209,"‘Flemish’: Ostend",51.23333,2.91667,5510,,,,,stɛ̝ːn,,,0
11131220209,"‘Flemish’: Ostend",51.23333,2.91667,5430,,,,,ˈɑ̈sə,,,0
11131220209,"‘Flemish’: Ostend",51.23333,2.91667,5520,soil,,kwriiyets,,ˈa̝ːrdə,,,0
11131220209,"‘Flemish’: Ostend",51.23333,2.91667,6260,,,,,lɔ̝ːf,,,0
11131220209,"‘Flemish’: Ostend",51.23333,2.91667,6270,,,,,dɔːn,,,0
11131220209,"‘Flemish’: Ostend",51.23333,2.91667,6290,,,,,ɛ̝ːk̟,,,0
11131220209,"‘Flemish’: Ostend",51.23333,2.91667,5810,,,,,ˈɾe̝ːhə̃,,,0
11131220209,"‘Flemish’: Ostend",51.23333,2.91667,5910,,,,,stɔɾm,,,0
11131220209,"‘Flemish’: Ostend",51.23333,2.91667,5920,,,,,"ˈdœndr̩ ̥",,,0
11131220209,"‘Flemish’: Ostend",51.23333,2.91667,5820,,,,,snɛˑʊ,,,0
11131220209,"‘Flemish’: Ostend",51.23333,2.91667,5830,,,,,is,,,0
11131220209,"‘Flemish’: Ostend",51.23333,2.91667,5850,wind,,wintos,,βɪnt,,,0
11131220209,"‘Flemish’: Ostend",51.23333,2.91667,6000,,,,,"ˈʊŋr̩ ̥",,,0
11131220209,"‘Flemish’: Ostend",51.23333,2.91667,6050,,,,,ma̠ˑɔ̈k̟,,,0
11131220209,"‘Flemish’: Ostend",51.23333,2.91667,6150,,,,,..,,,0
11131220209,"‘Flemish’: Ostend",51.23333,2.91667,6040,salt,,salanos,,zut,,,0
11131220209,"‘Flemish’: Ostend",51.23333,2.91667,6070,grain,,graanom,,ˈkɔ̝ːrn̩,,,0
11131220209,"‘Flemish’: Ostend",51.23333,2.91667,6510,,,,,ʉ̟s,,,0
11131220209,"‘Flemish’: Ostend",51.23333,2.91667,6560,,,,,heːm,,,0
11131220209,"‘Flemish’: Ostend",51.23333,2.91667,6540,,,,,ɣɑ̈ːs̠̆t,,,0
11131220209,"‘Flemish’: Ostend",51.23333,2.91667,6550,,,,,ˈɔ̝ːvn̩,,,0
11131220209,"‘Flemish’: Ostend",51.23333,2.91667,6570,,,,,stuˑəl,,,0
11131220209,"‘Flemish’: Ostend",51.23333,2.91667,6580,,,,,bɑ̝̈t,,,0
11131220209,"‘Flemish’: Ostend",51.23333,2.91667,6600,,,,,dɪŋk̟,,,0
11131220209,"‘Flemish’: Ostend",51.23333,2.91667,1440,,,,,tɔp,,,0
11131220209,"‘Flemish’: Ostend",51.23333,2.91667,6630,,,,,ˈnɑ̈ˑɔ̈dɫ̩,,,0
11131220209,"‘Flemish’: Ostend",51.23333,2.91667,6640,,,,,rɪŋk̟,,,0
11131220209,"‘Flemish’: Ostend",51.23333,2.91667,8000,,,,,ɛs,,,0
11131220209,"‘Flemish’: Ostend",51.23333,2.91667,8310,,,,,ɛt,,,0
11131220209,"‘Flemish’: Ostend",51.23333,2.91667,8330,,,,,bi̞t,,,0
11131220209,"‘Flemish’: Ostend",51.23333,2.91667,8320,,,,,dɾɪŋk̟,,,0
11131220209,"‘Flemish’: Ostend",51.23333,2.91667,8510,,,,,zɛː,,,0
11131220209,"‘Flemish’: Ostend",51.23333,2.91667,8520,,,,,ɔ̝ːs̠,,,0
11131220209,"‘Flemish’: Ostend",51.23333,2.91667,9620,,,,,ˈɔ̝ːpm̩,,,0
11131220209,"‘Flemish’: Ostend",51.23333,2.91667,8120,,,,,zɛt,,,0
11131220209,"‘Flemish’: Ostend",51.23333,2.91667,8720,,,,,β̞ɑ̈s,,,0
11131220209,"‘Flemish’: Ostend",51.23333,2.91667,8940,,,,,fa̝ht,,,0
11131220209,"‘Flemish’: Ostend",51.23333,2.91667,8990,,,,,sβaːs̠,,,0
11131220209,"‘Flemish’: Ostend",51.23333,2.91667,1010,,,,,ɛ̝k̟,,,0
11131220209,"‘Flemish’: Ostend",51.23333,2.91667,1210,,,,,ˈβ̞ɑ̈də,,,0
11131220209,"‘Flemish’: Ostend",51.23333,2.91667,1410,,,,,ɪn,,,0
11131220209,"‘Flemish’: Ostend",51.23333,2.91667,1430,,,,,"ʉ̟ ̞t",,,0
11131220209,"‘Flemish’: Ostend",51.23333,2.91667,1460,,,,,ˈo̞ːvr̩,,,0
11131220209,"‘Flemish’: Ostend",51.23333,2.91667,1470,,,,,ˈmɛdn̩,,,0
11131220209,"‘Flemish’: Ostend",51.23333,2.91667,5010,,,,,däχ,,,0
11131220209,"‘Flemish’: Ostend",51.23333,2.91667,5020,,,,,näχt,,,0
11131220209,"‘Flemish’: Ostend",51.23333,2.91667,510,,,,,jɔ̞ːr̥,,,0
